department_id,department_name,latitude,longitude,locality,postal_code
05,Hautes-Alpes,44.816,6.9416,Abriès,05460
05,Hautes-Alpes,44.779,6.8751,Aiguilles,05470
05,Hautes-Alpes,44.619,6.2296,Ancelle,05260
05,Hautes-Alpes,44.782,6.4721,L'Argentière-la-Bessée,05120
05,Hautes-Alpes,44.763,6.7223,Arvieux,05350
05,Hautes-Alpes,44.492,5.7202,Aspremont,05140
05,Hautes-Alpes,44.812,6.0007,Aspres-lès-Corps,05800
05,Hautes-Alpes,44.561,5.7720,Aspres-sur-Buëch,05140
05,Hautes-Alpes,44.533,6.1911,Avançon,05230
05,Hautes-Alpes,44.504,6.5049,Baratier,05200
05,Hautes-Alpes,44.430,5.9058,Barcillonnette,05110
05,Hautes-Alpes,44.264,5.7286,Barret-sur-Méouge,05300
05,Hautes-Alpes,44.455,5.7490,La Bâtie-Montsaléon,05700
05,Hautes-Alpes,44.579,6.2126,La Bâtie-Neuve,05230
05,Hautes-Alpes,44.555,6.1557,La Bâtie-Vieille,05000
05,Hautes-Alpes,44.548,5.6537,La Beaume,05140
05,Hautes-Alpes,44.405,5.7534,Le Bersac,05700
05,Hautes-Alpes,44.421,6.2228,Bréziers,05190
05,Hautes-Alpes,44.899,6.6494,Briançon,05100
05,Hautes-Alpes,44.467,5.5038,Valdoule,05150
05,Hautes-Alpes,44.657,6.1475,Buissard,05500
05,Hautes-Alpes,44.652,6.8036,Ceillac,05600
05,Hautes-Alpes,44.853,6.7648,Cervières,05100
05,Hautes-Alpes,44.477,5.7830,Chabestan,05400
05,Hautes-Alpes,44.647,6.1679,Chabottes,05260
05,Hautes-Alpes,44.717,6.5313,Champcella,05310
05,Hautes-Alpes,44.745,6.2731,Champoléon,05260
05,Hautes-Alpes,44.364,5.6601,Chanousse,05700
05,Hautes-Alpes,44.505,5.8977,Châteauneuf-d'Oze,05400
05,Hautes-Alpes,44.642,6.4829,Châteauroux-les-Alpes,05380
05,Hautes-Alpes,44.484,6.0518,Châteauvieux,05000
05,Hautes-Alpes,44.767,6.8000,Château-Ville-Vieille,05350
05,Hautes-Alpes,44.767,6.8000,Château-Ville-Vieille,05350
05,Hautes-Alpes,44.758,6.0118,Aubessagne,05800
05,Hautes-Alpes,44.545,6.2878,Chorges,05230
05,Hautes-Alpes,44.748,6.0472,Les Costes,05500
05,Hautes-Alpes,44.537,6.6247,Crévoux,05200
05,Hautes-Alpes,44.496,6.4619,Crots,05200
05,Hautes-Alpes,44.580,6.4755,Embrun,05200
05,Hautes-Alpes,44.213,5.7289,Éourres,05300
05,Hautes-Alpes,44.424,5.6109,L'Épine,05700
05,Hautes-Alpes,44.462,5.8930,Esparron,05110
05,Hautes-Alpes,44.493,6.2327,Espinasses,05190
05,Hautes-Alpes,44.320,5.6437,Étoile-Saint-Cyrice,05700
05,Hautes-Alpes,44.692,6.6668,Eygliers,05600
05,Hautes-Alpes,44.357,5.7833,Garde-Colombe,05300
05,Hautes-Alpes,44.357,5.7833,Garde-Colombe,05300
05,Hautes-Alpes,44.357,5.7833,Garde-Colombe,05300
05,Hautes-Alpes,44.665,6.0582,La Fare-en-Champsaur,05500
05,Hautes-Alpes,44.567,5.7404,La Faurie,05140
05,Hautes-Alpes,44.629,6.1410,Forest-Saint-Julien,05260
05,Hautes-Alpes,44.453,6.0006,Fouillouse,05130
05,Hautes-Alpes,44.736,6.4593,Freissinières,05310
05,Hautes-Alpes,44.535,6.0081,La Freissinouse,05000
05,Hautes-Alpes,44.536,5.8758,Furmeyer,05400
05,Hautes-Alpes,44.579,6.0648,Gap,05000
05,Hautes-Alpes,44.579,6.0648,Gap,05000
05,Hautes-Alpes,44.748,5.9748,Le Glaizil,05800
05,Hautes-Alpes,45.060,6.2840,La Grave,05320
05,Hautes-Alpes,44.816,6.2425,La Chapelle-en-Valgaudémar,05800
05,Hautes-Alpes,44.668,6.7010,Guillestre,05600
05,Hautes-Alpes,44.568,5.6284,La Haute-Beaume,05140
05,Hautes-Alpes,44.505,6.1080,Jarjayes,05130
05,Hautes-Alpes,44.334,5.8165,Laragne-Montéglin,05300
05,Hautes-Alpes,44.436,5.9734,Lardier-et-Valença,05110
05,Hautes-Alpes,44.641,6.0710,Laye,05500
05,Hautes-Alpes,44.351,5.8499,Lazer,05300
05,Hautes-Alpes,44.481,6.0725,Lettret,05130
05,Hautes-Alpes,44.533,5.9498,Manteyer,05400
05,Hautes-Alpes,44.383,5.7125,Méreuil,05700
05,Hautes-Alpes,44.716,6.8919,Molines-en-Queyras,05350
05,Hautes-Alpes,44.393,5.9339,Monêtier-Allemont,05110
05,Hautes-Alpes,44.995,6.4696,Le Monêtier-les-Bains,05220
05,Hautes-Alpes,44.591,5.6676,Montbrand,05140
05,Hautes-Alpes,44.414,5.6699,Montclus,05700
05,Hautes-Alpes,44.669,6.6246,Mont-Dauphin,05600
05,Hautes-Alpes,44.543,6.2330,Montgardin,05230
05,Hautes-Alpes,44.938,6.7277,Montgenèvre,05100
05,Hautes-Alpes,44.366,5.6145,Montjay,05150
05,Hautes-Alpes,44.589,5.8856,Montmaur,05400
05,Hautes-Alpes,44.450,5.5535,Montmorin,05150
05,Hautes-Alpes,44.386,5.7462,Montrond,05700
05,Hautes-Alpes,44.740,6.1293,La Motte-en-Champsaur,05500
05,Hautes-Alpes,44.409,5.5089,Moydans,05150
05,Hautes-Alpes,44.495,6.0255,Neffes,05000
05,Hautes-Alpes,45.044,6.5986,Névache,05100
05,Hautes-Alpes,44.309,5.7545,Nossage-et-Bénévent,05700
05,Hautes-Alpes,44.699,6.0010,Le Noyer,05500
05,Hautes-Alpes,44.684,6.3489,Orcières,05170
05,Hautes-Alpes,44.684,6.3489,Orcières,05170
05,Hautes-Alpes,44.314,5.7061,Orpierre,05700
05,Hautes-Alpes,44.485,6.5797,Les Orres,05200
05,Hautes-Alpes,44.505,5.7987,Oze,05400
05,Hautes-Alpes,44.510,5.9987,Pelleautier,05000
05,Hautes-Alpes,44.899,6.4358,Vallouise-Pelvoux,05340
05,Hautes-Alpes,44.899,6.4358,Vallouise-Pelvoux,05340
05,Hautes-Alpes,44.478,5.6480,La Piarre,05700
05,Hautes-Alpes,44.278,5.9013,Le Poët,05300
05,Hautes-Alpes,44.684,6.0343,Poligny,05500
05,Hautes-Alpes,44.543,6.3364,Prunières,05230
05,Hautes-Alpes,44.890,6.5667,Puy-Saint-André,05100
05,Hautes-Alpes,44.568,6.4112,Puy-Saint-Eusèbe,05200
05,Hautes-Alpes,44.897,6.6047,Puy-Saint-Pierre,05100
05,Hautes-Alpes,44.814,6.4647,Puy-Saint-Vincent,05290
05,Hautes-Alpes,44.555,6.4366,Puy-Sanières,05200
05,Hautes-Alpes,44.606,6.0107,Rabou,05400
05,Hautes-Alpes,44.546,6.1316,Rambaud,05000
05,Hautes-Alpes,44.610,6.3604,Réallon,05160
05,Hautes-Alpes,44.471,6.1597,Remollon,05190
05,Hautes-Alpes,44.681,6.5645,Réotier,05600
05,Hautes-Alpes,44.410,5.5580,Ribeyret,05150
05,Hautes-Alpes,44.220,5.8434,Val Buëch-Méouge,05300
05,Hautes-Alpes,44.220,5.8434,Val Buëch-Méouge,05300
05,Hautes-Alpes,44.220,5.8434,Val Buëch-Méouge,05300
05,Hautes-Alpes,44.624,6.6231,Risoul,05600
05,Hautes-Alpes,44.735,6.9920,Ristolas,05460
05,Hautes-Alpes,44.452,6.1924,Rochebrune,05190
05,Hautes-Alpes,44.765,6.6164,La Roche-de-Rame,05310
05,Hautes-Alpes,44.583,5.9604,La Roche-des-Arnauds,05400
05,Hautes-Alpes,44.593,6.1488,La Rochette,05000
05,Hautes-Alpes,44.399,5.4614,Rosans,05150
05,Hautes-Alpes,44.484,6.2666,Rousset,05190
05,Hautes-Alpes,44.586,6.5707,Saint-André-d'Embrun,05200
05,Hautes-Alpes,44.364,5.5209,Saint-André-de-Rosans,05150
05,Hautes-Alpes,44.557,6.3539,Saint-Apollinaire,05160
05,Hautes-Alpes,44.488,5.8484,Saint-Auban-d'Oze,05400
05,Hautes-Alpes,44.682,6.1028,Saint-Bonnet-en-Champsaur,05500
05,Hautes-Alpes,44.682,6.1028,Saint-Bonnet-en-Champsaur,05500
05,Hautes-Alpes,44.682,6.1028,Saint-Bonnet-en-Champsaur,05500
05,Hautes-Alpes,44.934,6.6013,Saint-Chaffrey,05330
05,Hautes-Alpes,44.647,6.5607,Saint-Clément-sur-Durance,05600
05,Hautes-Alpes,44.288,5.6683,Sainte-Colombe,05700
05,Hautes-Alpes,44.724,6.6355,Saint-Crépin,05600
05,Hautes-Alpes,44.677,5.9404,Dévoluy,05250
05,Hautes-Alpes,44.677,5.9404,Dévoluy,05250
05,Hautes-Alpes,44.677,5.9404,Dévoluy,05250
05,Hautes-Alpes,44.677,5.9404,Dévoluy,05250
05,Hautes-Alpes,44.677,5.9404,Dévoluy,05250
05,Hautes-Alpes,44.508,6.1632,Saint-Étienne-le-Laus,05130
05,Hautes-Alpes,44.722,6.0364,Saint-Eusèbe-en-Champsaur,05500
05,Hautes-Alpes,44.793,6.0257,Saint-Firmin,05800
05,Hautes-Alpes,44.774,6.0696,Saint-Jacques-en-Valgodemard,05800
05,Hautes-Alpes,44.674,6.2308,Saint-Jean-Saint-Nicolas,05260
05,Hautes-Alpes,44.674,6.2308,Saint-Jean-Saint-Nicolas,05260
05,Hautes-Alpes,44.626,5.7197,Saint-Julien-en-Beauchêne,05140
05,Hautes-Alpes,44.668,6.1299,Saint-Julien-en-Champsaur,05500
05,Hautes-Alpes,44.634,6.1088,Saint-Laurent-du-Cros,05500
05,Hautes-Alpes,44.646,6.2117,Saint-Léger-les-Mélèzes,05260
05,Hautes-Alpes,44.463,5.4741,Sainte-Marie,05150
05,Hautes-Alpes,44.837,6.5825,Saint-Martin-de-Queyrières,05120
05,Hautes-Alpes,44.798,6.1127,Saint-Maurice-en-Valgodemard,05800
05,Hautes-Alpes,44.688,6.1698,Saint-Michel-de-Chaillol,05260
05,Hautes-Alpes,44.519,5.6904,Saint-Pierre-d'Argençon,05140
05,Hautes-Alpes,44.248,5.7683,Saint-Pierre-Avez,05300
05,Hautes-Alpes,44.536,6.5292,Saint-Sauveur,05200
05,Hautes-Alpes,44.684,6.8905,Saint-Véran,05350
05,Hautes-Alpes,44.463,5.8338,Le Saix,05400
05,Hautes-Alpes,44.320,5.7752,Saléon,05300
05,Hautes-Alpes,44.242,5.7009,Salérans,05300
05,Hautes-Alpes,44.952,6.5653,La Salle-les-Alpes,05240
05,Hautes-Alpes,44.430,6.0109,La Saulce,05110
05,Hautes-Alpes,44.485,6.3231,Le Sauze-du-Lac,05160
05,Hautes-Alpes,44.527,6.3936,Savines-le-Lac,05160
05,Hautes-Alpes,44.424,5.7992,Savournon,05700
05,Hautes-Alpes,44.421,5.7154,Serres,05700
05,Hautes-Alpes,44.458,5.6853,Sigottier,05700
05,Hautes-Alpes,44.480,5.9695,Sigoyer,05130
05,Hautes-Alpes,44.362,5.5732,Sorbiers,05150
05,Hautes-Alpes,44.459,6.0448,Tallard,05130
05,Hautes-Alpes,44.485,6.1968,Théus,05190
05,Hautes-Alpes,44.354,5.7182,Trescléoux,05700
05,Hautes-Alpes,44.319,5.8831,Upaix,05300
05,Hautes-Alpes,44.950,6.6665,Val-des-Prés,05100
05,Hautes-Alpes,44.830,6.4119,Vallouise,05290
05,Hautes-Alpes,44.489,6.1378,Valserres,05130
05,Hautes-Alpes,44.592,6.7135,Vars,05560
05,Hautes-Alpes,44.385,5.8884,Ventavon,05300
05,Hautes-Alpes,44.557,5.8228,Veynes,05400
05,Hautes-Alpes,44.821,6.5367,Les Vigneaux,05120
05,Hautes-Alpes,44.999,6.3642,Villar-d'Arêne,05480
05,Hautes-Alpes,44.836,6.1355,Villar-Loubière,05800
05,Hautes-Alpes,44.839,6.6504,Villar-Saint-Pancrace,05100
05,Hautes-Alpes,44.424,5.9476,Vitrolles,05110
