department_id,department_name,latitude,longitude,locality,postal_code
08,Ardennes,49.491,4.3270,Acy-Romance,08300
08,Ardennes,49.790,4.7700,Aiglemont,08090
08,Ardennes,49.470,4.1638,Aire,08190
08,Ardennes,49.403,4.3451,Alincourt,08310
08,Ardennes,49.511,4.5491,Alland'Huy-et-Sausseuil,08130
08,Ardennes,49.516,4.5030,Amagne,08300
08,Ardennes,49.489,4.4893,Ambly-Fleury,08130
08,Ardennes,49.924,4.6642,Anchamps,08500
08,Ardennes,49.635,4.9772,Angecourt,08450
08,Ardennes,49.431,4.4138,Annelles,08310
08,Ardennes,49.844,4.3047,Antheny,08260
08,Ardennes,49.795,4.3135,Aouste,08290
08,Ardennes,49.259,4.9676,Apremont,08250
08,Ardennes,49.267,4.7048,Ardeuil-et-Montfauxelles,08400
08,Ardennes,49.529,4.8988,Les Grandes-Armoises,08390
08,Ardennes,49.500,4.8285,Les Petites-Armoises,08390
08,Ardennes,49.553,4.3416,Arnicourt,08300
08,Ardennes,49.825,4.6613,Arreux,08090
08,Ardennes,49.571,4.8926,Artaise-le-Vivier,08390
08,Ardennes,49.473,4.1237,Asfeld,08190
08,Ardennes,49.476,4.5849,Attigny,08130
08,Ardennes,49.764,4.4276,Aubigny-les-Pothées,08150
08,Ardennes,49.555,4.4829,Auboncourt-Vauzelles,08270
08,Ardennes,50.087,4.7669,Aubrives,08320
08,Ardennes,49.615,5.2955,Auflance,08370
08,Ardennes,49.857,4.2684,Auge,08380
08,Ardennes,49.276,4.6239,Aure,08400
08,Ardennes,49.345,4.3272,Aussonce,08310
08,Ardennes,49.460,4.8776,Authe,08240
08,Ardennes,49.606,5.0179,Autrecourt-et-Pourron,08210
08,Ardennes,49.454,4.9056,Autruche,08240
08,Ardennes,49.265,4.8311,Autry,08250
08,Ardennes,49.866,4.3607,Auvillers-les-Forges,08260
08,Ardennes,49.866,4.3607,Auvillers-les-Forges,08260
08,Ardennes,49.480,4.2513,Avançon,08300
08,Ardennes,49.465,4.0688,Avaux,08190
08,Ardennes,49.721,4.7524,Les Ayvelles,08000
08,Ardennes,49.601,4.6675,Baâlons,08430
08,Ardennes,49.672,4.7184,Balaives-et-Butz,08160
08,Ardennes,49.689,4.9635,Balan,08200
08,Ardennes,49.491,4.1510,Balham,08190
08,Ardennes,49.421,4.7519,Ballay,08400
08,Ardennes,49.570,4.1324,Banogne-Recouvrance,08220
08,Ardennes,49.676,4.5796,Barbaise,08430
08,Ardennes,49.525,4.3153,Barby,08300
08,Ardennes,49.446,4.9576,Bar-lès-Buzancy,08240
08,Ardennes,49.396,5.0111,Bayonville,08240
08,Ardennes,49.677,4.9851,Bazeilles,08140
08,Ardennes,49.527,5.0353,Beaumont-en-Argonne,08210
08,Ardennes,49.372,4.8922,Beffu-et-le-Morthomme,08250
08,Ardennes,49.465,4.8175,Belleville-et-Châtillon-sur-Bar,08240
08,Ardennes,49.465,4.8175,Belleville-et-Châtillon-sur-Bar,08240
08,Ardennes,49.773,4.6375,Belval,08090
08,Ardennes,49.481,5.0441,Belval-Bois-des-Dames,08240
08,Ardennes,49.419,4.2474,Bergnicourt,08300
08,Ardennes,49.526,4.9372,La Berlière,08240
08,Ardennes,49.539,4.4014,Bertoncourt,08300
08,Ardennes,49.553,4.9701,La Besace,08450
08,Ardennes,49.476,4.3845,Biermes,08300
08,Ardennes,49.557,5.2774,Bièvres,08370
08,Ardennes,49.390,4.4219,Bignicourt,08310
08,Ardennes,49.623,5.1980,Blagny,08110
08,Ardennes,49.766,4.2523,Blanchefosse-et-Bay,08290
08,Ardennes,49.766,4.2523,Blanchefosse-et-Bay,08290
08,Ardennes,49.487,4.1904,Blanzy-la-Salonnaise,08190
08,Ardennes,49.815,4.4541,Blombay,08260
08,Ardennes,49.763,4.8688,Bosseval-et-Briancourt,08350
08,Ardennes,49.839,4.2558,Bossus-lès-Rumigny,08290
08,Ardennes,49.258,4.7729,Bouconville,08250
08,Ardennes,49.419,4.8353,Boult-aux-Bois,08240
08,Ardennes,49.689,4.6974,Boulzicourt,08410
08,Ardennes,49.382,4.6179,Bourcq,08400
08,Ardennes,49.888,4.5544,Bourg-Fidèle,08230
08,Ardennes,49.681,4.7699,Boutancourt,08160
08,Ardennes,49.583,4.6648,Bouvellemont,08430
08,Ardennes,49.847,4.7508,Bogny-sur-Meuse,08120
08,Ardennes,49.332,4.7555,Brécy-Brières,08400
08,Ardennes,49.658,5.0796,Brévilly,08140
08,Ardennes,49.426,4.0624,Brienne-sur-Aisne,08190
08,Ardennes,49.481,4.8613,Brieulles-sur-Bar,08240
08,Ardennes,49.403,4.8693,Briquenay,08240
08,Ardennes,49.932,4.2804,Brognon,08380
08,Ardennes,49.628,4.9142,Bulson,08450
08,Ardennes,49.418,4.9736,Buzancy,08240
08,Ardennes,49.418,4.9736,Buzancy,08240
08,Ardennes,49.638,5.1718,Carignan,08110
08,Ardennes,49.638,5.1718,Carignan,08110
08,Ardennes,49.351,4.4594,Cauroy,08310
08,Ardennes,49.799,4.4261,Cernion,08260
08,Ardennes,49.572,4.6997,Chagny,08430
08,Ardennes,49.707,4.7564,Chalandry-Elaire,08160
08,Ardennes,49.308,4.7459,Challerange,08400
08,Ardennes,49.351,4.9279,Champigneulle,08250
08,Ardennes,49.704,4.6637,Champigneul-sur-Vence,08430
08,Ardennes,49.835,4.3263,Champlin,08260
08,Ardennes,49.760,5.0241,La Chapelle,08200
08,Ardennes,49.607,4.2794,Chappes,08220
08,Ardennes,49.506,4.5900,Charbogne,08130
08,Ardennes,49.419,4.5957,Chardeny,08400
08,Ardennes,49.775,4.7172,Charleville-Mézières,08000
08,Ardennes,50.102,4.8311,Charnois,08600
08,Ardennes,49.534,4.2476,Château-Porcien,08360
08,Ardennes,49.279,4.9523,Chatel-Chéhéry,08250
08,Ardennes,49.840,4.5174,Le Châtelet-sur-Sormonne,08150
08,Ardennes,49.410,4.2741,Le Châtelet-sur-Retourne,08300
08,Ardennes,49.648,4.2382,Chaumont-Porcien,08220
08,Ardennes,49.648,4.2382,Chaumont-Porcien,08220
08,Ardennes,49.648,4.2382,Chaumont-Porcien,08220
08,Ardennes,49.612,4.8679,Chémery-Chéhéry,08350
08,Ardennes,49.612,4.8679,Chémery-Chéhéry,08450
08,Ardennes,49.612,4.8679,Chémery-Chéhéry,08450
08,Ardennes,49.612,4.8679,Chémery-Chéhéry,08450
08,Ardennes,49.511,4.7698,Bairon et ses environs,08390
08,Ardennes,49.511,4.7698,Bairon et ses environs,08390
08,Ardennes,49.511,4.7698,Bairon et ses environs,08400
08,Ardennes,49.561,4.5674,Chesnois-Auboncourt,08270
08,Ardennes,49.662,4.8890,Cheveuges,08350
08,Ardennes,49.323,4.8935,Chevières,08250
08,Ardennes,49.841,4.4706,Chilly,08260
08,Ardennes,50.090,4.8008,Chooz,08600
08,Ardennes,49.451,4.6219,Chuffilly-Roche,08130
08,Ardennes,49.745,4.5479,Clavy-Warby,08460
08,Ardennes,49.808,4.6118,Cliron,08090
08,Ardennes,49.542,4.1979,Condé-lès-Herpy,08360
08,Ardennes,49.245,4.8554,Condé-lès-Autry,08250
08,Ardennes,49.361,4.6155,Contreuve,08400
08,Ardennes,49.298,4.9335,Cornay,08250
08,Ardennes,49.582,4.4545,Corny-Machéroménil,08270
08,Ardennes,49.509,4.4620,Coucy,08300
08,Ardennes,49.429,4.5743,Coulommes-et-Marqueny,08130
08,Ardennes,49.405,4.7891,La Croix-aux-Bois,08400
08,Ardennes,49.704,5.0012,Daigny,08140
08,Ardennes,49.807,4.6827,Damouzy,08090
08,Ardennes,49.654,5.2305,Les Deux-Villes,08110
08,Ardennes,49.875,4.6936,Deville,08800
08,Ardennes,49.685,4.8099,Dom-le-Mesnil,08160
08,Ardennes,49.685,4.8099,Dom-le-Mesnil,08160
08,Ardennes,49.679,4.4817,Dommery,08460
08,Ardennes,49.737,4.8902,Donchery,08350
08,Ardennes,49.633,4.3057,Doumely-Bégny,08220
08,Ardennes,49.516,4.4283,Doux,08300
08,Ardennes,49.673,5.0358,Douzy,08140
08,Ardennes,49.673,5.0358,Douzy,08140
08,Ardennes,49.652,4.3334,Draize,08220
08,Ardennes,49.393,4.5156,Dricourt,08310
08,Ardennes,49.409,4.2095,L'Écaille,08300
08,Ardennes,49.805,4.4839,L'Échelle,08150
08,Ardennes,49.554,4.2876,Écly,08300
08,Ardennes,49.534,4.5877,Écordal,08130
08,Ardennes,49.656,4.7528,Élan,08160
08,Ardennes,49.697,5.1260,Escombres-et-le-Chesnois,08110
08,Ardennes,49.825,4.3456,Estrebay,08260
08,Ardennes,49.852,4.4461,Étalle,08260
08,Ardennes,49.890,4.4030,Éteignières,08260
08,Ardennes,49.686,4.7486,Étrépigny,08160
08,Ardennes,49.628,5.1136,Euilly-et-Lombut,08210
08,Ardennes,49.727,4.6755,Évigny,08090
08,Ardennes,49.294,5.0222,Exermont,08250
08,Ardennes,49.732,4.6191,Fagnon,08090
08,Ardennes,49.608,4.5056,Faissault,08270
08,Ardennes,49.383,4.7411,Falaise,08400
08,Ardennes,49.536,4.5039,Faux,08270
08,Ardennes,50.022,4.7072,Fépin,08170
08,Ardennes,49.758,4.3041,La Férée,08290
08,Ardennes,49.572,5.2400,La Ferté-sur-Chiers,08370
08,Ardennes,49.818,4.3991,Flaignes-Havys,08260
08,Ardennes,49.818,4.3991,Flaignes-Havys,08260
08,Ardennes,49.776,4.9636,Fleigneux,08200
08,Ardennes,49.308,4.9812,Fléville,08250
08,Ardennes,49.883,4.2649,Fligny,08380
08,Ardennes,49.695,4.7751,Flize,08160
08,Ardennes,49.723,4.9328,Floing,08200
08,Ardennes,50.129,4.7746,Foisches,08600
08,Ardennes,49.449,5.0050,Fossé,08240
08,Ardennes,49.664,4.1683,Fraillicourt,08220
08,Ardennes,49.720,5.0754,Francheval,08140
08,Ardennes,49.725,4.7073,La Francheville,08000
08,Ardennes,49.734,4.2619,Le Fréty,08290
08,Ardennes,50.114,4.8629,Fromelennes,08600
08,Ardennes,50.114,4.8629,Fromelennes,08600
08,Ardennes,49.601,5.2562,Fromy,08370
08,Ardennes,49.972,4.6600,Fumay,08170
08,Ardennes,49.432,4.8791,Germont,08240
08,Ardennes,49.773,4.8238,Gernelle,08440
08,Ardennes,49.817,4.8443,Gespunsart,08700
08,Ardennes,49.852,4.3864,Girondelle,08260
08,Ardennes,49.852,4.3864,Girondelle,08260
08,Ardennes,50.142,4.8351,Givet,08600
08,Ardennes,49.732,4.9972,Givonne,08200
08,Ardennes,49.656,4.2961,Givron,08220
08,Ardennes,49.488,4.5313,Givry,08130
08,Ardennes,49.716,4.9057,Glaire,08200
08,Ardennes,49.510,4.1678,Gomont,08190
08,Ardennes,49.652,4.4067,Grandchamp,08270
08,Ardennes,49.290,4.8550,Grandham,08250
08,Ardennes,49.355,4.8654,Grandpré,08250
08,Ardennes,49.355,4.8654,Grandpré,08250
08,Ardennes,49.786,4.8038,La Grandville,08700
08,Ardennes,49.426,4.6403,Grivy-Loisy,08400
08,Ardennes,49.709,4.6041,Gruyères,08430
08,Ardennes,49.953,4.5390,Gué-d'Hossus,08230
08,Ardennes,49.688,4.6330,Guignicourt-sur-Vence,08430
08,Ardennes,49.556,4.6281,Guincourt,08130
08,Ardennes,49.610,4.5842,Hagnicourt,08430
08,Ardennes,49.794,4.5882,Ham-les-Moines,08090
08,Ardennes,50.089,4.7829,Ham-sur-Meuse,08600
08,Ardennes,49.816,4.2344,Hannappes,08290
08,Ardennes,49.672,4.8291,Hannogne-Saint-Martin,08160
08,Ardennes,49.606,4.1432,Hannogne-Saint-Rémy,08220
08,Ardennes,49.624,4.9536,Haraucourt,08450
08,Ardennes,49.852,4.5580,Harcy,08150
08,Ardennes,50.009,4.7909,Hargnies,08170
08,Ardennes,49.439,4.9234,Harricourt,08240
08,Ardennes,49.783,4.6121,Haudrecy,08090
08,Ardennes,49.857,4.7925,Haulmé,08800
08,Ardennes,49.908,4.8473,Les Hautes-Rivières,08800
08,Ardennes,49.908,4.8473,Les Hautes-Rivières,08800
08,Ardennes,49.582,4.2987,Hauteville,08300
08,Ardennes,49.315,4.4117,Hauviné,08310
08,Ardennes,49.992,4.7351,Haybes,08170
08,Ardennes,49.601,5.3530,Herbeuval,08370
08,Ardennes,49.525,4.1882,Herpy-l'Arlésienne,08360
08,Ardennes,50.098,4.7338,Hierges,08320
08,Ardennes,49.623,4.6767,La Horgne,08430
08,Ardennes,49.422,4.1256,Houdilcourt,08190
08,Ardennes,49.812,4.6695,Houldizy,08090
08,Ardennes,49.757,4.9804,Illy,08200
08,Ardennes,49.371,4.9749,Imécourt,08240
08,Ardennes,49.562,4.3190,Inaumont,08300
08,Ardennes,49.756,4.8277,Issancourt-et-Rumel,08440
08,Ardennes,49.674,4.5594,Jandun,08430
08,Ardennes,49.832,4.7638,Joigny-sur-Meuse,08700
08,Ardennes,49.569,4.6630,Jonval,08130
08,Ardennes,49.394,4.3798,Juniville,08310
08,Ardennes,49.605,4.3257,Justine-Herbigny,08270
08,Ardennes,49.902,4.6956,Laifour,08800
08,Ardennes,49.902,4.6956,Laifour,08800
08,Ardennes,49.669,4.3703,Lalobbe,08460
08,Ardennes,49.526,4.6890,Lametz,08130
08,Ardennes,49.274,4.8880,Lançon,08250
08,Ardennes,49.352,5.0129,Landres-et-Saint-Georges,08240
08,Ardennes,50.079,4.8274,Landrichamps,08600
08,Ardennes,49.664,4.5273,Launois-sur-Vence,08430
08,Ardennes,49.830,4.4935,Laval-Morency,08150
08,Ardennes,49.381,4.5508,Leffincourt,08310
08,Ardennes,49.749,4.4562,Lépron-les-Vallées,08150
08,Ardennes,49.544,5.0800,Létanne,08210
08,Ardennes,49.761,4.3415,Liart,08290
08,Ardennes,49.616,5.2289,Linay,08110
08,Ardennes,49.304,4.6426,Liry,08400
08,Ardennes,49.775,4.3877,Logny-Bogny,08150
08,Ardennes,49.386,4.8004,Longwé,08400
08,Ardennes,49.815,4.5856,Lonny,08150
08,Ardennes,49.537,4.4762,Lucquy,08300
08,Ardennes,49.735,4.7869,Lumes,08440
08,Ardennes,49.352,4.5074,Machault,08310
08,Ardennes,49.589,4.9184,Maisoncelle-et-Villers,08450
08,Ardennes,49.575,5.1808,Malandry,08370
08,Ardennes,49.256,4.6553,Manre,08400
08,Ardennes,49.727,4.3415,Maranwez,08460
08,Ardennes,49.835,4.4269,Marby,08260
08,Ardennes,49.314,4.9197,Marcq,08250
08,Ardennes,49.617,5.3613,Margny,08370
08,Ardennes,49.580,5.2715,Margut,08370
08,Ardennes,49.746,4.3812,Marlemont,08290
08,Ardennes,49.548,4.7053,Marquigny,08390
08,Ardennes,49.400,4.6409,Mars-sous-Bourcq,08400
08,Ardennes,49.287,4.6905,Marvaux-Vieux,08400
08,Ardennes,49.676,5.2255,Matton-et-Clémency,08110
08,Ardennes,49.882,4.4326,Maubert-Fontaine,08260
08,Ardennes,49.610,4.6182,Mazerny,08430
08,Ardennes,49.896,4.6319,Les Mazures,08500
08,Ardennes,49.436,4.4498,Ménil-Annelles,08310
08,Ardennes,49.374,4.2876,Ménil-Lépinois,08310
08,Ardennes,49.618,4.3990,Mesmont,08270
08,Ardennes,49.691,5.1528,Messincourt,08110
08,Ardennes,49.659,5.2830,Mogues,08110
08,Ardennes,49.600,5.2789,Moiry,08370
08,Ardennes,49.692,4.9964,La Moncelle,08140
08,Ardennes,49.711,4.6366,Mondigny,08430
08,Ardennes,49.288,4.8031,Montcheutin,08250
08,Ardennes,49.835,4.6504,Montcornet,08090
08,Ardennes,49.790,4.7434,Montcy-Notre-Dame,08090
08,Ardennes,49.549,4.8593,Le Mont-Dieu,08390
08,Ardennes,49.512,4.7189,Montgon,08390
08,Ardennes,49.899,4.7479,Monthermé,08800
08,Ardennes,49.899,4.7479,Monthermé,08800
08,Ardennes,49.899,4.7479,Monthermé,08800
08,Ardennes,49.309,4.7041,Monthois,08400
08,Ardennes,50.047,4.7107,Montigny-sur-Meuse,08170
08,Ardennes,49.645,4.6125,Montigny-sur-Vence,08430
08,Ardennes,49.463,4.4783,Mont-Laurent,08130
08,Ardennes,49.702,4.3285,Montmeillant,08220
08,Ardennes,49.331,4.6413,Mont-Saint-Martin,08400
08,Ardennes,49.386,4.4768,Mont-Saint-Remy,08310
08,Ardennes,49.315,4.7847,Mouron,08250
08,Ardennes,49.589,5.0766,Mouzon,08210
08,Ardennes,49.589,5.0766,Mouzon,08210
08,Ardennes,49.810,4.5394,Murtin-et-Bogny,08150
08,Ardennes,49.503,4.2963,Nanteuil-sur-Aisne,08300
08,Ardennes,49.406,4.3119,Neuflize,08300
08,Ardennes,49.757,4.5124,Neufmaison,08460
08,Ardennes,49.822,4.8066,Neufmanil,08700
08,Ardennes,49.579,4.8560,La Neuville-à-Maire,08450
08,Ardennes,49.933,4.2408,La Neuville-aux-Joûtes,08380
08,Ardennes,49.906,4.3529,Neuville-lez-Beaulieu,08380
08,Ardennes,49.906,4.3529,Neuville-lez-Beaulieu,08380
08,Ardennes,49.346,4.3925,La Neuville-en-Tourne-à-Fuy,08310
08,Ardennes,49.500,4.6919,Neuville-Day,08130
08,Ardennes,49.732,4.5898,Neuville-lès-This,08090
08,Ardennes,49.647,4.3596,La Neuville-lès-Wasigny,08270
08,Ardennes,49.626,4.5391,Neuvizy,08430
08,Ardennes,49.458,4.7943,Noirval,08400
08,Ardennes,49.450,5.0548,Nouart,08240
08,Ardennes,49.450,5.0548,Nouart,08240
08,Ardennes,49.708,4.7975,Nouvion-sur-Meuse,08160
08,Ardennes,49.819,4.7539,Nouzonville,08700
08,Ardennes,49.819,4.7539,Nouzonville,08700
08,Ardennes,49.595,4.4285,Novion-Porcien,08270
08,Ardennes,49.595,4.4285,Novion-Porcien,08270
08,Ardennes,49.546,4.4423,Novy-Chevrières,08300
08,Ardennes,49.658,4.9300,Noyers-Pont-Maugis,08350
08,Ardennes,49.507,4.9286,Oches,08240
08,Ardennes,49.357,4.7829,Olizy-Primat,08250
08,Ardennes,49.357,4.7829,Olizy-Primat,08250
08,Ardennes,49.629,4.8267,Omicourt,08450
08,Ardennes,49.593,4.7394,Omont,08430
08,Ardennes,49.658,5.1576,Osnes,08110
08,Ardennes,49.412,4.5002,Pauvres,08310
08,Ardennes,49.448,4.3551,Perthes,08300
08,Ardennes,49.419,4.0948,Poilcourt-Sydney,08190
08,Ardennes,49.644,4.6526,Poix-Terron,08430
08,Ardennes,49.710,5.0983,Pouru-aux-Bois,08140
08,Ardennes,49.680,5.0886,Pouru-Saint-Remy,08140
08,Ardennes,49.801,4.3612,Prez,08290
08,Ardennes,49.801,4.3612,Prez,08290
08,Ardennes,49.748,4.6856,Prix-lès-Mézières,08000
08,Ardennes,49.636,5.2751,Puilly-et-Charbeaux,08370
08,Ardennes,49.594,4.5367,Puiseux,08270
08,Ardennes,49.681,5.1801,Pure,08110
08,Ardennes,49.445,4.7767,Quatre-Champs,08400
08,Ardennes,49.405,4.5822,Quilly,08400
08,Ardennes,49.652,4.5909,Raillicourt,08430
08,Ardennes,50.121,4.8224,Rancennes,08600
08,Ardennes,49.589,4.9619,Raucourt-et-Flaba,08450
08,Ardennes,49.925,4.4148,Regniowez,08230
08,Ardennes,49.601,4.2320,Remaucourt,08220
08,Ardennes,49.648,4.9937,Remilly-Aillicourt,08450
08,Ardennes,49.783,4.5473,Remilly-les-Pothées,08150
08,Ardennes,49.650,4.1356,Renneville,08220
08,Ardennes,49.849,4.6051,Renwez,08150
08,Ardennes,49.513,4.3835,Rethel,08300
08,Ardennes,49.513,4.3835,Rethel,08300
08,Ardennes,49.934,4.6921,Revin,08500
08,Ardennes,49.484,4.6368,Rilly-sur-Aisne,08130
08,Ardennes,49.838,4.5353,Rimogne,08150
08,Ardennes,49.700,4.2469,Rocquigny,08220
08,Ardennes,49.700,4.2469,Rocquigny,08220
08,Ardennes,49.700,4.2469,Rocquigny,08220
08,Ardennes,49.700,4.2469,Rocquigny,08220
08,Ardennes,49.931,4.5584,Rocroi,08230
08,Ardennes,49.931,4.5584,Rocroi,08230
08,Ardennes,49.931,4.5584,Rocroi,08230
08,Ardennes,49.425,4.1855,Roizy,08190
08,Ardennes,49.684,4.3063,La Romagne,08220
08,Ardennes,49.785,4.5024,Rouvroy-sur-Audry,08150
08,Ardennes,49.785,4.5024,Rouvroy-sur-Audry,08150
08,Ardennes,49.693,5.0181,Rubécourt-et-Lamécourt,08140
08,Ardennes,49.688,4.2062,Rubigny,08220
08,Ardennes,49.804,4.2708,Rumigny,08290
08,Ardennes,49.544,4.6699,La Sabotterie,08130
08,Ardennes,49.669,5.1280,Sachy,08110
08,Ardennes,49.600,5.1735,Sailly,08110
08,Ardennes,49.654,4.8522,Saint-Aignan,08350
08,Ardennes,49.296,4.4347,Saint-Clément-à-Arnes,08310
08,Ardennes,49.307,4.5114,Saint-Étienne-à-Arnes,08310
08,Ardennes,49.573,4.2011,Saint-Fergeux,08360
08,Ardennes,49.573,4.2011,Saint-Fergeux,08360
08,Ardennes,49.520,4.1349,Saint-Germainmont,08190
08,Ardennes,49.724,4.3062,Saint-Jean-aux-Bois,08220
08,Ardennes,49.337,4.9535,Saint-Juvin,08250
08,Ardennes,49.498,4.6247,Saint-Lambert-et-Mont-de-Jeux,08130
08,Ardennes,49.759,4.7760,Saint-Laurent,08090
08,Ardennes,49.452,4.2153,Saint-Loup-en-Champagne,08300
08,Ardennes,49.571,4.6132,Saint-Loup-Terrier,08130
08,Ardennes,49.706,4.7200,Saint-Marceau,08160
08,Ardennes,49.767,4.5751,Saint-Marcel,08460
08,Ardennes,49.371,4.6716,Sainte-Marie,08400
08,Ardennes,49.759,4.9315,Saint-Menges,08200
08,Ardennes,49.338,4.6973,Saint-Morel,08400
08,Ardennes,49.296,4.4641,Saint-Pierre-à-Arnes,08310
08,Ardennes,49.489,4.9453,Saint-Pierremont,08240
08,Ardennes,49.701,4.6831,Saint-Pierre-sur-Vence,08430
08,Ardennes,49.585,4.0805,Saint-Quentin-le-Petit,08220
08,Ardennes,49.399,4.2317,Saint-Remy-le-Petit,08300
08,Ardennes,49.459,4.5923,Sainte-Vaubourg,08130
08,Ardennes,49.597,5.3136,Sapogne-sur-Marche,08370
08,Ardennes,49.659,4.8004,Sapogne-et-Feuchères,08160
08,Ardennes,49.446,4.5041,Saulces-Champenoises,08130
08,Ardennes,49.576,4.5075,Saulces-Monclin,08270
08,Ardennes,49.487,4.3560,Sault-lès-Rethel,08300
08,Ardennes,49.424,4.1566,Sault-Saint-Remy,08190
08,Ardennes,49.550,4.7866,Sauville,08390
08,Ardennes,49.359,4.7215,Savigny-sur-Aisne,08400
08,Ardennes,49.271,4.7368,Séchault,08250
08,Ardennes,49.859,4.6699,Sécheval,08150
08,Ardennes,49.697,4.9298,Sedan,08200
08,Ardennes,49.329,4.5764,Semide,08400
08,Ardennes,49.495,4.6629,Semuy,08130
08,Ardennes,49.308,4.8520,Senuc,08250
08,Ardennes,49.622,4.1879,Seraincourt,08220
08,Ardennes,49.622,4.1879,Seraincourt,08220
08,Ardennes,49.589,4.3613,Sery,08270
08,Ardennes,49.474,4.4528,Seuil,08300
08,Ardennes,49.879,4.4792,Sévigny-la-Forêt,08230
08,Ardennes,49.617,4.0804,Sévigny-Waleppe,08220
08,Ardennes,49.702,4.4041,Signy-l'Abbaye,08460
08,Ardennes,49.702,4.4041,Signy-l'Abbaye,08460
08,Ardennes,49.930,4.2990,Signy-le-Petit,08380
08,Ardennes,49.930,4.2990,Signy-le-Petit,08380
08,Ardennes,49.578,5.3108,Signy-Montlibert,08370
08,Ardennes,49.641,4.7059,Singly,08430
08,Ardennes,49.502,4.9868,Sommauthe,08240
08,Ardennes,49.326,4.9932,Sommerance,08250
08,Ardennes,49.580,4.2671,Son,08300
08,Ardennes,49.551,4.3720,Sorbon,08300
08,Ardennes,49.541,4.5384,Sorcy-Bauthémont,08270
08,Ardennes,49.808,4.5634,Sormonne,08150
08,Ardennes,49.549,4.9220,Stonne,08390
08,Ardennes,49.355,4.6608,Sugny,08400
08,Ardennes,49.765,4.6120,Sury,08090
08,Ardennes,49.519,4.6390,Suzanne,08130
08,Ardennes,49.514,4.8719,Sy,08390
08,Ardennes,49.449,4.2922,Tagnon,08300
08,Ardennes,49.927,4.4748,Taillette,08230
08,Ardennes,49.407,5.0683,Tailly,08240
08,Ardennes,49.407,5.0683,Tailly,08240
08,Ardennes,49.407,5.0683,Tailly,08240
08,Ardennes,49.407,5.0683,Tailly,08240
08,Ardennes,49.510,4.2585,Taizy,08360
08,Ardennes,49.524,4.8248,Tannay,08390
08,Ardennes,49.876,4.2966,Tarzy,08380
08,Ardennes,49.455,4.7079,Terron-sur-Aisne,08400
08,Ardennes,49.649,5.1170,Tétaigne,08110
08,Ardennes,49.648,4.9456,Thelonne,08350
08,Ardennes,49.406,4.9213,Thénorgues,08240
08,Ardennes,49.899,4.8074,Thilay,08800
08,Ardennes,49.899,4.8074,Thilay,08800
08,Ardennes,49.715,4.5119,Thin-le-Moutier,08460
08,Ardennes,49.752,4.6105,This,08090
08,Ardennes,49.545,4.0902,Le Thour,08190
08,Ardennes,49.477,4.4211,Thugny-Trugny,08300
08,Ardennes,49.425,4.7853,Toges,08400
08,Ardennes,49.676,4.6149,Touligny,08430
08,Ardennes,49.398,4.6016,Tourcelles-Chaumont,08400
08,Ardennes,49.872,4.7839,Tournavaux,08800
08,Ardennes,49.799,4.6398,Tournes,08090
08,Ardennes,49.540,4.6424,Tourteron,08130
08,Ardennes,49.662,5.2602,Tremblois-lès-Carignan,08110
08,Ardennes,49.844,4.5005,Tremblois-lès-Rocroi,08150
08,Ardennes,49.440,4.7176,Vandy,08400
08,Ardennes,49.446,4.5489,Vaux-Champagne,08130
08,Ardennes,49.478,4.9918,Vaux-en-Dieulet,08240
08,Ardennes,49.298,4.7843,Vaux-lès-Mouron,08250
08,Ardennes,49.690,4.1830,Vaux-lès-Rubigny,08220
08,Ardennes,49.603,5.1370,Vaux-lès-Mouzon,08210
08,Ardennes,49.583,4.5564,Vaux-Montreuil,08270
08,Ardennes,49.769,4.4726,Vaux-Villaine,08150
08,Ardennes,49.603,4.7916,Vendresse,08160
08,Ardennes,49.603,4.7916,Vendresse,08160
08,Ardennes,49.381,4.9288,Verpel,08240
08,Ardennes,49.495,4.8853,Verrières,08390
08,Ardennes,49.632,4.4836,Viel-Saint-Remy,08270
08,Ardennes,49.632,4.4836,Viel-Saint-Remy,08270
08,Ardennes,49.451,4.1061,Vieux-lès-Asfeld,08190
08,Ardennes,49.738,5.0500,Villers-Cernay,08140
08,Ardennes,49.504,4.0766,Villers-devant-le-Thour,08190
08,Ardennes,49.627,5.0178,Villers-devant-Mouzon,08210
08,Ardennes,49.627,4.7275,Villers-le-Tilleul,08430
08,Ardennes,49.622,4.5640,Villers-le-Tourneur,08430
08,Ardennes,49.741,4.7510,Villers-Semeuse,08000
08,Ardennes,49.681,4.8551,Villers-sur-Bar,08350
08,Ardennes,49.663,4.6793,Villers-sur-le-Mont,08430
08,Ardennes,49.755,4.7960,Ville-sur-Lumes,08440
08,Ardennes,49.393,4.4471,Ville-sur-Retourne,08310
08,Ardennes,49.593,5.2214,Villy,08370
08,Ardennes,50.077,4.7050,Vireux-Molhain,08320
08,Ardennes,50.056,4.7470,Vireux-Wallerand,08320
08,Ardennes,49.732,4.8240,Vivier-au-Court,08440
08,Ardennes,49.473,4.6814,Voncq,08400
08,Ardennes,49.400,4.7012,Vouziers,08400
08,Ardennes,49.400,4.7012,Vouziers,08400
08,Ardennes,49.737,4.8560,Vrigne aux Bois,08330
08,Ardennes,49.704,4.8346,Vrigne-Meuse,08350
08,Ardennes,49.433,4.6732,Vrizy,08400
08,Ardennes,49.680,4.9305,Wadelincourt,08200
08,Ardennes,49.647,4.4456,Wagnon,08270
08,Ardennes,49.768,4.6664,Warcq,08000
08,Ardennes,49.732,4.6558,Warnécourt,08090
08,Ardennes,49.627,4.3576,Wasigny,08270
08,Ardennes,49.586,4.5820,Wignicourt,08270
08,Ardennes,49.668,5.3007,Williers,08110
08,Ardennes,49.568,5.0166,Yoncq,08210
08,Ardennes,49.674,4.6626,Yvernaumont,08430
