department_id,department_name,latitude,longitude,locality,postal_code
21,Côte-d'Or,47.125,4.9856,Agencourt,21700
21,Côte-d'Or,47.287,4.7626,Agey,21410
21,Côte-d'Or,47.371,5.0212,Ahuy,21121
21,Côte-d'Or,47.671,4.7507,Aignay-le-Duc,21510
21,Côte-d'Or,47.172,5.1687,Aiserey,21110
21,Côte-d'Or,47.747,4.5781,Aisey-sur-Seine,21400
21,Côte-d'Or,47.393,4.2788,Aisy-sous-Thil,21390
21,Côte-d'Or,47.535,4.4882,Alise-Sainte-Reine,21150
21,Côte-d'Or,47.190,4.4206,Allerey,21230
21,Côte-d'Or,47.068,4.8612,Aloxe-Corton,21420
21,Côte-d'Or,47.638,4.6269,Ampilly-les-Bordes,21450
21,Côte-d'Or,47.810,4.5032,Ampilly-le-Sec,21400
21,Côte-d'Or,47.333,4.8226,Ancey,21410
21,Côte-d'Or,47.176,4.7494,Antheuil,21360
21,Côte-d'Or,47.101,4.5597,Antigny-la-Ville,21230
21,Côte-d'Or,47.375,5.1962,Arceau,21310
21,Côte-d'Or,47.140,4.8374,Arcenant,21700
21,Côte-d'Or,47.274,4.8243,Arcey,21410
21,Côte-d'Or,47.215,4.4610,Arconcey,21320
21,Côte-d'Or,47.338,5.2003,Arc-sur-Tille,21560
21,Côte-d'Or,47.068,5.0248,Argilly,21700
21,Côte-d'Or,47.127,4.4795,Arnay-le-Duc,21230
21,Côte-d'Or,47.437,4.4990,Arnay-sous-Vitteaux,21350
21,Côte-d'Or,47.689,4.3280,Arrans,21500
21,Côte-d'Or,47.713,4.2930,Asnières-en-Montagne,21500
21,Côte-d'Or,47.387,5.0452,Asnières-lès-Dijon,21380
21,Côte-d'Or,47.225,5.3617,Athée,21130
21,Côte-d'Or,47.561,4.2578,Athie,21500
21,Côte-d'Or,47.129,4.7343,Aubaine,21360
21,Côte-d'Or,47.127,5.1649,Aubigny-en-Plaine,21170
21,Côte-d'Or,46.988,4.5963,Aubigny-la-Ronce,21340
21,Côte-d'Or,47.300,4.6427,Aubigny-lès-Sombernon,21540
21,Côte-d'Or,47.993,4.6217,Autricourt,21570
21,Côte-d'Or,47.059,5.1077,Auvillars-sur-Saône,21250
21,Côte-d'Or,47.129,4.6192,Auxant,21360
21,Côte-d'Or,46.985,4.7314,Auxey-Duresses,21190
21,Côte-d'Or,47.188,5.4145,Auxonne,21130
21,Côte-d'Or,47.587,5.0306,Avelanges,21120
21,Côte-d'Or,47.368,4.6326,Avosnes,21350
21,Côte-d'Or,47.617,5.0075,Avot,21580
21,Côte-d'Or,47.050,5.0733,Bagnot,21700
21,Côte-d'Or,47.601,4.6514,Baigneux-les-Juifs,21450
21,Côte-d'Or,47.819,4.4433,Balot,21330
21,Côte-d'Or,47.252,4.7402,Barbirey-sur-Ouche,21410
21,Côte-d'Or,47.146,4.3014,Bard-le-Régulier,21430
21,Côte-d'Or,47.528,4.2251,Bard-lès-Époisses,21460
21,Côte-d'Or,47.209,5.0595,Barges,21910
21,Côte-d'Or,47.616,4.9625,Barjon,21580
21,Côte-d'Or,46.990,4.6821,Baubigny,21340
21,Côte-d'Or,47.348,4.7942,Baulme-la-Roche,21410
21,Côte-d'Or,47.726,4.7334,Beaulieu,21510
21,Côte-d'Or,47.462,5.3474,Beaumont-sur-Vingeanne,21310
21,Côte-d'Or,47.025,4.8376,Beaune,21200
21,Côte-d'Or,47.681,4.7162,Beaunotte,21510
21,Côte-d'Or,47.418,5.2131,Beire-le-Châtel,21310
21,Côte-d'Or,47.237,5.2609,Beire-le-Fort,21110
21,Côte-d'Or,47.951,4.6386,Belan-sur-Ource,21570
21,Côte-d'Or,47.380,5.0638,Bellefond,21490
21,Côte-d'Or,47.357,5.2740,Belleneuve,21310
21,Côte-d'Or,47.695,4.6453,Bellenod-sur-Seine,21510
21,Côte-d'Or,47.286,4.5462,Bellenot-sous-Pouilly,21320
21,Côte-d'Or,47.693,4.9357,Beneuvre,21290
21,Côte-d'Or,47.576,4.3951,Benoisey,21500
21,Côte-d'Or,47.087,4.7419,Bessey-en-Chaume,21360
21,Côte-d'Or,47.103,4.6049,Bessey-la-Cour,21360
21,Côte-d'Or,47.145,5.1475,Bessey-lès-Cîteaux,21110
21,Côte-d'Or,47.231,4.4303,Beurey-Bauguay,21320
21,Côte-d'Or,47.355,4.4961,Beurizot,21350
21,Côte-d'Or,47.182,4.8396,Bévy,21220
21,Côte-d'Or,47.466,5.2786,Bèze,21310
21,Côte-d'Or,47.383,5.3354,Bézouotte,21310
21,Côte-d'Or,47.422,4.2955,Bierre-lès-Semur,21390
21,Côte-d'Or,47.142,5.4197,Billey,21130
21,Côte-d'Or,47.553,4.7343,Billy-lès-Chanceaux,21450
21,Côte-d'Or,47.325,5.2690,Binges,21270
21,Côte-d'Or,47.911,4.7068,Bissey-la-Côte,21520
21,Côte-d'Or,47.843,4.4259,Bissey-la-Pierre,21330
21,Côte-d'Or,47.439,5.3551,Blagny-sur-Vingeanne,21310
21,Côte-d'Or,47.369,4.7350,Blaisy-Bas,21540
21,Côte-d'Or,47.361,4.7672,Blaisy-Haut,21540
21,Côte-d'Or,47.302,4.4600,Blancey,21320
21,Côte-d'Or,47.178,4.2356,Blanot,21430
21,Côte-d'Or,47.488,4.6965,Source-Seine,21690
21,Côte-d'Or,47.488,4.6965,Source-Seine,21690
21,Côte-d'Or,47.448,4.7403,Bligny-le-Sec,21440
21,Côte-d'Or,46.982,4.8297,Bligny-lès-Beaune,21200
21,Côte-d'Or,47.115,4.6834,Bligny-sur-Ouche,21360
21,Côte-d'Or,47.137,4.9979,Boncourt-le-Bois,21700
21,Côte-d'Or,47.086,5.1424,Bonnencontre,21250
21,Côte-d'Or,47.929,4.8328,Boudreville,21520
21,Côte-d'Or,47.201,4.6776,Bouhey,21360
21,Côte-d'Or,47.135,4.7712,Bouilland,21420
21,Côte-d'Or,47.899,4.4682,Bouix,21330
21,Côte-d'Or,47.509,5.2922,Bourberain,21610
21,Côte-d'Or,46.993,5.2530,Bousselange,21250
21,Côte-d'Or,47.626,5.2057,Boussenois,21260
21,Côte-d'Or,47.361,4.5408,Boussey,21350
21,Côte-d'Or,47.473,4.6442,Boux-sous-Salmaise,21690
21,Côte-d'Or,47.054,4.7718,Bouze-lès-Beaune,21200
21,Côte-d'Or,47.463,4.5050,Brain,21350
21,Côte-d'Or,47.410,4.4187,Braux,21390
21,Côte-d'Or,47.172,4.2760,Brazey-en-Morvan,21430
21,Côte-d'Or,47.138,5.2119,Brazey-en-Plaine,21470
21,Côte-d'Or,47.729,4.6093,Brémur-et-Vaurois,21400
21,Côte-d'Or,47.308,5.1843,Bressey-sur-Tille,21560
21,Côte-d'Or,47.235,5.1034,Bretenière,21110
21,Côte-d'Or,47.393,5.0996,Bretigny,21490
21,Côte-d'Or,47.412,4.3743,Brianny,21390
21,Côte-d'Or,47.906,4.6698,Brion-sur-Ource,21570
21,Côte-d'Or,47.238,4.9561,Brochon,21220
21,Côte-d'Or,47.410,5.1684,Brognon,21490
21,Côte-d'Or,47.086,5.1043,Broin,21250
21,Côte-d'Or,47.195,5.0399,Broindon,21220
21,Côte-d'Or,47.656,4.2747,Buffon,21500
21,Côte-d'Or,47.816,4.5771,Buncey,21400
21,Côte-d'Or,47.732,4.9109,Bure-les-Templiers,21290
21,Côte-d'Or,47.738,4.6521,Busseaut,21510
21,Côte-d'Or,47.662,4.9803,Busserotte-et-Montenaille,21580
21,Côte-d'Or,47.660,4.9610,Bussières,21580
21,Côte-d'Or,47.226,4.6994,La Bussière-sur-Ouche,21360
21,Côte-d'Or,47.356,4.7136,Bussy-la-Pesle,21540
21,Côte-d'Or,47.576,4.5228,Bussy-le-Grand,21150
21,Côte-d'Or,47.807,4.9554,Buxerolles,21290
21,Côte-d'Or,47.197,4.3355,Censerey,21430
21,Côte-d'Or,47.855,4.4887,Cérilly,21330
21,Côte-d'Or,47.282,5.2292,Cessey-sur-Tille,21110
21,Côte-d'Or,47.476,5.0604,Chaignay,21120
21,Côte-d'Or,47.273,4.4773,Chailly-sur-Armançon,21320
21,Côte-d'Or,47.795,4.9190,Chambain,21290
21,Côte-d'Or,47.282,5.2718,Chambeire,21110
21,Côte-d'Or,47.022,5.1687,Chamblanc,21250
21,Côte-d'Or,47.227,4.9025,Chambœuf,21220
21,Côte-d'Or,47.186,4.9444,Chambolle-Musigny,21220
21,Côte-d'Or,47.782,4.5411,Chamesson,21400
21,Côte-d'Or,47.440,5.4066,Champagne-sur-Vingeanne,21310
21,Côte-d'Or,47.461,4.7676,Champagny,21440
21,Côte-d'Or,47.554,4.3479,Champ-d'Oiseau,21500
21,Côte-d'Or,47.182,5.3003,Champdôtre,21130
21,Côte-d'Or,47.272,4.1558,Champeau-en-Morvan,21210
21,Côte-d'Or,47.051,4.5677,Champignolles,21230
21,Côte-d'Or,47.400,4.6802,Champrenault,21690
21,Côte-d'Or,47.525,4.7394,Chanceaux,21440
21,Côte-d'Or,47.891,4.3194,Channay,21330
21,Côte-d'Or,47.420,4.6704,Charencey,21690
21,Côte-d'Or,47.433,4.4206,Charigny,21140
21,Côte-d'Or,47.372,5.3503,Charmes,21310
21,Côte-d'Or,47.331,4.4257,Charny,21350
21,Côte-d'Or,47.098,5.1541,Charrey-sur-Saône,21170
21,Côte-d'Or,47.952,4.5402,Charrey-sur-Seine,21400
21,Côte-d'Or,46.932,4.7273,Chassagne-Montrachet,21190
21,Côte-d'Or,47.474,4.4446,Chassey,21150
21,Côte-d'Or,47.219,4.6514,Châteauneuf,21320
21,Côte-d'Or,47.237,4.4875,Châtellenot,21320
21,Côte-d'Or,47.858,4.5919,Châtillon-sur-Seine,21400
21,Côte-d'Or,47.162,4.6438,Chaudenay-la-Ville,21360
21,Côte-d'Or,47.179,4.6430,Chaudenay-le-Château,21360
21,Côte-d'Or,47.746,4.9501,Chaugey,21290
21,Côte-d'Or,47.580,5.3616,Chaume-et-Courchamp,21610
21,Côte-d'Or,47.580,5.3616,Chaume-et-Courchamp,21610
21,Côte-d'Or,47.881,4.8228,La Chaume,21520
21,Côte-d'Or,47.632,4.5734,Chaume-lès-Baigneux,21450
21,Côte-d'Or,47.934,4.5927,Chaumont-le-Bois,21400
21,Côte-d'Or,47.127,4.9071,Chaux,21700
21,Côte-d'Or,47.558,5.2856,Chazeuil,21260
21,Côte-d'Or,47.183,4.5824,Chazilly,21320
21,Côte-d'Or,47.732,4.5521,Chemin-d'Aisey,21400
21,Côte-d'Or,47.292,5.0048,Chenôve,21300
21,Côte-d'Or,47.389,5.3812,Cheuge,21310
21,Côte-d'Or,47.390,4.6539,Chevannay,21540
21,Côte-d'Or,47.158,4.8335,Chevannes,21220
21,Côte-d'Or,46.968,4.9815,Chevigny-en-Valière,21200
21,Côte-d'Or,47.299,5.1365,Chevigny-Saint-Sauveur,21800
21,Côte-d'Or,46.967,5.0911,Chivres,21820
21,Côte-d'Or,47.049,4.8696,Chorey-les-Beaune,21200
21,Côte-d'Or,47.302,5.3097,Cirey-lès-Pontailler,21270
21,Côte-d'Or,47.289,4.6060,Civry-en-Montagne,21320
21,Côte-d'Or,47.387,4.4223,Clamerey,21390
21,Côte-d'Or,47.255,4.8846,Clémencey,21220
21,Côte-d'Or,47.413,5.1144,Clénay,21490
21,Côte-d'Or,47.295,5.5021,Cléry,21270
21,Côte-d'Or,47.192,4.4868,Clomot,21230
21,Côte-d'Or,47.171,4.8375,Collonges-lès-Bévy,21220
21,Côte-d'Or,47.225,5.2924,Collonges-lès-Premières,21110
21,Côte-d'Or,47.168,4.6746,Colombier,21360
21,Côte-d'Or,46.992,4.9034,Combertault,21200
21,Côte-d'Or,47.103,4.9180,Comblanchien,21700
21,Côte-d'Or,47.249,4.6531,Commarin,21320
21,Côte-d'Or,47.010,5.0091,Corberon,21250
21,Côte-d'Or,46.945,4.7967,Corcelles-les-Arts,21190
21,Côte-d'Or,47.169,5.0825,Corcelles-lès-Cîteaux,21910
21,Côte-d'Or,47.304,4.9424,Corcelles-les-Monts,21160
21,Côte-d'Or,46.988,5.0112,Corgengoux,21250
21,Côte-d'Or,47.081,4.9353,Corgoloin,21700
21,Côte-d'Or,46.975,4.6410,Cormot-Vauchignon,21340
21,Côte-d'Or,46.927,4.7596,Corpeau,21190
21,Côte-d'Or,47.549,4.6096,Corpoyer-la-Chapelle,21150
21,Côte-d'Or,47.518,4.2025,Corrombles,21460
21,Côte-d'Or,47.547,4.2020,Corsaint,21460
21,Côte-d'Or,47.262,4.9609,Couchey,21160
21,Côte-d'Or,47.755,4.4960,Coulmier-le-Sec,21400
21,Côte-d'Or,47.915,4.7394,Courban,21520
21,Côte-d'Or,47.447,4.1866,Courcelles-Frémoy,21460
21,Côte-d'Or,47.592,4.3924,Courcelles-lès-Montbard,21500
21,Côte-d'Or,47.448,4.2927,Courcelles-lès-Semur,21140
21,Côte-d'Or,47.645,5.0080,Courlon,21580
21,Côte-d'Or,47.534,4.9526,Courtivron,21120
21,Côte-d'Or,47.330,5.1501,Couternon,21560
21,Côte-d'Or,47.252,4.5932,Créancey,21320
21,Côte-d'Or,47.570,5.1413,Crécey-sur-Tille,21120
21,Côte-d'Or,47.607,4.3101,Crépand,21500
21,Côte-d'Or,47.270,5.1244,Crimolois,21800
21,Côte-d'Or,47.181,4.6807,Crugey,21360
21,Côte-d'Or,47.370,5.3177,Cuiserey,21310
21,Côte-d'Or,47.146,4.5686,Culètre,21230
21,Côte-d'Or,47.204,4.9107,Curley,21220
21,Côte-d'Or,47.460,4.9292,Curtil-Saint-Seine,21380
21,Côte-d'Or,47.170,4.8940,Curtil-Vergy,21220
21,Côte-d'Or,47.637,5.0838,Cussey-les-Forges,21580
21,Côte-d'Or,47.042,4.6482,Cussy-la-Colonne,21360
21,Côte-d'Or,47.164,4.5847,Cussy-le-Châtel,21230
21,Côte-d'Or,47.360,4.9690,Daix,21121
21,Côte-d'Or,47.438,4.5590,Dampierre-en-Montagne,21350
21,Côte-d'Or,47.480,5.3522,Dampierre-et-Flée,21310
21,Côte-d'Or,47.546,4.5668,Darcey,21150
21,Côte-d'Or,47.393,4.9323,Darois,21121
21,Côte-d'Or,47.174,4.7880,Détain-et-Bruant,21220
21,Côte-d'Or,47.174,4.3671,Diancey,21430
21,Côte-d'Or,47.522,5.0594,Diénay,21120
21,Côte-d'Or,47.322,5.0378,Dijon,21000
21,Côte-d'Or,47.400,4.2321,Dompierre-en-Morvan,21390
21,Côte-d'Or,47.334,5.3784,Drambon,21270
21,Côte-d'Or,47.343,4.6957,Drée,21540
21,Côte-d'Or,47.636,4.6931,Duesme,21510
21,Côte-d'Or,46.929,4.7801,Ébaty,21190
21,Côte-d'Or,47.607,4.8350,Échalot,21510
21,Côte-d'Or,47.281,4.6801,Échannay,21540
21,Côte-d'Or,47.119,5.2868,Échenon,21170
21,Côte-d'Or,47.547,5.1597,Échevannes,21120
21,Côte-d'Or,47.107,4.8349,Échevronne,21420
21,Côte-d'Or,47.177,5.1998,Échigey,21110
21,Côte-d'Or,47.084,4.6234,Écutigny,21360
21,Côte-d'Or,47.301,4.4999,Éguilly,21320
21,Côte-d'Or,47.452,5.0497,Épagny,21380
21,Côte-d'Or,47.174,5.0373,Épernay-sous-Gevrey,21220
21,Côte-d'Or,47.503,4.1712,Époisses,21460
21,Côte-d'Or,47.588,4.4670,Éringes,21500
21,Côte-d'Or,47.091,5.1982,Esbarres,21170
21,Côte-d'Or,47.757,4.7939,Essarois,21290
21,Côte-d'Or,47.206,4.5222,Essey,21320
21,Côte-d'Or,47.701,4.4402,Étais,21500
21,Côte-d'Or,47.629,4.7666,Étalante,21510
21,Côte-d'Or,47.182,4.8760,L'Étang-Vergy,21220
21,Côte-d'Or,47.410,4.9503,Étaules,21121
21,Côte-d'Or,47.323,5.3219,Étevaux,21270
21,Côte-d'Or,47.597,4.5815,Étormay,21450
21,Côte-d'Or,47.889,4.5196,Étrochey,21400
21,Côte-d'Or,47.617,4.4034,Fain-lès-Montbard,21500
21,Côte-d'Or,47.584,4.2112,Fain-lès-Moutiers,21500
21,Côte-d'Or,47.262,5.1501,Fauverney,21110
21,Côte-d'Or,47.827,4.8666,Faverolles-lès-Lucey,21290
21,Côte-d'Or,47.245,5.0541,Fénay,21600
21,Côte-d'Or,47.179,4.5083,Le Fête,21230
21,Côte-d'Or,47.248,4.9665,Fixin,21220
21,Côte-d'Or,47.434,5.1348,Flacey,21490
21,Côte-d'Or,47.159,4.9825,Flagey-Echézeaux,21640
21,Côte-d'Or,47.131,5.3944,Flagey-lès-Auxonne,21130
21,Côte-d'Or,47.230,5.4411,Flammerans,21130
21,Côte-d'Or,47.277,4.9179,Flavignerot,21160
21,Côte-d'Or,47.508,4.5192,Flavigny-sur-Ozerain,21150
21,Côte-d'Or,47.440,4.3370,Flée,21140
21,Côte-d'Or,47.300,4.8644,Fleurey-sur-Ouche,21410
21,Côte-d'Or,47.125,4.5515,Foissy,21230
21,Côte-d'Or,47.617,5.1424,Foncegrive,21260
21,Côte-d'Or,47.649,4.5351,Fontaines-en-Duesmois,21450
21,Côte-d'Or,47.533,5.3640,Fontaine-Française,21610
21,Côte-d'Or,47.347,5.0247,Fontaine-lès-Dijon,21121
21,Côte-d'Or,47.784,4.3589,Fontaines-les-Sèches,21330
21,Côte-d'Or,47.345,4.3719,Fontangy,21390
21,Côte-d'Or,47.502,5.3617,Fontenelle,21610
21,Côte-d'Or,47.471,4.2068,Forléans,21460
21,Côte-d'Or,47.649,4.9384,Fraignot-et-Vesvrotte,21580
21,Côte-d'Or,47.459,4.8797,Francheville,21440
21,Côte-d'Or,47.047,5.2643,Franxault,21170
21,Côte-d'Or,47.521,4.8907,Frénois,21120
21,Côte-d'Or,47.609,4.4387,Fresnes,21500
21,Côte-d'Or,47.529,4.6477,Frôlois,21150
21,Côte-d'Or,47.128,4.8161,Fussey,21700
21,Côte-d'Or,47.477,5.1400,Gemeaux,21120
21,Côte-d'Or,47.524,4.2844,Genay,21140
21,Côte-d'Or,47.240,5.2209,Genlis,21110
21,Côte-d'Or,47.237,4.8125,Gergueil,21410
21,Côte-d'Or,47.102,5.0232,Gerland,21700
21,Côte-d'Or,47.220,4.9830,Gevrey-Chambertin,21220
21,Côte-d'Or,47.989,4.7506,Gevrolles,21520
21,Côte-d'Or,47.177,4.9975,Gilly-lès-Cîteaux,21640
21,Côte-d'Or,47.322,4.4861,Gissey-le-Vieil,21350
21,Côte-d'Or,47.517,4.5855,Gissey-sous-Flavigny,21150
21,Côte-d'Or,47.260,4.7829,Gissey-sur-Ouche,21410
21,Côte-d'Or,47.039,5.1071,Glanon,21250
21,Côte-d'Or,47.956,4.4844,Gomméville,21400
21,Côte-d'Or,47.878,4.9057,Les Goulles,21520
21,Côte-d'Or,47.673,5.0241,Grancey-le-Château-Neuvelle,21580
21,Côte-d'Or,47.673,5.0241,Grancey-le-Château-Neuvelle,21580
21,Côte-d'Or,47.999,4.5774,Grancey-sur-Ource,21570
21,Côte-d'Or,47.268,4.7121,Grenant-lès-Sombernon,21540
21,Côte-d'Or,47.551,4.4953,Grésigny-Sainte-Reine,21150
21,Côte-d'Or,47.558,4.4055,Grignon,21150
21,Côte-d'Or,47.876,4.3654,Griselles,21330
21,Côte-d'Or,47.319,4.5996,Grosbois-en-Montagne,21540
21,Côte-d'Or,47.009,5.2366,Grosbois-lès-Tichey,21250
21,Côte-d'Or,47.852,4.9383,Gurgy-la-Ville,21290
21,Côte-d'Or,47.828,4.9275,Gurgy-le-Château,21290
21,Côte-d'Or,47.488,4.5705,Hauteroche,21150
21,Côte-d'Or,47.375,4.9813,Hauteville-lès-Dijon,21121
21,Côte-d'Or,47.335,5.4648,Heuilley-sur-Saône,21270
21,Côte-d'Or,47.526,5.1020,Is-sur-Tille,21120
21,Côte-d'Or,47.166,5.1202,Izeure,21110
21,Côte-d'Or,47.281,5.1962,Izier,21110
21,Côte-d'Or,47.462,4.5940,Jailly-les-Moulins,21150
21,Côte-d'Or,46.984,5.1726,Jallanges,21250
21,Côte-d'Or,47.383,5.4211,Jancigny,21310
21,Côte-d'Or,47.531,4.2553,Jeux-lès-Bard,21460
21,Côte-d'Or,47.158,4.4375,Jouey,21230
21,Côte-d'Or,47.625,4.6039,Jours-lès-Baigneux,21450
21,Côte-d'Or,47.038,4.5908,Val-Mont,21340
21,Côte-d'Or,47.038,4.5908,Val-Mont,21340
21,Côte-d'Or,47.361,4.2721,Juillenay,21210
21,Côte-d'Or,47.490,4.4010,Juilly,21140
21,Côte-d'Or,47.257,5.2478,Labergement-Foigney,21110
21,Côte-d'Or,47.159,5.3786,Labergement-lès-Auxonne,21130
21,Côte-d'Or,46.995,5.0879,Labergement-lès-Seurre,21820
21,Côte-d'Or,47.038,5.1416,Labruyère,21250
21,Côte-d'Or,47.075,4.5559,Lacanche,21230
21,Côte-d'Or,47.359,4.2353,Lacour-d'Arcenay,21210
21,Côte-d'Or,47.826,4.3682,Laignes,21330
21,Côte-d'Or,47.272,5.3700,Lamarche-sur-Saône,21760
21,Côte-d'Or,47.520,4.8372,Lamargelle,21440
21,Côte-d'Or,47.343,4.8657,Lantenay,21370
21,Côte-d'Or,46.999,5.2040,Lanthes,21250
21,Côte-d'Or,47.542,4.3783,Lantilly,21140
21,Côte-d'Or,47.106,5.3461,Laperrière-sur-Saône,21170
21,Côte-d'Or,47.897,4.4244,Larrey,21330
21,Côte-d'Or,47.053,5.1415,Lechâtelet,21250
21,Côte-d'Or,47.556,4.8462,Léry,21440
21,Côte-d'Or,47.813,4.8190,Leuglay,21290
21,Côte-d'Or,46.993,4.8716,Levernois,21200
21,Côte-d'Or,47.486,5.3731,Licey-sur-Vingeanne,21610
21,Côte-d'Or,47.219,4.2886,Liernais,21430
21,Côte-d'Or,47.901,4.8875,Lignerolles,21520
21,Côte-d'Or,47.261,5.2956,Longchamp,21110
21,Côte-d'Or,47.221,5.2504,Longeault,21110
21,Côte-d'Or,47.197,5.1463,Longecourt-en-Plaine,21110
21,Côte-d'Or,47.160,4.5514,Longecourt-lès-Culêtre,21230
21,Côte-d'Or,47.285,5.0527,Longvic,21600
21,Côte-d'Or,47.077,5.2762,Losne,21170
21,Côte-d'Or,47.889,4.7639,Louesme,21520
21,Côte-d'Or,47.622,4.4997,Lucenay-le-Duc,21150
21,Côte-d'Or,47.852,4.8627,Lucey,21290
21,Côte-d'Or,47.082,4.6830,Lusigny-sur-Ouche,21360
21,Côte-d'Or,47.488,5.2176,Lux,21120
21,Côte-d'Or,47.225,4.5779,Maconge,21320
21,Côte-d'Or,47.109,4.4333,Magnien,21230
21,Côte-d'Or,47.678,4.5865,Magny-Lambert,21450
21,Côte-d'Or,47.479,4.4299,Magny-la-Ville,21140
21,Côte-d'Or,47.112,5.1686,Magny-lès-Aubigny,21170
21,Côte-d'Or,47.248,5.3467,Magny-Montarlot,21130
21,Côte-d'Or,47.094,4.8745,Magny-lès-Villers,21700
21,Côte-d'Or,47.381,5.2475,Magny-Saint-Médard,21310
21,Côte-d'Or,47.273,5.1727,Magny-sur-Tille,21110
21,Côte-d'Or,47.145,5.3293,Les Maillys,21130
21,Côte-d'Or,47.844,4.6760,Maisey-le-Duc,21400
21,Côte-d'Or,47.321,4.7937,Mâlain,21410
21,Côte-d'Or,47.084,4.5052,Maligny,21230
21,Côte-d'Or,47.120,4.3331,Manlay,21430
21,Côte-d'Or,47.345,5.3408,Marandeuil,21270
21,Côte-d'Or,47.348,4.6155,Marcellois,21350
21,Côte-d'Or,47.861,4.4046,Marcenay,21330
21,Côte-d'Or,47.144,4.3721,Marcheseuil,21430
21,Côte-d'Or,47.391,4.3845,Marcigny-sous-Thil,21390
21,Côte-d'Or,47.405,4.4959,Marcilly-et-Dracy,21350
21,Côte-d'Or,47.248,4.4024,Marcilly-Ogny,21320
21,Côte-d'Or,47.512,5.1288,Marcilly-sur-Tille,21120
21,Côte-d'Or,47.121,4.8621,Marey-lès-Fussey,21700
21,Côte-d'Or,47.594,5.0817,Marey-sur-Tille,21120
21,Côte-d'Or,47.455,4.4534,Marigny-le-Cahouët,21150
21,Côte-d'Or,47.007,4.9581,Marigny-lès-Reullée,21200
21,Côte-d'Or,47.216,5.1780,Marliens,21110
21,Côte-d'Or,47.639,4.3823,Marmagne,21500
21,Côte-d'Or,47.279,4.9845,Marsannay-la-Côte,21160
21,Côte-d'Or,47.440,5.0961,Marsannay-le-Bois,21380
21,Côte-d'Or,47.306,4.5460,Martrois,21320
21,Côte-d'Or,47.902,4.5992,Massingy,21400
21,Côte-d'Or,47.516,4.4056,Massingy-lès-Semur,21140
21,Côte-d'Or,47.395,4.5904,Massingy-lès-Vitteaux,21350
21,Côte-d'Or,47.709,4.7042,Mauvilly,21510
21,Côte-d'Or,47.060,4.7309,Mavilly-Mandelot,21190
21,Côte-d'Or,47.331,5.4195,Maxilly-sur-Saône,21270
21,Côte-d'Or,47.206,4.5525,Meilly-sur-Rouvres,21320
21,Côte-d'Or,47.594,4.9430,Le Meix,21580
21,Côte-d'Or,47.034,4.7202,Meloisey,21190
21,Côte-d'Or,47.778,4.9020,Menesble,21290
21,Côte-d'Or,47.133,4.1514,Ménessaire,21430
21,Côte-d'Or,47.559,4.4595,Ménétreux-le-Pitois,21150
21,Côte-d'Or,46.953,4.8479,Merceuil,21190
21,Côte-d'Or,47.312,4.7441,Mesmont,21540
21,Côte-d'Or,47.161,4.8696,Messanges,21220
21,Côte-d'Or,47.418,5.0014,Messigny-et-Vantoux,21380
21,Côte-d'Or,47.418,5.0014,Messigny-et-Vantoux,21380
21,Côte-d'Or,47.141,4.8782,Meuilley,21700
21,Côte-d'Or,47.692,4.7021,Meulson,21510
21,Côte-d'Or,46.981,4.9429,Meursanges,21200
21,Côte-d'Or,46.970,4.7721,Meursault,21190
21,Côte-d'Or,47.513,4.3175,Millery,21140
21,Côte-d'Or,47.152,4.4952,Mimeure,21230
21,Côte-d'Or,47.662,4.8716,Minot,21510
21,Côte-d'Or,47.402,5.3223,Mirebeau-sur-Bèze,21310
21,Côte-d'Or,47.311,4.3748,Missery,21210
21,Côte-d'Or,47.681,4.8083,Moitron,21510
21,Côte-d'Or,47.947,4.3813,Molesme,21330
21,Côte-d'Or,47.011,4.5796,Molinot,21340
21,Côte-d'Or,47.539,4.9217,Moloy,21120
21,Côte-d'Or,47.336,4.2066,Molphey,21210
21,Côte-d'Or,46.984,4.8539,Montagny-lès-Beaune,21200
21,Côte-d'Or,47.022,5.2512,Montagny-lès-Seurre,21250
21,Côte-d'Or,47.657,4.3503,Montbard,21500
21,Côte-d'Or,47.461,4.1575,Montberthault,21460
21,Côte-d'Or,47.060,4.6666,Montceau-et-Écharnant,21360
21,Côte-d'Or,46.999,4.7613,Monthelie,21190
21,Côte-d'Or,47.583,4.3390,Montigny-Montfort,21500
21,Côte-d'Or,47.420,4.2615,Montigny-Saint-Barthélemy,21390
21,Côte-d'Or,47.440,4.3736,Montigny-sur-Armançon,21140
21,Côte-d'Or,47.954,4.7559,Montigny-sur-Aube,21520
21,Côte-d'Or,47.568,5.4503,Montigny-Mornay-Villeneuve-sur-Vingeanne,21610
21,Côte-d'Or,47.568,5.4503,Montigny-Mornay-Villeneuve-sur-Vingeanne,21610
21,Côte-d'Or,47.568,5.4503,Montigny-Mornay-Villeneuve-sur-Vingeanne,21610
21,Côte-d'Or,47.331,4.2677,Montlay-en-Auxois,21210
21,Côte-d'Or,47.894,4.5600,Montliot-et-Courcelles,21400
21,Côte-d'Or,47.027,5.0593,Montmain,21250
21,Côte-d'Or,47.355,5.3749,Montmançon,21270
21,Côte-d'Or,47.730,4.7944,Montmoyen,21290
21,Côte-d'Or,47.272,4.6583,Montoillot,21540
21,Côte-d'Or,47.152,5.2435,Montot,21170
21,Côte-d'Or,47.285,4.4113,Mont-Saint-Jean,21320
21,Côte-d'Or,47.199,4.9620,Morey-Saint-Denis,21220
21,Côte-d'Or,47.920,4.6289,Mosson,21400
21,Côte-d'Or,47.316,4.3272,La Motte-Ternant,21210
21,Côte-d'Or,47.562,4.2256,Moutiers-Saint-Jean,21500
21,Côte-d'Or,47.164,4.5232,Musigny,21230
21,Côte-d'Or,47.521,4.4445,Mussy-la-Fosse,21150
21,Côte-d'Or,47.380,4.3590,Nan-sous-Thil,21390
21,Côte-d'Or,47.034,4.7595,Nantoux,21190
21,Côte-d'Or,47.778,4.4266,Nesle-et-Massoult,21330
21,Côte-d'Or,47.276,5.1040,Neuilly-lès-Dijon,21800
21,Côte-d'Or,47.865,4.2944,Nicey,21330
21,Côte-d'Or,47.772,4.5989,Nod-sur-Seine,21400
21,Côte-d'Or,47.604,4.3695,Nogent-lès-Montbard,21500
21,Côte-d'Or,47.346,4.4098,Noidan,21390
21,Côte-d'Or,47.188,5.0850,Noiron-sous-Gevrey,21910
21,Côte-d'Or,47.439,5.2987,Noiron-sur-Bèze,21310
21,Côte-d'Or,47.938,4.4698,Noiron-sur-Seine,21400
21,Côte-d'Or,46.958,4.6193,Nolay,21340
21,Côte-d'Or,46.958,4.6193,Nolay,21340
21,Côte-d'Or,47.407,5.0694,Norges-la-Ville,21490
21,Côte-d'Or,47.363,4.4344,Normier,21390
21,Côte-d'Or,47.146,4.9385,Nuits-Saint-Georges,21700
21,Côte-d'Or,47.931,4.5651,Obtrée,21400
21,Côte-d'Or,47.583,4.7246,Oigny,21450
21,Côte-d'Or,47.416,5.3619,Oisilly,21310
21,Côte-d'Or,47.610,5.4350,Orain,21610
21,Côte-d'Or,47.364,5.1518,Orgeux,21490
21,Côte-d'Or,47.712,4.6322,Origny,21510
21,Côte-d'Or,47.608,4.7017,Orret,21450
21,Côte-d'Or,47.560,5.2167,Orville,21260
21,Côte-d'Or,47.261,5.0782,Ouges,21600
21,Côte-d'Or,47.057,5.1687,Pagny-la-Ville,21250
21,Côte-d'Or,47.049,5.2115,Pagny-le-Château,21250
21,Côte-d'Or,47.148,4.6246,Painblanc,21360
21,Côte-d'Or,47.373,4.8026,Panges,21540
21,Côte-d'Or,47.377,4.8521,Pasques,21370
21,Côte-d'Or,47.511,4.7888,Pellerey,21440
21,Côte-d'Or,47.080,4.8493,Pernand-Vergelesses,21420
21,Côte-d'Or,47.257,5.0204,Perrigny-lès-Dijon,21160
21,Côte-d'Or,47.305,5.4638,Perrigny-sur-l'Ognon,21270
21,Côte-d'Or,47.456,5.1583,Pichanges,21120
21,Côte-d'Or,47.737,4.3748,Planay,21500
21,Côte-d'Or,47.338,4.9500,Plombières-lès-Dijon,21370
21,Côte-d'Or,47.208,5.2462,Pluvault,21110
21,Côte-d'Or,47.198,5.2636,Pluvet,21110
21,Côte-d'Or,47.868,4.4562,Poinçon-lès-Larrey,21330
21,Côte-d'Or,47.577,4.7935,Poiseul-la-Grange,21440
21,Côte-d'Or,47.569,4.6643,Poiseul-la-Ville-et-Laperrière,21450
21,Côte-d'Or,47.578,4.9817,Poiseul-lès-Saulx,21120
21,Côte-d'Or,47.013,4.7951,Pommard,21630
21,Côte-d'Or,47.235,5.3847,Poncey-lès-Athée,21130
21,Côte-d'Or,47.490,4.7522,Poncey-sur-l'Ignon,21440
21,Côte-d'Or,47.178,5.3249,Pont,21130
21,Côte-d'Or,47.301,5.4122,Pontailler-sur-Saône,21270
21,Côte-d'Or,47.469,4.3581,Pont-et-Massène,21140
21,Côte-d'Or,47.421,4.5254,Posanges,21350
21,Côte-d'Or,47.917,4.4967,Pothières,21400
21,Côte-d'Or,47.503,4.4606,Pouillenay,21150
21,Côte-d'Or,47.262,4.5556,Pouilly-en-Auxois,21320
21,Côte-d'Or,47.011,5.1214,Pouilly-sur-Saône,21250
21,Côte-d'Or,47.540,5.4516,Pouilly-sur-Vingeanne,21610
21,Côte-d'Or,47.310,4.7750,Prâlon,21410
21,Côte-d'Or,47.401,4.3167,Précy-sous-Thil,21390
21,Côte-d'Or,47.104,4.9428,Premeaux-Prissey,21700
21,Côte-d'Or,47.104,4.9428,Premeaux-Prissey,21700
21,Côte-d'Or,47.238,5.2928,Premières,21110
21,Côte-d'Or,47.375,4.9058,Prenois,21370
21,Côte-d'Or,47.880,4.6433,Prusly-sur-Ource,21400
21,Côte-d'Or,47.726,4.4674,Puits,21400
21,Côte-d'Or,46.946,4.7592,Puligny-Montrachet,21190
21,Côte-d'Or,47.236,4.8486,Quemigny-Poisot,21220
21,Côte-d'Or,47.655,4.6594,Quemigny-sur-Seine,21510
21,Côte-d'Or,47.319,5.1157,Quetigny,21800
21,Côte-d'Or,47.617,4.2713,Quincerot,21500
21,Côte-d'Or,47.107,4.9719,Quincey,21700
21,Côte-d'Or,47.617,4.2397,Quincy-le-Vicomte,21500
21,Côte-d'Or,47.780,4.8626,Recey-sur-Ource,21290
21,Côte-d'Or,47.290,4.7293,Remilly-en-Montagne,21540
21,Côte-d'Or,47.307,5.2314,Remilly-sur-Tille,21560
21,Côte-d'Or,47.410,5.4076,Renève,21310
21,Côte-d'Or,47.188,4.8968,Reulle-Vergy,21220
21,Côte-d'Or,47.988,4.6810,Riel-les-Eaux,21570
21,Côte-d'Or,47.382,4.1716,La Roche-en-Brenil,21530
21,Côte-d'Or,47.740,4.7062,Rochefort-sur-Brévon,21510
21,Côte-d'Or,46.957,4.6762,La Rochepot,21340
21,Côte-d'Or,47.470,4.5285,La Roche-Vanneau,21150
21,Côte-d'Or,47.417,4.3407,Roilly,21390
21,Côte-d'Or,47.670,4.2573,Rougemont,21500
21,Côte-d'Or,47.417,4.1115,Rouvray,21530
21,Côte-d'Or,47.238,5.1384,Rouvres-en-Plaine,21110
21,Côte-d'Or,47.206,4.5897,Rouvres-sous-Meilly,21320
21,Côte-d'Or,47.022,4.9226,Ruffey-lès-Beaune,21200
21,Côte-d'Or,47.367,5.0846,Ruffey-lès-Echirey,21490
21,Côte-d'Or,47.584,5.3213,Sacquenay,21260
21,Côte-d'Or,47.366,4.5806,Saffres,21350
21,Côte-d'Or,47.395,4.0930,Saint-Andeux,21530
21,Côte-d'Or,47.320,4.6434,Saint-Anthot,21540
21,Côte-d'Or,47.336,5.0932,Saint-Apollinaire,21850
21,Côte-d'Or,46.950,4.7114,Saint-Aubin,21190
21,Côte-d'Or,47.159,5.0238,Saint-Bernard,21700
21,Côte-d'Or,47.700,4.8421,Saint-Broing-les-Moines,21290
21,Côte-d'Or,47.427,4.4620,Sainte-Colombe-en-Auxois,21350
21,Côte-d'Or,47.860,4.5280,Sainte-Colombe-sur-Seine,21400
21,Côte-d'Or,47.316,4.1733,Saint-Didier,21210
21,Côte-d'Or,47.466,4.3918,Saint-Euphrône,21140
21,Côte-d'Or,47.372,4.1241,Saint-Germain-de-Modéon,21530
21,Côte-d'Or,47.756,4.6634,Saint-Germain-le-Rocheux,21510
21,Côte-d'Or,47.598,4.2813,Saint-Germain-lès-Senailly,21500
21,Côte-d'Or,47.389,4.6882,Saint-Hélier,21690
21,Côte-d'Or,47.211,4.7637,Saint-Jean-de-Bœuf,21410
21,Côte-d'Or,47.101,5.2665,Saint-Jean-de-Losne,21170
21,Côte-d'Or,47.396,5.1416,Saint-Julien,21490
21,Côte-d'Or,47.316,5.3552,Saint-Léger-Triey,21270
21,Côte-d'Or,47.700,4.5997,Saint-Marc-sur-Seine,21450
21,Côte-d'Or,46.974,4.8915,Sainte-Marie-la-Blanche,21200
21,Côte-d'Or,47.288,4.8036,Sainte-Marie-sur-Ouche,21410
21,Côte-d'Or,47.288,4.8036,Sainte-Marie-sur-Ouche,21410
21,Côte-d'Or,47.237,4.2292,Saint-Martin-de-la-Mer,21210
21,Côte-d'Or,47.414,4.8119,Saint-Martin-du-Mont,21440
21,Côte-d'Or,47.579,5.3982,Saint-Maurice-sur-Vingeanne,21610
21,Côte-d'Or,47.345,4.6553,Saint-Mesmin,21540
21,Côte-d'Or,47.129,5.0846,Saint-Nicolas-lès-Cîteaux,21700
21,Côte-d'Or,47.203,5.0132,Saint-Philibert,21220
21,Côte-d'Or,47.056,4.5293,Saint-Pierre-en-Vaux,21230
21,Côte-d'Or,47.112,4.5044,Saint-Prix-lès-Arnay,21230
21,Côte-d'Or,47.651,4.3007,Saint-Rémy,21500
21,Côte-d'Or,47.012,4.7026,Saint-Romain,21190
21,Côte-d'Or,47.187,4.6216,Sainte-Sabine,21320
21,Côte-d'Or,47.358,5.4064,Saint-Sauveur,21270
21,Côte-d'Or,47.116,5.3772,Saint-Seine-en-Bâche,21130
21,Côte-d'Or,47.441,4.7823,Saint-Seine-l'Abbaye,21440
21,Côte-d'Or,47.516,5.4332,Saint-Seine-sur-Vingeanne,21610
21,Côte-d'Or,47.090,5.3177,Saint-Symphorien-sur-Saône,21170
21,Côte-d'Or,47.377,4.4662,Saint-Thibault,21350
21,Côte-d'Or,47.109,5.2501,Saint-Usage,21170
21,Côte-d'Or,47.232,4.7486,Saint-Victor-sur-Ouche,21410
21,Côte-d'Or,47.604,4.9005,Salives,21580
21,Côte-d'Or,47.455,4.6755,Salmaise,21690
21,Côte-d'Or,47.089,5.3661,Samerey,21170
21,Côte-d'Or,46.917,4.6933,Santenay,21590
21,Côte-d'Or,47.006,4.6343,Santosse,21340
21,Côte-d'Or,47.284,4.2319,Saulieu,21210
21,Côte-d'Or,47.210,5.0938,Saulon-la-Chapelle,21910
21,Côte-d'Or,47.226,5.0500,Saulon-la-Rue,21910
21,Côte-d'Or,47.550,5.0220,Saulx-le-Duc,21120
21,Côte-d'Or,47.063,4.6095,Saussey,21360
21,Côte-d'Or,47.462,4.9814,Saussy,21380
21,Côte-d'Or,47.080,4.8034,Savigny-lès-Beaune,21420
21,Côte-d'Or,47.434,5.0417,Savigny-le-Sec,21380
21,Côte-d'Or,47.331,4.7538,Savigny-sous-Mâlain,21540
21,Côte-d'Or,47.122,4.2777,Savilly,21430
21,Côte-d'Or,47.736,4.3997,Savoisy,21500
21,Côte-d'Or,47.377,5.2754,Savolles,21310
21,Côte-d'Or,47.180,5.0579,Savouges,21910
21,Côte-d'Or,47.160,4.8933,Segrois,21220
21,Côte-d'Or,47.577,4.4393,Seigny,21150
21,Côte-d'Or,47.594,5.1995,Selongey,21260
21,Côte-d'Or,47.268,4.6264,Semarey,21320
21,Côte-d'Or,47.215,4.8510,Semezanges,21220
21,Côte-d'Or,47.712,4.5724,Semond,21450
21,Côte-d'Or,47.490,4.3410,Semur-en-Auxois,21140
21,Côte-d'Or,47.582,4.2672,Senailly,21500
21,Côte-d'Or,47.292,5.1041,Sennecey-lès-Dijon,21800
21,Côte-d'Or,47.062,4.9115,Ladoix-Serrigny,21550
21,Côte-d'Or,47.007,5.1522,Seurre,21250
21,Côte-d'Or,47.433,4.1310,Sincey-lès-Rouvray,21530
21,Côte-d'Or,47.210,5.2990,Soirans,21110
21,Côte-d'Or,47.249,5.4616,Soissons-sur-Nacey,21270
21,Côte-d'Or,47.310,4.7031,Sombernon,21540
21,Côte-d'Or,47.487,4.4213,Souhey,21140
21,Côte-d'Or,47.326,4.5344,Soussey-sur-Brionne,21350
21,Côte-d'Or,47.445,5.1869,Spoy,21120
21,Côte-d'Or,47.214,4.3724,Sussey,21430
21,Côte-d'Or,47.214,4.3724,Sussey,21430
21,Côte-d'Or,46.965,4.8167,Tailly,21190
21,Côte-d'Or,47.338,4.9977,Talant,21240
21,Côte-d'Or,47.366,5.4606,Talmay,21270
21,Côte-d'Or,47.413,5.2774,Tanay,21310
21,Côte-d'Or,47.518,4.9796,Tarsul,21120
21,Côte-d'Or,47.183,5.2420,Tart-l'Abbaye,21110
21,Côte-d'Or,47.206,5.2235,Tart-le-Bas,21110
21,Côte-d'Or,47.195,5.2051,Tart-le-Haut,21110
21,Côte-d'Or,47.290,5.2992,Tellecey,21270
21,Côte-d'Or,47.200,4.8329,Ternant,21220
21,Côte-d'Or,47.727,4.8423,Terrefondrée,21290
21,Côte-d'Or,47.496,4.6194,Thenissey,21150
21,Côte-d'Or,47.940,4.6819,Thoires,21570
21,Côte-d'Or,47.260,4.3320,Thoisy-la-Berchère,21210
21,Côte-d'Or,47.249,4.5209,Thoisy-le-Désert,21320
21,Côte-d'Or,47.087,4.5868,Thomirey,21360
21,Côte-d'Or,47.215,5.1383,Thorey-en-Plaine,21110
21,Côte-d'Or,47.329,4.4495,Thorey-sous-Charny,21350
21,Côte-d'Or,47.148,4.6930,Thorey-sur-Ouche,21360
21,Côte-d'Or,47.435,4.2272,Thoste,21460
21,Côte-d'Or,47.028,4.5270,Thury,21340
21,Côte-d'Or,47.012,5.2887,Tichey,21250
21,Côte-d'Or,47.519,5.1791,Til-Châtel,21120
21,Côte-d'Or,47.188,5.3514,Tillenay,21130
21,Côte-d'Or,47.497,4.2361,Torcy-et-Pouligny,21460
21,Côte-d'Or,47.658,4.4365,Touillon,21500
21,Côte-d'Or,47.501,4.1283,Toutry,21460
21,Côte-d'Or,47.192,5.2884,Tréclun,21130
21,Côte-d'Or,47.348,5.3146,Trochères,21310
21,Côte-d'Or,47.152,5.2708,Trouhans,21170
21,Côte-d'Or,47.390,4.7632,Trouhaut,21440
21,Côte-d'Or,46.971,5.1460,Trugny,21250
21,Côte-d'Or,47.408,4.7186,Turcey,21540
21,Côte-d'Or,47.343,4.5752,Uncey-le-Franc,21350
21,Côte-d'Or,47.264,4.8461,Urcy,21220
21,Côte-d'Or,47.427,4.9088,Val-Suzon,21121
21,Côte-d'Or,47.223,4.6208,Vandenesse-en-Auxois,21320
21,Côte-d'Or,47.915,4.5707,Vannaire,21400
21,Côte-d'Or,47.841,4.7261,Vanvey,21400
21,Côte-d'Or,47.234,5.1908,Varanges,21110
21,Côte-d'Or,47.355,5.1255,Varois-et-Chaignot,21490
21,Côte-d'Or,46.981,4.6536,Vauchignon,21340
21,Côte-d'Or,47.474,4.8226,Vaux-Saules,21440
21,Côte-d'Or,47.127,4.5965,Veilly,21360
21,Côte-d'Or,47.318,4.9098,Velars-sur-Ouche,21370
21,Côte-d'Or,47.402,4.4654,Velogny,21350
21,Côte-d'Or,47.537,4.4396,Venarey-les-Laumes,21150
21,Côte-d'Or,47.537,4.4396,Venarey-les-Laumes,21150
21,Côte-d'Or,47.742,4.3353,Verdonnet,21330
21,Côte-d'Or,47.652,5.1502,Vernois-lès-Vesvres,21260
21,Côte-d'Or,47.491,4.9633,Vernot,21120
21,Côte-d'Or,47.535,5.2384,Véronnes,21260
21,Côte-d'Or,47.535,5.2384,Véronnes,21260
21,Côte-d'Or,47.368,4.6877,Verrey-sous-Drée,21540
21,Côte-d'Or,47.438,4.6744,Verrey-sous-Salmaise,21690
21,Côte-d'Or,47.924,4.3269,Vertault,21330
21,Côte-d'Or,47.376,4.5288,Vesvres,21350
21,Côte-d'Or,47.182,4.7171,Veuvey-sur-Ouche,21360
21,Côte-d'Or,47.939,4.8116,Veuxhaulles-sur-Aube,21520
21,Côte-d'Or,47.165,4.3241,Vianges,21430
21,Côte-d'Or,47.470,4.2626,Vic-de-Chassenay,21140
21,Côte-d'Or,47.109,4.6360,Vic-des-Prés,21360
21,Côte-d'Or,47.367,4.3176,Vic-sous-Thil,21390
21,Côte-d'Or,47.314,4.6728,Vieilmoulin,21540
21,Côte-d'Or,47.268,5.4524,Vielverge,21270
21,Côte-d'Or,47.471,4.1356,Vieux-Château,21460
21,Côte-d'Or,47.435,5.2404,Viévigne,21310
21,Côte-d'Or,47.057,4.4561,Viévy,21230
21,Côte-d'Or,47.025,4.8870,Vignoles,21200
21,Côte-d'Or,47.687,4.5196,Villaines-en-Duesmois,21450
21,Côte-d'Or,47.553,4.3074,Villaines-les-Prévôtes,21500
21,Côte-d'Or,47.292,4.2908,Villargoix,21210
21,Côte-d'Or,47.150,4.9009,Villars-Fontaine,21700
21,Côte-d'Or,47.508,4.3786,Villars-et-Villenotte,21140
21,Côte-d'Or,47.436,4.6007,Villeberny,21350
21,Côte-d'Or,47.140,5.0422,Villebichot,21700
21,Côte-d'Or,47.499,5.0191,Villecomte,21120
21,Côte-d'Or,47.907,4.3835,Villedieu,21330
21,Côte-d'Or,47.449,4.5294,Villeferry,21350
21,Côte-d'Or,47.576,4.5915,La Villeneuve-les-Convers,21450
21,Côte-d'Or,47.436,4.3998,Villeneuve-sous-Charigny,21140
21,Côte-d'Or,47.108,4.8839,Villers-la-Faye,21700
21,Côte-d'Or,47.210,5.3473,Villers-les-Pots,21130
21,Côte-d'Or,47.934,4.5466,Villers-Patras,21400
21,Côte-d'Or,47.156,5.4068,Villers-Rotin,21130
21,Côte-d'Or,47.567,5.1093,Villey-sur-Tille,21120
21,Côte-d'Or,47.143,4.2598,Villiers-en-Morvan,21430
21,Côte-d'Or,47.792,4.7038,Villiers-le-Duc,21400
21,Côte-d'Or,47.429,4.7131,Villotte-Saint-Seine,21690
21,Côte-d'Or,47.866,4.6920,Villotte-sur-Ource,21400
21,Côte-d'Or,47.414,4.6290,Villy-en-Auxois,21350
21,Côte-d'Or,47.039,4.9868,Villy-le-Moutier,21250
21,Côte-d'Or,47.562,4.2836,Viserny,21500
21,Côte-d'Or,47.397,4.5431,Vitteaux,21350
21,Côte-d'Or,47.907,4.5367,Vix,21400
21,Côte-d'Or,46.999,4.7821,Volnay,21190
21,Côte-d'Or,47.289,5.3963,Vonges,21270
21,Côte-d'Or,47.159,4.9554,Vosne-Romanée,21700
21,Côte-d'Or,47.094,4.3803,Voudenay,21230
21,Côte-d'Or,47.174,4.9598,Vougeot,21640
21,Côte-d'Or,47.830,4.7765,Voulaines-les-Templiers,21290
