department_id,department_name,latitude,longitude,locality,postal_code
2B,Haute-Corse,42.098,9.4115,Aghione,20270
2B,Haute-Corse,42.404,9.2287,Aiti,20244
2B,Haute-Corse,42.307,9.2863,Alando,20212
2B,Haute-Corse,42.311,8.9242,Albertacce,20224
2B,Haute-Corse,42.311,8.9242,Albertacce,20224
2B,Haute-Corse,42.105,9.4956,Aléria,20270
2B,Haute-Corse,42.105,9.4956,Aléria,20270
2B,Haute-Corse,42.605,8.8573,Algajola,20220
2B,Haute-Corse,42.219,9.2783,Altiani,20251
2B,Haute-Corse,42.312,9.3147,Alzi,20212
2B,Haute-Corse,42.253,9.3573,Ampriani,20272
2B,Haute-Corse,42.156,9.3840,Antisanti,20270
2B,Haute-Corse,42.591,8.8768,Aregno,20220
2B,Haute-Corse,42.434,8.9970,Asco,20276
2B,Haute-Corse,42.559,8.8943,Avapessa,20225
2B,Haute-Corse,42.684,9.3680,Barbaggio,20253
2B,Haute-Corse,42.873,9.3607,Barrettali,20228
2B,Haute-Corse,42.686,9.4250,Bastia,20200
2B,Haute-Corse,42.686,9.4250,Bastia,20200
2B,Haute-Corse,42.686,9.4250,Bastia,20600
2B,Haute-Corse,42.607,9.0142,Belgodère,20226
2B,Haute-Corse,42.607,9.0142,Belgodère,20226
2B,Haute-Corse,42.531,9.3022,Bigorno,20252
2B,Haute-Corse,42.616,9.4404,Biguglia,20620
2B,Haute-Corse,42.616,9.4404,Biguglia,20620
2B,Haute-Corse,42.485,9.3190,Bisinchi,20235
2B,Haute-Corse,42.573,9.4569,Borgo,20290
2B,Haute-Corse,42.573,9.4569,Borgo,20290
2B,Haute-Corse,42.779,9.4502,Brando,20222
2B,Haute-Corse,42.779,9.4502,Brando,20222
2B,Haute-Corse,42.779,9.4502,Brando,20222
2B,Haute-Corse,42.327,9.3086,Bustanico,20212
2B,Haute-Corse,42.871,9.4440,Cagnano,20228
2B,Haute-Corse,42.323,9.0338,Calacuccia,20224
2B,Haute-Corse,42.478,8.8036,Calenzana,20214
2B,Haute-Corse,42.478,8.8036,Calenzana,20214
2B,Haute-Corse,42.478,8.8036,Calenzana,20260
2B,Haute-Corse,42.545,8.7595,Calvi,20260
2B,Haute-Corse,42.368,9.3024,Cambia,20244
2B,Haute-Corse,42.388,9.3399,Campana,20229
2B,Haute-Corse,42.268,9.4237,Campi,20270
2B,Haute-Corse,42.496,9.3552,Campile,20290
2B,Haute-Corse,42.526,9.3252,Campitello,20252
2B,Haute-Corse,42.264,9.5020,Canale-di-Verde,20230
2B,Haute-Corse,42.843,9.3455,Canari,20217
2B,Haute-Corse,42.496,9.2342,Canavaggia,20235
2B,Haute-Corse,42.354,9.3605,Carcheto-Brustico,20229
2B,Haute-Corse,42.355,9.3799,Carpineto,20229
2B,Haute-Corse,42.347,9.3037,Carticasi,20244
2B,Haute-Corse,42.447,9.3721,Casabianca,20237
2B,Haute-Corse,42.435,9.4236,Casalta,20215
2B,Haute-Corse,42.282,8.9950,Casamaccioli,20224
2B,Haute-Corse,42.261,9.1518,Casanova,20250
2B,Haute-Corse,42.135,9.3680,Casevecchie,20270
2B,Haute-Corse,42.470,9.5013,Castellare-di-Casinca,20213
2B,Haute-Corse,42.310,9.2465,Castellare-di-Mercurio,20212
2B,Haute-Corse,42.471,9.2976,Castello-di-Rostino,20235
2B,Haute-Corse,42.525,9.1182,Castifao,20218
2B,Haute-Corse,42.409,9.1140,Castiglione,20218
2B,Haute-Corse,42.428,9.2733,Castineta,20218
2B,Haute-Corse,42.368,9.1260,Castirla,20236
2B,Haute-Corse,42.569,8.8957,Cateri,20225
2B,Haute-Corse,42.967,9.3644,Centuri,20238
2B,Haute-Corse,42.321,9.5154,Cervione,20221
2B,Haute-Corse,42.321,9.5154,Cervione,20221
2B,Haute-Corse,42.287,9.4886,Chiatra,20230
2B,Haute-Corse,42.617,8.9016,Corbara,20220
2B,Haute-Corse,42.617,8.9016,Corbara,20256
2B,Haute-Corse,42.369,9.0555,Corscia,20224
2B,Haute-Corse,42.270,9.0828,Corte,20250
2B,Haute-Corse,42.576,8.9990,Costa,20226
2B,Haute-Corse,42.407,9.3573,Croce,20237
2B,Haute-Corse,42.473,9.3523,Crocicchia,20290
2B,Haute-Corse,42.252,9.2630,Erbajolo,20212
2B,Haute-Corse,42.375,9.2670,Érone,20244
2B,Haute-Corse,42.987,9.3823,Ersa,20275
2B,Haute-Corse,42.729,9.3653,Farinole,20253
2B,Haute-Corse,42.288,9.2492,Favalello,20212
2B,Haute-Corse,42.346,9.4247,Felce,20234
2B,Haute-Corse,42.549,8.9399,Feliceto,20225
2B,Haute-Corse,42.420,9.3784,Ficaja,20237
2B,Haute-Corse,42.250,9.2925,Focicchia,20212
2B,Haute-Corse,42.652,9.4172,Furiani,20600
2B,Haute-Corse,42.408,8.7070,Galéria,20245
2B,Haute-Corse,42.422,9.2598,Gavignano,20218
2B,Haute-Corse,42.043,9.4226,Ghisonaccia,20240
2B,Haute-Corse,42.043,9.4226,Ghisonaccia,20240
2B,Haute-Corse,42.043,9.4226,Ghisonaccia,20240
2B,Haute-Corse,42.090,9.2102,Ghisoni,20227
2B,Haute-Corse,42.443,9.3458,Giocatojo,20237
2B,Haute-Corse,42.191,9.3836,Giuncaggio,20251
2B,Haute-Corse,42.631,8.9335,L'Île-Rousse,20220
2B,Haute-Corse,42.015,9.2643,Isolaccio-di-Fiumorbo,20243
2B,Haute-Corse,42.015,9.2643,Isolaccio-di-Fiumorbo,20243
2B,Haute-Corse,42.015,9.2643,Isolaccio-di-Fiumorbo,20243
2B,Haute-Corse,42.580,9.1662,Lama,20218
2B,Haute-Corse,42.378,9.2356,Lano,20244
2B,Haute-Corse,42.573,8.8615,Lavatoggio,20225
2B,Haute-Corse,42.531,9.2630,Lento,20252
2B,Haute-Corse,42.217,9.5102,Linguizzetta,20230
2B,Haute-Corse,42.217,9.5102,Linguizzetta,20230
2B,Haute-Corse,42.476,9.4250,Loreto-di-Casinca,20215
2B,Haute-Corse,42.362,8.9803,Lozzi,20224
2B,Haute-Corse,42.541,9.4726,Lucciana,20290
2B,Haute-Corse,42.541,9.4726,Lucciana,20290
2B,Haute-Corse,42.541,9.4726,Lucciana,20290
2B,Haute-Corse,42.075,9.3234,Lugo-di-Nazza,20240
2B,Haute-Corse,42.580,8.8257,Lumio,20260
2B,Haute-Corse,42.893,9.4098,Luri,20228
2B,Haute-Corse,42.893,9.4098,Luri,20228
2B,Haute-Corse,42.370,8.8189,Manso,20245
2B,Haute-Corse,42.283,9.3875,Matra,20270
2B,Haute-Corse,42.494,8.9643,Mausoléo,20259
2B,Haute-Corse,42.304,9.3284,Mazzola,20212
2B,Haute-Corse,42.920,9.4368,Meria,20287
2B,Haute-Corse,42.281,9.4103,Moïta,20270
2B,Haute-Corse,42.474,9.1232,Moltifao,20218
2B,Haute-Corse,42.381,9.4050,Monacia-d'Orezza,20229
2B,Haute-Corse,42.503,8.8194,Moncale,20214
2B,Haute-Corse,42.483,9.4012,Monte,20290
2B,Haute-Corse,42.543,8.8562,Montegrosso,20214
2B,Haute-Corse,42.543,8.8562,Montegrosso,20214
2B,Haute-Corse,42.543,8.8562,Montegrosso,20214
2B,Haute-Corse,42.543,8.8562,Montegrosso,20214
2B,Haute-Corse,42.621,8.9612,Monticello,20220
2B,Haute-Corse,42.447,9.2546,Morosaglia,20218
2B,Haute-Corse,42.447,9.2546,Morosaglia,20218
2B,Haute-Corse,42.935,9.3734,Morsiglia,20238
2B,Haute-Corse,42.168,9.1899,Muracciole,20219
2B,Haute-Corse,42.567,9.3270,Murato,20239
2B,Haute-Corse,42.546,8.9171,Muro,20225
2B,Haute-Corse,42.549,8.9557,Nessa,20225
2B,Haute-Corse,42.395,9.3491,Nocario,20229
2B,Haute-Corse,42.202,9.2097,Noceta,20242
2B,Haute-Corse,42.788,9.3543,Nonza,20217
2B,Haute-Corse,42.304,9.4108,Novale,20234
2B,Haute-Corse,42.597,9.1035,Novella,20226
2B,Haute-Corse,42.592,9.0060,Occhiatana,20226
2B,Haute-Corse,42.822,9.3541,Ogliastro,20217
2B,Haute-Corse,42.806,9.3865,Olcani,20217
2B,Haute-Corse,42.641,9.3332,Oletta,20232
2B,Haute-Corse,42.766,9.3779,Olmeta-di-Capocorso,20217
2B,Haute-Corse,42.612,9.3643,Olmeta-di-Tuda,20232
2B,Haute-Corse,42.520,9.0200,Olmi-Cappella,20259
2B,Haute-Corse,42.501,9.4134,Olmo,20290
2B,Haute-Corse,42.382,9.1936,Omessa,20236
2B,Haute-Corse,42.382,9.1936,Omessa,20236
2B,Haute-Corse,42.310,9.4346,Ortale,20234
2B,Haute-Corse,42.456,9.3448,Ortiporio,20290
2B,Haute-Corse,42.630,9.0573,Palasca,20226
2B,Haute-Corse,42.196,9.4049,Pancheraccia,20251
2B,Haute-Corse,42.196,9.4049,Pancheraccia,20270
2B,Haute-Corse,42.367,9.4191,Parata,20229
2B,Haute-Corse,42.706,9.3670,Patrimonio,20253
2B,Haute-Corse,42.463,9.3721,Penta-Acquatella,20290
2B,Haute-Corse,42.454,9.4960,Penta-di-Casinca,20213
2B,Haute-Corse,42.454,9.4960,Penta-di-Casinca,20213
2B,Haute-Corse,42.314,9.3890,Perelli,20234
2B,Haute-Corse,42.416,9.4637,Pero-Casevecchie,20230
2B,Haute-Corse,42.297,9.3564,Pianello,20272
2B,Haute-Corse,42.441,9.3968,Piano,20215
2B,Haute-Corse,42.319,9.4059,Piazzali,20234
2B,Haute-Corse,42.394,9.4059,Piazzole,20229
2B,Haute-Corse,42.214,9.3233,Piedicorte-di-Gaggio,20251
2B,Haute-Corse,42.383,9.3681,Piedicroce,20229
2B,Haute-Corse,42.446,9.1807,Piedigriggio,20218
2B,Haute-Corse,42.357,9.3443,Piedipartino,20229
2B,Haute-Corse,42.374,9.3387,Pie-d'Orezza,20229
2B,Haute-Corse,42.542,9.1832,Pietralba,20218
2B,Haute-Corse,42.844,9.4381,Pietracorbara,20233
2B,Haute-Corse,42.292,9.4442,Pietra-di-Verde,20230
2B,Haute-Corse,42.233,9.3546,Pietraserena,20251
2B,Haute-Corse,42.329,9.3768,Pietricaggio,20234
2B,Haute-Corse,42.125,9.3010,Pietroso,20242
2B,Haute-Corse,42.585,9.2782,Piève,20246
2B,Haute-Corse,42.599,8.9004,Pigna,20220
2B,Haute-Corse,42.905,9.3540,Pino,20228
2B,Haute-Corse,42.340,9.3678,Piobetta,20234
2B,Haute-Corse,42.523,8.9752,Pioggiola,20259
2B,Haute-Corse,42.052,9.2920,Poggio-di-Nazza,20240
2B,Haute-Corse,42.268,9.2070,Poggio-di-Venaco,20250
2B,Haute-Corse,42.657,9.3585,Poggio-d'Oletta,20232
2B,Haute-Corse,42.435,9.3482,Poggio-Marinaccio,20237
2B,Haute-Corse,42.401,9.5119,Poggio-Mezzana,20230
2B,Haute-Corse,42.401,9.3612,Polveroso,20229
2B,Haute-Corse,42.437,9.1350,Popolasca,20218
2B,Haute-Corse,42.449,9.4423,Porri,20215
2B,Haute-Corse,42.424,9.3584,La Porta,20237
2B,Haute-Corse,42.419,9.1692,Prato-di-Giovellina,20218
2B,Haute-Corse,42.510,9.4056,Prunelli-di-Casacconi,20290
2B,Haute-Corse,42.007,9.3677,Prunelli-di-Fiumorbo,20243
2B,Haute-Corse,42.007,9.3677,Prunelli-di-Fiumorbo,20243
2B,Haute-Corse,42.007,9.3677,Prunelli-di-Fiumorbo,20243
2B,Haute-Corse,42.424,9.4475,Pruno,20213
2B,Haute-Corse,42.424,9.4475,Pruno,20213
2B,Haute-Corse,42.427,9.3433,Quercitello,20237
2B,Haute-Corse,42.375,9.3841,Rapaggio,20229
2B,Haute-Corse,42.620,9.2964,Rapale,20246
2B,Haute-Corse,42.247,9.2024,Riventosa,20250
2B,Haute-Corse,42.972,9.4253,Rogliano,20247
2B,Haute-Corse,42.972,9.4253,Rogliano,20248
2B,Haute-Corse,42.193,9.2379,Rospigliani,20242
2B,Haute-Corse,42.353,9.2585,Rusio,20244
2B,Haute-Corse,42.582,9.3816,Rutali,20239
2B,Haute-Corse,42.411,9.2629,Saliceto,20218
2B,Haute-Corse,42.422,9.4048,Scata,20213
2B,Haute-Corse,42.539,9.3645,Scolca,20290
2B,Haute-Corse,42.315,9.2662,Sermano,20212
2B,Haute-Corse,41.971,9.3301,Serra-di-Fiumorbo,20243
2B,Haute-Corse,42.453,9.4178,Silvareccio,20215
2B,Haute-Corse,42.814,9.4422,Sisco,20233
2B,Haute-Corse,41.879,9.3206,Solaro,20240
2B,Haute-Corse,42.482,9.4894,Sorbo-Ocagnano,20213
2B,Haute-Corse,42.482,9.4894,Sorbo-Ocagnano,20213
2B,Haute-Corse,42.577,9.2443,Sorio,20246
2B,Haute-Corse,42.349,9.1456,Soveria,20250
2B,Haute-Corse,42.574,8.9696,Speloncato,20226
2B,Haute-Corse,42.379,9.3752,Stazzona,20229
2B,Haute-Corse,42.276,9.2847,Sant'Andréa-di-Bozio,20212
2B,Haute-Corse,42.315,9.4719,Sant'Andréa-di-Cotone,20221
2B,Haute-Corse,42.584,8.9082,Sant'Antonino,20220
2B,Haute-Corse,42.406,9.4143,San-Damiano,20213
2B,Haute-Corse,42.687,9.2831,Saint-Florent,20217
2B,Haute-Corse,42.417,9.4254,San-Gavino-d'Ampugnani,20213
2B,Haute-Corse,42.653,9.1517,San-Gavino-di-Tenda,20246
2B,Haute-Corse,42.373,9.4654,San-Giovanni-di-Moriani,20230
2B,Haute-Corse,42.288,9.5288,San-Giuliano,20230
2B,Haute-Corse,42.288,9.5288,San-Giuliano,20230
2B,Haute-Corse,42.389,9.2892,San-Lorenzo,20244
2B,Haute-Corse,42.732,9.4316,San-Martino-di-Lota,20200
2B,Haute-Corse,42.732,9.4316,San-Martino-di-Lota,20200
2B,Haute-Corse,42.317,9.2202,Santa-Lucia-di-Mercurio,20250
2B,Haute-Corse,42.384,9.5106,Santa-Lucia-di-Moriani,20230
2B,Haute-Corse,42.751,9.4246,Santa-Maria-di-Lota,20200
2B,Haute-Corse,42.751,9.4246,Santa-Maria-di-Lota,20200
2B,Haute-Corse,42.349,9.5088,Santa-Maria-Poggio,20221
2B,Haute-Corse,42.368,9.5094,San-Nicolao,20230
2B,Haute-Corse,42.368,9.5094,San-Nicolao,20230
2B,Haute-Corse,42.368,9.5094,San-Nicolao,20230
2B,Haute-Corse,42.672,9.2038,Santo-Pietro-di-Tenda,20217
2B,Haute-Corse,42.672,9.2038,Santo-Pietro-di-Tenda,20246
2B,Haute-Corse,42.245,9.1659,Santo-Pietro-di-Venaco,20250
2B,Haute-Corse,42.601,8.9315,Santa-Reparata-di-Balagna,20220
2B,Haute-Corse,42.351,9.4555,Santa-Reparata-di-Moriani,20230
2B,Haute-Corse,42.434,9.4973,Taglio-Isolaccio,20230
2B,Haute-Corse,42.417,9.5073,Talasani,20230
2B,Haute-Corse,42.417,9.5073,Talasani,20230
2B,Haute-Corse,42.184,9.4656,Tallone,20270
2B,Haute-Corse,42.184,9.4656,Tallone,20270
2B,Haute-Corse,42.344,9.4017,Tarrano,20234
2B,Haute-Corse,42.944,9.4463,Tomino,20248
2B,Haute-Corse,42.244,9.4429,Tox,20270
2B,Haute-Corse,42.341,9.1928,Tralonca,20250
2B,Haute-Corse,42.620,9.1477,Urtaca,20218
2B,Haute-Corse,42.599,9.3366,Vallecalle,20232
2B,Haute-Corse,42.327,9.4344,Valle-d'Alesani,20234
2B,Haute-Corse,42.335,9.5147,Valle-di-Campoloro,20221
2B,Haute-Corse,42.460,9.2642,Valle-di-Rostino,20235
2B,Haute-Corse,42.362,9.4020,Valle-d'Orezza,20229
2B,Haute-Corse,42.517,9.0574,Vallica,20259
2B,Haute-Corse,42.391,9.4515,Velone-Orneto,20230
2B,Haute-Corse,42.213,9.1375,Venaco,20231
2B,Haute-Corse,41.941,9.3628,Ventiseri,20240
2B,Haute-Corse,41.941,9.3628,Ventiseri,20240
2B,Haute-Corse,41.941,9.3628,Ventiseri,20240
2B,Haute-Corse,42.501,9.4933,Venzolasca,20215
2B,Haute-Corse,42.394,9.3731,Verdèse,20229
2B,Haute-Corse,42.515,9.4732,Vescovato,20215
2B,Haute-Corse,42.157,9.2923,Vezzani,20242
2B,Haute-Corse,42.537,9.3951,Vignale,20290
2B,Haute-Corse,42.582,8.9901,Ville-di-Paraso,20279
2B,Haute-Corse,42.715,9.4273,Ville-di-Pietrabugno,20200
2B,Haute-Corse,42.152,9.1206,Vivario,20219
2B,Haute-Corse,42.152,9.1206,Vivario,20219
2B,Haute-Corse,42.152,9.1206,Vivario,20219
2B,Haute-Corse,42.520,9.3607,Volpajola,20290
2B,Haute-Corse,42.520,9.3607,Volpajola,20290
2B,Haute-Corse,42.253,9.3821,Zalana,20272
2B,Haute-Corse,42.518,8.9037,Zilia,20214
2B,Haute-Corse,42.264,9.3412,Zuani,20272
2B,Haute-Corse,41.971,9.2477,San-Gavino-di-Fiumorbo,20243
2B,Haute-Corse,41.921,9.2656,Chisa,20240
