department_id,department_name,latitude,longitude,locality,postal_code
31,Haute-Garonne,43.372,0.8853,Agassac,31230
31,Haute-Garonne,43.334,1.5864,Aignes,31550
31,Haute-Garonne,43.569,1.5842,Aigrefeuille,31280
31,Haute-Garonne,43.429,1.5943,Ayguesvives,31450
31,Haute-Garonne,43.220,0.9276,Alan,31420
31,Haute-Garonne,43.555,1.7826,Albiac,31460
31,Haute-Garonne,43.368,0.9370,Ambax,31230
31,Haute-Garonne,43.352,0.8100,Anan,31230
31,Haute-Garonne,42.969,0.6769,Antichan-de-Frontignes,31510
31,Haute-Garonne,42.831,0.5877,Antignac,31110
31,Haute-Garonne,42.992,0.9056,Arbas,31160
31,Haute-Garonne,43.000,0.7310,Arbon,31160
31,Haute-Garonne,43.066,0.6440,Ardiège,31210
31,Haute-Garonne,42.959,0.7269,Arguenos,31160
31,Haute-Garonne,42.892,0.7155,Argut-Dessous,31440
31,Haute-Garonne,42.874,0.6952,Arlos,31440
31,Haute-Garonne,43.146,0.8991,Arnaud-Guilhem,31360
31,Haute-Garonne,42.826,0.6397,Artigue,31110
31,Haute-Garonne,43.011,0.8059,Aspet,31160
31,Haute-Garonne,43.069,0.7200,Aspret-Sarrat,31800
31,Haute-Garonne,43.671,1.4237,Aucamville,31140
31,Haute-Garonne,43.190,0.8134,Aulon,31420
31,Haute-Garonne,43.391,1.5090,Auragne,31190
31,Haute-Garonne,43.480,1.4571,Aureville,31320
31,Haute-Garonne,43.519,1.8244,Auriac-sur-Vendinelle,31460
31,Haute-Garonne,43.346,1.3752,Auribail,31190
31,Haute-Garonne,43.213,0.8714,Aurignac,31420
31,Haute-Garonne,43.535,1.6812,Aurin,31570
31,Haute-Garonne,43.154,1.0312,Ausseing,31260
31,Haute-Garonne,43.091,0.5899,Ausson,31210
31,Haute-Garonne,43.683,1.3288,Aussonne,31840
31,Haute-Garonne,43.359,1.4774,Auterive,31190
31,Haute-Garonne,43.174,0.8941,Auzas,31360
31,Haute-Garonne,43.528,1.4872,Auzeville-Tolosane,31320
31,Haute-Garonne,43.540,1.5683,Auzielle,31650
31,Haute-Garonne,43.376,1.7727,Avignonet-Lauragais,31290
31,Haute-Garonne,43.720,1.6743,Azas,31380
31,Haute-Garonne,43.248,0.9417,Bachas,31420
31,Haute-Garonne,42.898,0.6047,Bachos,31440
31,Haute-Garonne,42.979,0.6244,Bagiry,31510
31,Haute-Garonne,42.736,0.6266,Bagnères-de-Luchon,31110
31,Haute-Garonne,42.736,0.6266,Bagnères-de-Luchon,31110
31,Haute-Garonne,43.202,0.5634,Balesta,31580
31,Haute-Garonne,43.611,1.5045,Balma,31130
31,Haute-Garonne,43.034,0.6218,Barbazan,31510
31,Haute-Garonne,42.867,0.6349,Baren,31440
31,Haute-Garonne,43.224,1.2882,Bax,31310
31,Haute-Garonne,43.462,1.6279,Baziège,31450
31,Haute-Garonne,43.735,1.5196,Bazus,31380
31,Haute-Garonne,43.114,0.8697,Beauchalot,31360
31,Haute-Garonne,43.454,1.1065,Beaufort,31370
31,Haute-Garonne,43.379,1.3561,Beaumont-sur-Lèze,31870
31,Haute-Garonne,43.652,1.5586,Beaupuy,31850
31,Haute-Garonne,43.349,1.7328,Beauteville,31290
31,Haute-Garonne,43.467,1.7707,Beauville,31460
31,Haute-Garonne,43.667,1.3740,Beauzelle,31700
31,Haute-Garonne,43.503,1.5697,Belberaud,31450
31,Haute-Garonne,43.437,1.5567,Belbèze-de-Lauragais,31450
31,Haute-Garonne,43.133,1.0296,Belbèze-en-Comminges,31260
31,Haute-Garonne,43.439,1.8316,Bélesta-en-Lauragais,31540
31,Haute-Garonne,43.675,1.0996,Bellegarde-Sainte-Marie,31530
31,Haute-Garonne,43.787,1.1012,Bellesserre,31480
31,Haute-Garonne,43.259,0.9179,Benque,31420
31,Haute-Garonne,42.820,0.5417,Benque-Dessous-et-Dessus,31110
31,Haute-Garonne,43.377,1.1713,Bérat,31370
31,Haute-Garonne,43.796,1.5861,Bessières,31660
31,Haute-Garonne,42.938,0.7020,Bezins-Garraux,31440
31,Haute-Garonne,42.816,0.5285,Billière,31110
31,Haute-Garonne,43.642,1.3788,Blagnac,31700
31,Haute-Garonne,43.253,0.6478,Blajan,31350
31,Haute-Garonne,43.341,1.1619,Bois-de-la-Pierre,31390
31,Haute-Garonne,43.407,0.8262,Boissède,31230
31,Haute-Garonne,43.842,1.5434,Bondigoux,31340
31,Haute-Garonne,43.676,1.6225,Bonrepos-Riquet,31590
31,Haute-Garonne,43.544,1.1370,Bonrepos-sur-Aussonnelle,31470
31,Haute-Garonne,43.123,0.6349,Bordes-de-Rivière,31210
31,Haute-Garonne,43.895,1.5390,Le Born,31340
31,Haute-Garonne,43.187,0.5173,Boudrac,31580
31,Haute-Garonne,43.795,1.4191,Bouloc,31620
31,Haute-Garonne,43.290,0.6506,Boulogne-sur-Gesse,31350
31,Haute-Garonne,42.860,0.4868,Bourg-d'Oueil,31110
31,Haute-Garonne,43.606,1.6987,Bourg-Saint-Bernard,31570
31,Haute-Garonne,43.241,0.8751,Boussan,31420
31,Haute-Garonne,43.176,0.9603,Boussens,31360
31,Haute-Garonne,42.915,0.7703,Boutx,31160
31,Haute-Garonne,42.915,0.7703,Boutx,31160
31,Haute-Garonne,42.915,0.7703,Boutx,31440
31,Haute-Garonne,42.915,0.7703,Boutx,31440
31,Haute-Garonne,43.190,0.8830,Bouzin,31420
31,Haute-Garonne,43.488,1.0700,Bragayrac,31470
31,Haute-Garonne,43.615,1.2319,Brax,31490
31,Haute-Garonne,43.705,1.1962,Bretx,31530
31,Haute-Garonne,43.769,0.9983,Brignemont,31480
31,Haute-Garonne,43.727,1.4091,Bruguières,31150
31,Haute-Garonne,42.884,0.6365,Burgalays,31440
31,Haute-Garonne,43.789,1.1461,Le Burgaud,31330
31,Haute-Garonne,43.768,1.6137,Buzet-sur-Tarn,31660
31,Haute-Garonne,43.034,0.7398,Cabanac-Cazaux,31160
31,Haute-Garonne,43.791,1.0198,Cabanac-Séguenville,31480
31,Haute-Garonne,43.522,1.8689,Le Cabanial,31460
31,Haute-Garonne,43.726,1.0467,Cadours,31480
31,Haute-Garonne,43.319,1.7072,Caignac,31560
31,Haute-Garonne,43.284,1.6263,Calmont,31560
31,Haute-Garonne,43.461,1.1787,Cambernard,31470
31,Haute-Garonne,43.490,1.7895,Cambiac,31460
31,Haute-Garonne,43.216,1.3327,Canens,31310
31,Haute-Garonne,43.334,1.2598,Capens,31410
31,Haute-Garonne,43.500,1.7134,Caragoudes,31460
31,Haute-Garonne,43.529,1.7529,Caraman,31460
31,Haute-Garonne,43.301,1.2184,Carbonne,31390
31,Haute-Garonne,43.195,0.6763,Cardeilhac,31350
31,Haute-Garonne,43.231,0.7991,Cassagnabère-Tournas,31420
31,Haute-Garonne,43.124,0.9914,Cassagne,31260
31,Haute-Garonne,43.235,1.3434,Castagnac,31310
31,Haute-Garonne,43.051,0.9773,Castagnède,31260
31,Haute-Garonne,43.513,1.5038,Castanet-Tolosan,31320
31,Haute-Garonne,43.035,0.9273,Castelbiague,31160
31,Haute-Garonne,43.352,0.9019,Castelgaillard,31230
31,Haute-Garonne,43.697,1.4355,Castelginest,31780
31,Haute-Garonne,43.684,1.5374,Castelmaurou,31180
31,Haute-Garonne,43.793,1.3616,Castelnau-d'Estrétefonds,31620
31,Haute-Garonne,43.308,1.0151,Castelnau-Picampeau,31430
31,Haute-Garonne,43.670,1.1447,Le Castéra,31530
31,Haute-Garonne,43.276,0.7825,Castéra-Vignoles,31350
31,Haute-Garonne,43.327,0.9934,Casties-Labrande,31430
31,Haute-Garonne,42.740,0.5576,Castillon-de-Larboust,31110
31,Haute-Garonne,43.137,0.8510,Castillon-de-Saint-Martory,31360
31,Haute-Garonne,42.823,0.5075,Cathervielle,31110
31,Haute-Garonne,43.712,1.0739,Caubiac,31480
31,Haute-Garonne,42.847,0.5219,Caubous,31110
31,Haute-Garonne,43.295,1.4585,Caujac,31190
31,Haute-Garonne,42.803,0.5814,Cazarilh-Laspènes,31110
31,Haute-Garonne,43.178,0.5425,Cazaril-Tambourès,31580
31,Haute-Garonne,42.988,0.7247,Cazaunous,31160
31,Haute-Garonne,42.871,0.5969,Cazaux-Layrisse,31440
31,Haute-Garonne,42.751,0.5322,Cazeaux-de-Larboust,31110
31,Haute-Garonne,43.181,0.8620,Cazeneuve-Montaut,31420
31,Haute-Garonne,43.220,1.0930,Cazères,31220
31,Haute-Garonne,43.745,1.4366,Cépet,31620
31,Haute-Garonne,43.457,1.7444,Cessales,31290
31,Haute-Garonne,43.234,0.6925,Charlas,31350
31,Haute-Garonne,42.940,0.6651,Chaum,31440
31,Haute-Garonne,43.004,0.8754,Chein-Dessus,31160
31,Haute-Garonne,43.254,0.7420,Ciadoux,31350
31,Haute-Garonne,42.855,0.5872,Cier-de-Luchon,31110
31,Haute-Garonne,43.058,0.6265,Cier-de-Rivière,31510
31,Haute-Garonne,42.912,0.6346,Cierp-Gaud,31440
31,Haute-Garonne,42.912,0.6346,Cierp-Gaud,31440
31,Haute-Garonne,43.306,1.5357,Cintegabelle,31550
31,Haute-Garonne,42.852,0.5092,Cirès,31110
31,Haute-Garonne,43.113,0.6161,Clarac,31210
31,Haute-Garonne,43.458,1.4426,Clermont-le-Fort,31810
31,Haute-Garonne,43.611,1.3270,Colomiers,31770
31,Haute-Garonne,43.648,1.3224,Cornebarrieu,31700
31,Haute-Garonne,43.471,1.4898,Corronsac,31450
31,Haute-Garonne,43.346,0.8783,Coueilles,31230
31,Haute-Garonne,43.196,1.0942,Couladère,31220
31,Haute-Garonne,43.049,0.8168,Couret,31160
31,Haute-Garonne,43.760,1.0420,Cox,31480
31,Haute-Garonne,43.544,1.3428,Cugnaux,31270
31,Haute-Garonne,43.104,0.5156,Cuguron,31210
31,Haute-Garonne,43.147,0.6119,Le Cuing,31210
31,Haute-Garonne,43.687,1.2663,Daux,31700
31,Haute-Garonne,43.482,1.5326,Deyme,31450
31,Haute-Garonne,43.472,1.5512,Donneville,31450
31,Haute-Garonne,43.591,1.6031,Drémil-Lafage,31280
31,Haute-Garonne,43.762,1.0979,Drudas,31480
31,Haute-Garonne,43.427,1.3589,Eaunes,31600
31,Haute-Garonne,43.536,1.0790,Empeaux,31470
31,Haute-Garonne,43.053,0.7462,Encausse-les-Thermes,31160
31,Haute-Garonne,43.277,0.8823,Eoux,31420
31,Haute-Garonne,43.520,1.5524,Escalquens,31750
31,Haute-Garonne,43.271,0.7572,Escanecrabe,31350
31,Haute-Garonne,43.450,1.4870,Espanès,31450
31,Haute-Garonne,43.261,0.8115,Esparron,31420
31,Haute-Garonne,43.299,1.4006,Esperce,31190
31,Haute-Garonne,43.033,0.8441,Estadens,31160
31,Haute-Garonne,43.108,0.7811,Estancarbon,31800
31,Haute-Garonne,42.940,0.6355,Esténos,31440
31,Haute-Garonne,42.926,0.6844,Eup,31440
31,Haute-Garonne,43.311,0.8931,Fabas,31230
31,Haute-Garonne,43.564,1.8260,Le Faget,31460
31,Haute-Garonne,43.480,1.8460,Falga,31540
31,Haute-Garonne,43.398,1.2940,Le Fauga,31410
31,Haute-Garonne,43.684,1.3905,Fenouillet,31150
31,Haute-Garonne,43.086,0.9051,Figarol,31260
31,Haute-Garonne,43.597,1.5539,Flourens,31130
31,Haute-Garonne,43.405,1.7949,Folcarde,31290
31,Haute-Garonne,43.679,1.4349,Fonbeauzard,31140
31,Haute-Garonne,43.531,1.2386,Fonsorbes,31470
31,Haute-Garonne,43.555,1.1973,Fontenilles,31470
31,Haute-Garonne,43.431,1.0432,Forgues,31370
31,Haute-Garonne,42.860,0.7475,Fos,31440
31,Haute-Garonne,42.981,0.9354,Fougaron,31160
31,Haute-Garonne,43.498,1.6217,Fourquevaux,31450
31,Haute-Garonne,43.286,1.0649,Le Fousseret,31430
31,Haute-Garonne,43.586,1.7479,Francarville,31460
31,Haute-Garonne,43.008,0.9969,Francazal,31260
31,Haute-Garonne,43.261,0.9880,Francon,31420
31,Haute-Garonne,43.131,0.5341,Franquevielle,31210
31,Haute-Garonne,43.189,0.9318,Le Fréchet,31360
31,Haute-Garonne,42.954,0.6622,Fronsac,31440
31,Haute-Garonne,42.963,0.6658,Frontignan-de-Comminges,31510
31,Haute-Garonne,43.399,0.9126,Frontignan-Savès,31230
31,Haute-Garonne,43.851,1.3792,Fronton,31620
31,Haute-Garonne,43.521,1.3130,Frouzins,31270
31,Haute-Garonne,43.301,0.9838,Fustignac,31430
31,Haute-Garonne,43.707,1.3635,Gagnac-sur-Garonne,31150
31,Haute-Garonne,43.256,1.4562,Gaillac-Toulza,31550
31,Haute-Garonne,42.992,0.6337,Galié,31510
31,Haute-Garonne,43.064,0.8369,Ganties,31160
31,Haute-Garonne,43.689,1.0916,Garac,31480
31,Haute-Garonne,43.384,1.6782,Gardouch,31290
31,Haute-Garonne,43.759,1.4592,Gargas,31620
31,Haute-Garonne,43.713,1.5516,Garidech,31380
31,Haute-Garonne,42.807,0.4979,Garin,31110
31,Haute-Garonne,43.617,1.6369,Gauré,31590
31,Haute-Garonne,43.739,1.5961,Gémil,31380
31,Haute-Garonne,42.998,0.6688,Génos,31510
31,Haute-Garonne,43.258,0.6035,Gensac-de-Boulogne,31350
31,Haute-Garonne,43.215,1.1429,Gensac-sur-Garonne,31310
31,Haute-Garonne,43.302,1.6763,Gibel,31560
31,Haute-Garonne,42.780,0.4773,Gouaux-de-Larboust,31110
31,Haute-Garonne,42.850,0.6418,Gouaux-de-Luchon,31110
31,Haute-Garonne,43.379,0.9567,Goudex,31230
31,Haute-Garonne,43.069,0.5756,Gourdan-Polignan,31210
31,Haute-Garonne,43.214,1.1737,Goutevernisse,31310
31,Haute-Garonne,43.179,1.1818,Gouzens,31310
31,Haute-Garonne,43.481,1.4265,Goyrans,31120
31,Haute-Garonne,43.683,1.5823,Gragnague,31380
31,Haute-Garonne,43.325,1.1226,Gratens,31430
31,Haute-Garonne,43.720,1.4343,Gratentour,31150
31,Haute-Garonne,43.311,1.4487,Grazac,31190
31,Haute-Garonne,43.764,1.2803,Grenade,31330
31,Haute-Garonne,43.407,1.4527,Grépiac,31190
31,Haute-Garonne,43.718,1.0998,Le Grès,31480
31,Haute-Garonne,42.886,0.6070,Guran,31440
31,Haute-Garonne,42.971,0.8856,Herran,31160
31,Haute-Garonne,43.064,0.9658,His,31260
31,Haute-Garonne,43.069,0.6001,Huos,31210
31,Haute-Garonne,43.381,0.8338,L'Isle-en-Dodon,31230
31,Haute-Garonne,43.422,1.5027,Issus,31450
31,Haute-Garonne,43.013,0.7497,Izaut-de-l'Hôtel,31160
31,Haute-Garonne,42.829,0.4750,Jurvielle,31110
31,Haute-Garonne,43.447,1.7934,Juzes,31540
31,Haute-Garonne,42.803,0.6299,Juzet-de-Luchon,31110
31,Haute-Garonne,42.969,0.7573,Juzet-d'Izaut,31160
31,Haute-Garonne,43.107,0.8324,Labarthe-Inard,31800
31,Haute-Garonne,43.080,0.6714,Labarthe-Rivière,31800
31,Haute-Garonne,43.458,1.4008,Labarthe-sur-Lèze,31860
31,Haute-Garonne,43.483,1.6636,Labastide-Beauvoir,31450
31,Haute-Garonne,43.349,1.1061,Labastide-Clermont,31370
31,Haute-Garonne,43.333,0.9356,Labastide-Paumès,31230
31,Haute-Garonne,43.735,1.4659,Labastide-Saint-Sernin,31620
31,Haute-Garonne,43.457,1.2371,Labastidette,31600
31,Haute-Garonne,43.539,1.5206,Labège,31670
31,Haute-Garonne,43.042,0.5915,Labroquère,31510
31,Haute-Garonne,43.404,1.4715,Labruyère-Dorsa,31190
31,Haute-Garonne,43.281,1.2824,Lacaugne,31390
31,Haute-Garonne,43.500,1.4239,Lacroix-Falgarde,31120
31,Haute-Garonne,43.165,0.9132,Laffite-Toupière,31360
31,Haute-Garonne,43.303,1.1622,Lafitte-Vigordane,31390
31,Haute-Garonne,43.345,1.6966,Lagarde,31290
31,Haute-Garonne,43.414,1.3925,Lagardelle-sur-Lèze,31870
31,Haute-Garonne,43.337,1.4052,Lagrâce-Dieu,31190
31,Haute-Garonne,43.788,1.0731,Lagraulet-Saint-Nicolas,31480
31,Haute-Garonne,43.440,1.0657,Lahage,31370
31,Haute-Garonne,43.141,1.1856,Lahitère,31310
31,Haute-Garonne,43.186,0.7002,Lalouret-Laffiteau,31800
31,Haute-Garonne,43.484,1.2483,Lamasquère,31600
31,Haute-Garonne,43.129,0.7778,Landorthe,31800
31,Haute-Garonne,43.561,1.6680,Lanta,31570
31,Haute-Garonne,43.204,1.3113,Lapeyrère,31310
31,Haute-Garonne,43.701,1.5103,Lapeyrouse-Fossat,31180
31,Haute-Garonne,43.171,0.7217,Larcan,31800
31,Haute-Garonne,43.741,1.0242,Laréole,31480
31,Haute-Garonne,43.195,0.6136,Larroque,31580
31,Haute-Garonne,43.635,1.1912,Lasserre-Pradère,31530
31,Haute-Garonne,43.172,0.7821,Latoue,31800
31,Haute-Garonne,43.201,1.2819,Latour,31310
31,Haute-Garonne,43.249,1.2909,Latrape,31310
31,Haute-Garonne,43.750,1.1707,Launac,31330
31,Haute-Garonne,43.670,1.4551,Launaguet,31140
31,Haute-Garonne,43.379,1.0634,Lautignac,31370
31,Haute-Garonne,43.558,1.5669,Lauzerville,31650
31,Haute-Garonne,43.639,1.5916,Lavalette,31590
31,Haute-Garonne,43.252,1.1147,Lavelanet-de-Comminges,31220
31,Haute-Garonne,43.391,1.2463,Lavernose-Lacasse,31410
31,Haute-Garonne,43.833,1.5628,Layrac-sur-Tarn,31340
31,Haute-Garonne,43.155,0.4926,Lécussan,31580
31,Haute-Garonne,42.879,0.5998,Lège,31440
31,Haute-Garonne,43.591,1.2290,Léguevin,31490
31,Haute-Garonne,43.245,1.0046,Lescuns,31220
31,Haute-Garonne,43.715,1.3833,Lespinasse,31150
31,Haute-Garonne,43.065,0.7623,Lespiteau,31160
31,Haute-Garonne,43.229,0.6669,Lespugue,31350
31,Haute-Garonne,43.118,0.9021,Lestelle-de-Saint-Martory,31360
31,Haute-Garonne,43.659,1.2038,Lévignac,31530
31,Haute-Garonne,42.908,0.7059,Lez,31440
31,Haute-Garonne,43.429,1.2233,Lherm,31600
31,Haute-Garonne,43.149,0.7735,Lieoux,31800
31,Haute-Garonne,43.284,0.8095,Lilhac,31230
31,Haute-Garonne,43.166,0.6575,Lodes,31800
31,Haute-Garonne,43.357,1.2142,Longages,31410
31,Haute-Garonne,43.574,1.7833,Loubens-Lauragais,31460
31,Haute-Garonne,43.139,0.5763,Loudet,31580
31,Haute-Garonne,42.984,0.6586,Lourde,31510
31,Haute-Garonne,43.338,0.6942,Lunax,31350
31,Haute-Garonne,43.013,0.6269,Luscan,31510
31,Haute-Garonne,43.296,0.9519,Lussan-Adeilhac,31430
31,Haute-Garonne,43.431,1.7813,Lux,31290
31,Haute-Garonne,43.813,1.5350,La Magdelaine-sur-Tarn,31340
31,Haute-Garonne,43.245,1.2513,Mailholas,31310
31,Haute-Garonne,43.006,0.7001,Malvezie,31510
31,Haute-Garonne,43.166,0.9417,Mancioux,31360
31,Haute-Garonne,43.080,0.9447,Mane,31260
31,Haute-Garonne,42.894,0.6660,Marignac,31440
31,Haute-Garonne,43.304,1.1066,Marignac-Lasclares,31430
31,Haute-Garonne,43.212,0.9617,Marignac-Laspeyres,31220
31,Haute-Garonne,43.223,1.4724,Marliac,31550
31,Haute-Garonne,43.309,1.2594,Marquefave,31390
31,Haute-Garonne,43.106,0.9934,Marsoulas,31260
31,Haute-Garonne,43.394,0.8853,Martisserre,31230
31,Haute-Garonne,43.082,0.6448,Martres-de-Rivière,31210
31,Haute-Garonne,43.202,1.0011,Martres-Tolosane,31220
31,Haute-Garonne,43.558,1.7538,Mascarville,31460
31,Haute-Garonne,43.221,1.3671,Massabrac,31310
31,Haute-Garonne,43.184,1.0227,Mauran,31220
31,Haute-Garonne,43.455,1.6815,Mauremont,31290
31,Haute-Garonne,43.466,1.7977,Maurens,31540
31,Haute-Garonne,43.321,1.4342,Mauressac,31190
31,Haute-Garonne,43.529,1.7144,Maureville,31460
31,Haute-Garonne,43.359,1.5386,Mauvaisin,31190
31,Haute-Garonne,43.383,0.9206,Mauvezin,31230
31,Haute-Garonne,43.375,1.3028,Mauzac,31410
31,Haute-Garonne,42.848,0.5400,Mayrègne,31110
31,Haute-Garonne,43.132,0.9635,Mazères-sur-Salat,31260
31,Haute-Garonne,42.867,0.8089,Melles,31440
31,Haute-Garonne,43.679,1.1874,Menville,31530
31,Haute-Garonne,43.620,1.1676,Mérenvielle,31530
31,Haute-Garonne,43.506,1.4731,Mervilla,31320
31,Haute-Garonne,43.722,1.2959,Merville,31330
31,Haute-Garonne,42.977,0.8275,Milhas,31160
31,Haute-Garonne,43.405,0.8630,Mirambeau,31230
31,Haute-Garonne,43.091,0.7556,Miramont-de-Comminges,31800
31,Haute-Garonne,43.376,1.4172,Miremont,31190
31,Haute-Garonne,43.824,1.5774,Mirepoix-sur-Tarn,31340
31,Haute-Garonne,43.400,0.7792,Molas,31230
31,Haute-Garonne,42.972,0.7016,Moncaup,31160
31,Haute-Garonne,43.241,1.0424,Mondavezan,31220
31,Haute-Garonne,43.290,0.7079,Mondilhan,31350
31,Haute-Garonne,43.663,1.2812,Mondonville,31700
31,Haute-Garonne,43.631,1.5621,Mondouzil,31850
31,Haute-Garonne,43.418,1.0332,Monès,31370
31,Haute-Garonne,43.332,1.6627,Monestrol,31560
31,Haute-Garonne,43.611,1.5739,Mons,31280
31,Haute-Garonne,43.680,1.2345,Montaigut-sur-Save,31530
31,Haute-Garonne,43.037,0.9014,Montastruc-de-Salies,31160
31,Haute-Garonne,43.722,1.5890,Montastruc-la-Conseillère,31380
31,Haute-Garonne,43.361,1.0190,Montastruc-Savès,31370
31,Haute-Garonne,42.790,0.6233,Montauban-de-Luchon,31110
31,Haute-Garonne,43.345,1.3106,Montaut,31410
31,Haute-Garonne,43.159,1.1551,Montberaud,31220
31,Haute-Garonne,43.304,0.7678,Montbernard,31230
31,Haute-Garonne,43.720,1.4889,Montberon,31140
31,Haute-Garonne,43.119,1.2493,Montbrun-Bocage,31310
31,Haute-Garonne,43.455,1.5198,Montbrun-Lauragais,31450
31,Haute-Garonne,43.170,1.0293,Montclar-de-Comminges,31220
31,Haute-Garonne,43.362,1.7136,Montclar-Lauragais,31290
31,Haute-Garonne,42.992,0.6467,Mont-de-Galié,31510
31,Haute-Garonne,43.281,0.9851,Montégut-Bourjac,31430
31,Haute-Garonne,43.477,1.9314,Montégut-Lauragais,31540
31,Haute-Garonne,43.085,0.8597,Montespan,31260
31,Haute-Garonne,43.338,0.7672,Montesquieu-Guittaut,31230
31,Haute-Garonne,43.407,1.6276,Montesquieu-Lauragais,31450
31,Haute-Garonne,43.192,1.2178,Montesquieu-Volvestre,31310
31,Haute-Garonne,43.058,0.9322,Montgaillard-de-Salies,31260
31,Haute-Garonne,43.428,1.7026,Montgaillard-Lauragais,31290
31,Haute-Garonne,43.254,0.7174,Montgaillard-sur-Save,31350
31,Haute-Garonne,43.305,1.3033,Montgazin,31410
31,Haute-Garonne,43.343,1.6415,Montgeard,31560
31,Haute-Garonne,43.455,1.5705,Montgiscard,31450
31,Haute-Garonne,43.449,1.0683,Montgras,31370
31,Haute-Garonne,43.778,1.5266,Montjoire,31380
31,Haute-Garonne,43.485,1.5806,Montlaur,31450
31,Haute-Garonne,43.226,0.6361,Montmaurin,31350
31,Haute-Garonne,43.230,0.9064,Montoulieu-Saint-Bernard,31420
31,Haute-Garonne,43.280,1.0111,Montoussin,31430
31,Haute-Garonne,43.704,1.6424,Montpitol,31380
31,Haute-Garonne,43.642,1.5288,Montrabé,31850
31,Haute-Garonne,43.088,0.5584,Montréjeau,31210
31,Haute-Garonne,43.110,0.9322,Montsaunès,31260
31,Haute-Garonne,43.488,1.6991,Mourvilles-Basses,31460
31,Haute-Garonne,43.424,1.8197,Mourvilles-Hautes,31540
31,Haute-Garonne,42.814,0.5919,Moustajon,31110
31,Haute-Garonne,43.449,1.3078,Muret,31600
31,Haute-Garonne,43.365,1.6131,Nailloux,31560
31,Haute-Garonne,43.353,0.7088,Nénigan,31350
31,Haute-Garonne,43.230,0.5964,Nizan-Gesse,31350
31,Haute-Garonne,43.360,1.2705,Noé,31410
31,Haute-Garonne,43.492,1.9337,Nogaret,31540
31,Haute-Garonne,43.415,1.5258,Noueilles,31450
31,Haute-Garonne,43.521,1.5932,Odars,31450
31,Haute-Garonne,43.786,1.3040,Ondes,31330
31,Haute-Garonne,42.741,0.4964,Oô,31110
31,Haute-Garonne,42.973,0.6462,Ore,31510
31,Haute-Garonne,43.194,1.0603,Palaminy,31220
31,Haute-Garonne,43.754,1.5547,Paulhac,31380
31,Haute-Garonne,43.034,0.7171,Payssous,31510
31,Haute-Garonne,43.501,1.5104,Péchabou,31320
31,Haute-Garonne,43.711,1.4587,Pechbonnieu,31140
31,Haute-Garonne,43.524,1.4572,Pechbusque,31320
31,Haute-Garonne,43.318,0.7036,Péguilhan,31350
31,Haute-Garonne,43.741,1.1186,Pelleport,31480
31,Haute-Garonne,43.288,0.9116,Peyrissas,31420
31,Haute-Garonne,43.207,0.8321,Peyrouzet,31420
31,Haute-Garonne,43.325,1.1848,Peyssies,31390
31,Haute-Garonne,43.627,1.2613,Pibrac,31820
31,Haute-Garonne,43.622,1.5357,Pin-Balma,31130
31,Haute-Garonne,43.397,1.0213,Le Pin-Murelet,31370
31,Haute-Garonne,43.503,1.3939,Pinsaguel,31120
31,Haute-Garonne,43.482,1.3908,Pins-Justaret,31860
31,Haute-Garonne,43.160,1.0589,Plagne,31220
31,Haute-Garonne,43.411,1.0638,Plagnole,31370
31,Haute-Garonne,43.557,1.2858,Plaisance-du-Touch,31830
31,Haute-Garonne,43.167,1.1222,Le Plan,31220
31,Haute-Garonne,43.090,0.6258,Pointis-de-Rivière,31210
31,Haute-Garonne,43.083,0.7969,Pointis-Inard,31800
31,Haute-Garonne,43.319,0.9516,Polastron,31430
31,Haute-Garonne,43.494,1.5210,Pompertuzat,31450
31,Haute-Garonne,43.112,0.5962,Ponlat-Taillebourg,31210
31,Haute-Garonne,42.942,0.8555,Portet-d'Aspet,31160
31,Haute-Garonne,42.811,0.4710,Portet-de-Luchon,31110
31,Haute-Garonne,43.529,1.4025,Portet-sur-Garonne,31120
31,Haute-Garonne,42.827,0.4927,Poubeau,31110
31,Haute-Garonne,43.423,1.1668,Poucharramet,31370
31,Haute-Garonne,43.336,1.0493,Pouy-de-Touges,31430
31,Haute-Garonne,43.434,1.5341,Pouze,31450
31,Haute-Garonne,43.646,1.1551,Pradère-les-Bourguets,31530
31,Haute-Garonne,43.520,1.6318,Préserville,31570
31,Haute-Garonne,43.158,0.8679,Proupiary,31360
31,Haute-Garonne,43.572,1.7297,Prunet,31460
31,Haute-Garonne,43.331,1.4227,Puydaniel,31190
31,Haute-Garonne,43.370,0.7525,Puymaurin,31230
31,Haute-Garonne,43.751,1.0661,Puysségur,31480
31,Haute-Garonne,43.581,1.5421,Quint-Fonsegrives,31130
31,Haute-Garonne,43.544,1.4778,Ramonville-Saint-Agne,31520
31,Haute-Garonne,42.963,0.8141,Razecueillé,31160
31,Haute-Garonne,43.490,1.4776,Rebigue,31320
31,Haute-Garonne,43.053,0.7176,Régades,31800
31,Haute-Garonne,43.379,1.7213,Renneville,31290
31,Haute-Garonne,43.465,1.9968,Revel,31250
31,Haute-Garonne,43.465,1.9968,Revel,31250
31,Haute-Garonne,43.075,0.7522,Rieucazé,31800
31,Haute-Garonne,43.412,1.8027,Rieumajou,31290
31,Haute-Garonne,43.412,1.1145,Rieumes,31370
31,Haute-Garonne,43.255,1.2063,Rieux-Volvestre,31310
31,Haute-Garonne,43.350,0.9192,Riolas,31230
31,Haute-Garonne,43.159,0.9867,Roquefort-sur-Garonne,31360
31,Haute-Garonne,43.507,1.3545,Roques,31120
31,Haute-Garonne,43.733,1.6377,Roquesérière,31380
31,Haute-Garonne,43.494,1.3741,Roquettes,31120
31,Haute-Garonne,43.056,0.8827,Rouède,31160
31,Haute-Garonne,43.663,1.5254,Rouffiac-Tolosan,31180
31,Haute-Garonne,43.464,1.9357,Roumens,31540
31,Haute-Garonne,43.468,1.0572,Sabonnères,31370
31,Haute-Garonne,42.818,0.5681,Saccourvielle,31110
31,Haute-Garonne,43.523,1.1423,Saiguède,31470
31,Haute-Garonne,43.692,1.4126,Saint-Alban,31140
31,Haute-Garonne,43.274,0.8471,Saint-André,31420
31,Haute-Garonne,43.352,1.0039,Saint-Araille,31430
31,Haute-Garonne,42.759,0.5766,Saint-Aventin,31110
31,Haute-Garonne,42.904,0.6852,Saint-Béat,31440
31,Haute-Garonne,43.023,0.5524,Saint-Bertrand-de-Comminges,31510
31,Haute-Garonne,43.780,1.1915,Saint-Cézert,31330
31,Haute-Garonne,43.192,1.1280,Saint-Christaud,31310
31,Haute-Garonne,43.475,1.2089,Saint-Clar-de-Rivière,31600
31,Haute-Garonne,43.281,1.1377,Saint-Élix-le-Château,31430
31,Haute-Garonne,43.195,0.8491,Saint-Élix-Séglan,31420
31,Haute-Garonne,43.450,1.9017,Saint-Félix-Lauragais,31540
31,Haute-Garonne,43.338,0.7360,Saint-Ferréol-de-Comminges,31350
31,Haute-Garonne,43.550,1.6030,Sainte-Foy-d'Aigrefeuille,31570
31,Haute-Garonne,43.480,1.1369,Sainte-Foy-de-Peyrolières,31470
31,Haute-Garonne,43.331,0.8502,Saint-Frajou,31230
31,Haute-Garonne,43.119,0.7266,Saint-Gaudens,31800
31,Haute-Garonne,43.684,1.4804,Saint-Geniès-Bellevue,31180
31,Haute-Garonne,43.469,1.7252,Saint-Germier,31290
31,Haute-Garonne,43.420,1.2687,Saint-Hilaire,31410
31,Haute-Garonne,43.156,0.6898,Saint-Ignan,31800
31,Haute-Garonne,43.663,1.5008,Saint-Jean,31240
31,Haute-Garonne,43.697,1.6179,Saint-Jean-Lherm,31380
31,Haute-Garonne,43.739,1.3562,Saint-Jory,31790
31,Haute-Garonne,43.494,1.8941,Saint-Julia,31540
31,Haute-Garonne,43.249,1.1467,Saint-Julien-sur-Garonne,31220
31,Haute-Garonne,43.221,0.7400,Saint-Lary-Boujean,31350
31,Haute-Garonne,43.325,0.8003,Saint-Laurent,31230
31,Haute-Garonne,43.397,1.5628,Saint-Léon,31560
31,Haute-Garonne,43.648,1.1119,Sainte-Livrade,31530
31,Haute-Garonne,43.697,1.4799,Saint-Loup-Cammas,31140
31,Haute-Garonne,43.242,0.5732,Saint-Loup-en-Comminges,31350
31,Haute-Garonne,43.510,1.1995,Saint-Lys,31470
31,Haute-Garonne,42.772,0.6300,Saint-Mamet,31110
31,Haute-Garonne,43.656,1.6147,Saint-Marcel-Paulel,31590
31,Haute-Garonne,43.196,0.7455,Saint-Marcet,31800
31,Haute-Garonne,43.143,0.9367,Saint-Martory,31360
31,Haute-Garonne,43.127,0.8293,Saint-Médard,31360
31,Haute-Garonne,43.159,1.0857,Saint-Michel,31220
31,Haute-Garonne,43.559,1.5351,Saint-Orens-de-Gameville,31650
31,Haute-Garonne,43.699,1.2205,Saint-Paul-sur-Save,31530
31,Haute-Garonne,42.838,0.5556,Saint-Paul-d'Oueil,31110
31,Haute-Garonne,42.986,0.6799,Saint-Pé-d'Ardet,31510
31,Haute-Garonne,43.267,0.6942,Saint-Pé-Delbosc,31350
31,Haute-Garonne,43.636,1.6416,Saint-Pierre,31590
31,Haute-Garonne,43.568,1.6268,Saint-Pierre-de-Lages,31570
31,Haute-Garonne,43.167,0.5700,Saint-Plancard,31580
31,Haute-Garonne,43.415,1.6743,Saint-Rome,31290
31,Haute-Garonne,43.803,1.3281,Saint-Rustice,31620
31,Haute-Garonne,43.751,1.3957,Saint-Sauveur,31790
31,Haute-Garonne,43.324,1.3412,Saint-Sulpice-sur-Lèze,31410
31,Haute-Garonne,43.514,1.0888,Saint-Thomas,31470
31,Haute-Garonne,43.440,1.7581,Saint-Vincent,31290
31,Haute-Garonne,43.375,1.0252,Sajas,31370
31,Haute-Garonne,43.028,0.9682,Saleich,31260
31,Haute-Garonne,43.307,0.8249,Salerm,31230
31,Haute-Garonne,43.101,0.9629,Salies-du-Salat,31260
31,Haute-Garonne,42.833,0.6067,Salles-et-Pratviel,31110
31,Haute-Garonne,43.276,1.1723,Salles-sur-Garonne,31390
31,Haute-Garonne,43.575,1.2661,La Salvetat-Saint-Gilles,31880
31,Haute-Garonne,43.547,1.8004,La Salvetat-Lauragais,31460
31,Haute-Garonne,43.238,0.7219,Saman,31350
31,Haute-Garonne,43.267,0.9497,Samouillan,31420
31,Haute-Garonne,43.227,1.0111,Sana,31220
31,Haute-Garonne,43.214,0.5949,Sarrecave,31350
31,Haute-Garonne,43.211,0.6621,Sarremezan,31350
31,Haute-Garonne,43.479,1.3595,Saubens,31600
31,Haute-Garonne,43.590,1.7244,Saussens,31460
31,Haute-Garonne,43.033,0.6726,Sauveterre-de-Comminges,31510
31,Haute-Garonne,43.148,0.7048,Saux-et-Pomarède,31800
31,Haute-Garonne,43.122,0.8039,Savarthès,31800
31,Haute-Garonne,43.372,1.1000,Savères,31370
31,Haute-Garonne,43.147,0.5427,Sédeilhac,31580
31,Haute-Garonne,43.491,1.7472,Ségreville,31460
31,Haute-Garonne,43.690,1.3567,Seilh,31840
31,Haute-Garonne,43.052,0.5768,Seilhan,31510
31,Haute-Garonne,43.351,0.9759,Sénarens,31430
31,Haute-Garonne,42.955,0.7842,Sengouagnet,31160
31,Haute-Garonne,43.155,0.8370,Sepx,31360
31,Haute-Garonne,43.364,1.6635,Seyre,31560
31,Haute-Garonne,43.498,1.2869,Seysses,31600
31,Haute-Garonne,42.910,0.6175,Signac,31440
31,Haute-Garonne,42.811,0.6419,Sode,31110
31,Haute-Garonne,43.050,0.7824,Soueich,31160
31,Haute-Garonne,43.512,1.6755,Tarabel,31570
31,Haute-Garonne,43.239,0.9724,Terrebasse,31420
31,Haute-Garonne,43.710,1.1530,Thil,31530
31,Haute-Garonne,43.083,0.9817,Touille,31260
31,Haute-Garonne,43.596,1.4316,Toulouse,31000
31,Haute-Garonne,43.596,1.4316,Toulouse,31100
31,Haute-Garonne,43.596,1.4316,Toulouse,31200
31,Haute-Garonne,43.596,1.4316,Toulouse,31300
31,Haute-Garonne,43.596,1.4316,Toulouse,31400
31,Haute-Garonne,43.596,1.4316,Toulouse,31500
31,Haute-Garonne,43.112,0.5498,Les Tourreilles,31210
31,Haute-Garonne,43.578,1.3350,Tournefeuille,31170
31,Haute-Garonne,43.475,1.7462,Toutens,31460
31,Haute-Garonne,42.803,0.5689,Trébons-de-Luchon,31110
31,Haute-Garonne,43.448,1.7213,Trébons-sur-la-Grasse,31290
31,Haute-Garonne,43.654,1.4839,L'Union,31240
31,Haute-Garonne,43.000,0.9555,Urau,31260
31,Haute-Garonne,43.790,1.4836,Vacquiers,31340
31,Haute-Garonne,43.030,0.5861,Valcabrère,31510
31,Haute-Garonne,43.088,0.7013,Valentine,31800
31,Haute-Garonne,43.425,1.7544,Vallègue,31290
31,Haute-Garonne,43.594,1.6498,Vallesvilles,31570
31,Haute-Garonne,43.476,1.6924,Varennes,31450
31,Haute-Garonne,43.424,2.0011,Vaudreuille,31250
31,Haute-Garonne,43.460,1.8284,Vaux,31540
31,Haute-Garonne,43.590,1.7654,Vendine,31460
31,Haute-Garonne,43.433,1.4666,Venerque,31810
31,Haute-Garonne,43.663,1.6773,Verfeil,31590
31,Haute-Garonne,43.427,1.4213,Vernet,31810
31,Haute-Garonne,43.527,1.4383,Vieille-Toulouse,31320
31,Haute-Garonne,43.407,1.6591,Vieillevigne,31290
31,Haute-Garonne,43.687,1.0669,Vignaux,31480
31,Haute-Garonne,43.507,1.4476,Vigoulet-Auzil,31320
31,Haute-Garonne,43.750,1.4909,Villariès,31380
31,Haute-Garonne,43.467,1.3819,Villate,31860
31,Haute-Garonne,43.831,1.4357,Villaudric,31620
31,Haute-Garonne,43.406,1.7196,Villefranche-de-Lauragais,31290
31,Haute-Garonne,43.828,1.4968,Villematier,31340
31,Haute-Garonne,43.864,1.4904,Villemur-sur-Tarn,31340
31,Haute-Garonne,43.122,0.6700,Villeneuve-de-Rivière,31800
31,Haute-Garonne,43.134,0.4851,Villeneuve-Lécussan,31580
31,Haute-Garonne,43.773,1.4238,Villeneuve-lès-Bouloc,31620
31,Haute-Garonne,43.526,1.3464,Villeneuve-Tolosane,31270
31,Haute-Garonne,43.437,1.6630,Villenouvelle,31290
31,Haute-Garonne,42.904,0.6084,Binos,31440
31,Haute-Garonne,43.111,1.0313,Escoulis,31260
31,Haute-Garonne,43.734,1.2242,Larra,31330
31,Haute-Garonne,43.347,0.9525,Cazac,31230
