department_id,department_name,latitude,longitude,locality,postal_code
36,Indre,46.455,1.8397,Aigurande,36140
36,Indre,47.107,1.7066,Aize,36150
36,Indre,46.783,1.9497,Ambrault,36120
36,Indre,47.200,1.8074,Anjouin,36210
36,Indre,46.735,1.8240,Ardentes,36120
36,Indre,46.578,1.4926,Argenton-sur-Creuse,36200
36,Indre,46.941,1.4615,Argy,36500
36,Indre,46.899,1.2739,Arpheuilles,36700
36,Indre,46.693,1.7113,Arthon,36330
36,Indre,46.845,1.0812,Azay-le-Ferron,36290
36,Indre,47.167,1.7560,Bagneux,36210
36,Indre,46.480,1.5702,Baraize,36270
36,Indre,47.052,1.5730,Baudres,36110
36,Indre,46.484,1.5276,Bazaiges,36270
36,Indre,46.385,1.2976,Beaulieu,36310
36,Indre,46.555,1.1619,Bélâbre,36370
36,Indre,46.697,2.0572,La Berthenoux,36400
36,Indre,46.634,1.1001,Le Blanc,36300
36,Indre,46.779,2.0035,Bommiers,36120
36,Indre,46.383,1.2415,Bonneuil,36310
36,Indre,46.984,1.9639,Les Bordes,36100
36,Indre,46.626,1.6877,Bouesse,36200
36,Indre,47.031,1.6653,Bouges-le-Château,36110
36,Indre,46.999,1.6978,Bretagne,36110
36,Indre,46.550,2.0242,Briantes,36400
36,Indre,46.949,1.7289,Brion,36110
36,Indre,46.857,1.9258,Brives,36100
36,Indre,46.495,1.7982,La Buxerette,36140
36,Indre,47.126,1.6948,Buxeuil,36150
36,Indre,46.638,1.7530,Buxières-d'Aillac,36230
36,Indre,46.887,1.4125,Buzançais,36500
36,Indre,46.530,1.5568,Ceaulmont,36200
36,Indre,46.531,1.5122,Celon,36200
36,Indre,47.251,1.6619,Chabris,36210
36,Indre,46.426,1.2915,Chaillac,36310
36,Indre,46.543,1.2218,Chalais,36370
36,Indre,46.939,1.7929,La Champenoise,36100
36,Indre,46.546,2.1073,Champillet,36160
36,Indre,46.832,1.4519,La Chapelle-Orthemale,36500
36,Indre,47.054,1.7829,La Chapelle-Saint-Laurian,36150
36,Indre,46.657,1.4934,Chasseneuil,36800
36,Indre,46.528,1.9359,Chassignolles,36400
36,Indre,46.802,1.6939,Châteauroux,36000
36,Indre,46.991,1.1750,Châtillon-sur-Indre,36700
36,Indre,46.573,1.9911,La Châtre,36400
36,Indre,46.409,1.3875,La Châtre-Langlin,36170
36,Indre,46.562,1.6116,Chavin,36200
36,Indre,46.508,1.4337,Chazelet,36170
36,Indre,46.893,1.5625,Chezelles,36500
36,Indre,46.659,1.3596,Chitray,36800
36,Indre,46.921,2.0534,Chouday,36100
36,Indre,46.632,1.2610,Ciron,36300
36,Indre,46.632,1.2610,Ciron,36300
36,Indre,46.942,1.1023,Cléré-du-Bois,36700
36,Indre,46.937,1.2216,Clion,36700
36,Indre,46.535,1.7434,Cluis,36340
36,Indre,46.884,1.7214,Coings,36130
36,Indre,46.593,1.0159,Concremiers,36300
36,Indre,46.885,1.9870,Condé,36100
36,Indre,46.469,1.9370,Crevant,36140
36,Indre,46.481,1.8819,Crozon-sur-Vauvre,36140
36,Indre,46.471,1.6169,Cuzion,36190
36,Indre,46.840,1.7024,Déols,36130
36,Indre,46.829,1.8111,Diors,36130
36,Indre,47.045,2.0061,Diou,36260
36,Indre,46.703,1.1179,Douadic,36300
36,Indre,46.469,1.2860,Dunet,36310
36,Indre,47.218,1.7473,Dun-le-Poëlier,36210
36,Indre,47.077,1.3536,Écueillé,36240
36,Indre,46.434,1.5693,Éguzon-Chantôme,36270
36,Indre,46.434,1.5693,Éguzon-Chantôme,36270
36,Indre,46.792,1.7777,Étrechet,36120
36,Indre,47.172,1.3857,Faverolles-en-Berry,36360
36,Indre,46.512,2.1001,Feusines,36160
36,Indre,46.996,1.0931,Fléré-la-Rivière,36700
36,Indre,47.054,1.7423,Fontenay,36150
36,Indre,46.674,0.9718,Fontgombault,36220
36,Indre,47.201,1.5344,Fontguenand,36600
36,Indre,46.568,1.8698,Fougerolles,36230
36,Indre,46.946,1.5577,Francillon,36110
36,Indre,47.001,1.4773,Frédille,36180
36,Indre,46.505,1.6206,Gargilesse-Dampierre,36190
36,Indre,47.038,1.4937,Gehée,36240
36,Indre,47.065,1.9066,Giroux,36150
36,Indre,46.596,1.7349,Gournay,36230
36,Indre,47.085,1.7347,Guilly,36150
36,Indre,47.027,1.3854,Heugnes,36180
36,Indre,46.593,0.9635,Ingrandes,36300
36,Indre,46.948,2.0005,Issoudun,36100
36,Indre,46.681,1.7946,Jeu-les-Bois,36120
36,Indre,47.047,1.4416,Jeu-Maloches,36240
36,Indre,46.591,2.0364,Lacs,36400
36,Indre,47.073,1.5074,Langé,36600
36,Indre,46.972,1.6302,Levroux,36110
36,Indre,46.972,1.6302,Levroux,36110
36,Indre,46.476,1.2009,Lignac,36370
36,Indre,46.500,2.1635,Lignerolles,36160
36,Indre,46.755,1.1133,Lingé,36220
36,Indre,47.014,1.7562,Liniez,36150
36,Indre,46.985,1.9034,Lizeray,36100
36,Indre,46.416,1.7255,Lourdoueix-Saint-Michel,36140
36,Indre,46.619,2.0179,Lourouer-Saint-Laurent,36400
36,Indre,46.727,1.5623,Luant,36350
36,Indre,47.094,1.9168,Luçay-le-Libre,36150
36,Indre,47.114,1.4269,Luçay-le-Mâle,36360
36,Indre,46.687,0.9372,Lurais,36220
36,Indre,46.746,1.0381,Lureuil,36220
36,Indre,46.547,1.3852,Luzeret,36800
36,Indre,47.220,1.4735,Lye,36600
36,Indre,46.645,1.8167,Lys-Saint-Georges,36230
36,Indre,46.556,1.9589,Le Magny,36400
36,Indre,46.580,1.6777,Maillet,36340
36,Indre,46.569,1.6458,Malicornay,36340
36,Indre,46.800,1.8581,Mâron,36120
36,Indre,46.799,1.0395,Martizay,36220
36,Indre,46.578,1.1069,Mauvières,36370
36,Indre,47.223,1.6366,Menetou-sur-Nahon,36210
36,Indre,47.008,1.8345,Ménétréols-sous-Vatan,36150
36,Indre,46.557,1.5740,Le Menoux,36200
36,Indre,46.741,1.4135,Méobecq,36500
36,Indre,46.630,0.9328,Mérigny,36220
36,Indre,46.669,1.8733,Mers-sur-Indre,36230
36,Indre,46.840,1.9738,Meunet-Planches,36100
36,Indre,47.091,1.8594,Meunet-sur-Vatan,36150
36,Indre,46.812,1.2566,Mézières-en-Brenne,36290
36,Indre,46.712,1.3017,Migné,36800
36,Indre,47.016,2.0527,Migny,36260
36,Indre,46.478,1.7540,Montchevrier,36140
36,Indre,46.596,1.9662,Montgivray,36400
36,Indre,46.866,1.7784,Montierchaume,36130
36,Indre,46.656,1.9135,Montipouret,36230
36,Indre,46.579,2.0842,Montlevicq,36400
36,Indre,46.626,1.6250,Mosnay,36200
36,Indre,46.547,2.0737,La Motte-Feuilly,36160
36,Indre,46.563,1.7799,Mouhers,36340
36,Indre,46.389,1.4426,Mouhet,36170
36,Indre,47.008,1.5607,Moulins-sur-Céphons,36110
36,Indre,46.925,1.1619,Murs,36700
36,Indre,46.734,0.9170,Néons-sur-Creuse,36220
36,Indre,46.572,2.1412,Néret,36400
36,Indre,46.762,1.4785,Neuillay-les-Bois,36500
36,Indre,46.903,1.8585,Neuvy-Pailloux,36100
36,Indre,46.592,1.8127,Neuvy-Saint-Sépulchre,36230
36,Indre,46.801,1.5580,Niherne,36250
36,Indre,46.640,1.9567,Nohant-Vic,36400
36,Indre,46.689,1.4283,Nuret-le-Ferron,36800
36,Indre,46.907,1.0631,Obterre,36290
36,Indre,46.479,1.6954,Orsennes,36190
36,Indre,47.143,1.7765,Orville,36210
36,Indre,46.602,1.3100,Oulches,36800
36,Indre,46.950,1.3069,Palluau-sur-Indre,36500
36,Indre,46.441,1.4652,Parnac,36170
36,Indre,47.034,1.9202,Paudy,36260
36,Indre,46.861,1.1496,Paulnay,36290
36,Indre,46.584,1.5704,Le Pêchereau,36200
36,Indre,46.986,1.4216,Pellevoisin,36180
36,Indre,46.475,2.1446,Pérassay,36160
36,Indre,46.709,1.5152,La Pérouille,36350
36,Indre,46.532,1.6019,Badecon-le-Pin,36200
36,Indre,46.756,1.7299,Le Poinçonnet,36330
36,Indre,46.521,1.6534,Pommiers,36190
36,Indre,46.628,1.5003,Le Pont-Chrétien-Chabenet,36800
36,Indre,47.149,1.6450,Poulaines,36210
36,Indre,46.473,2.0065,Pouligny-Notre-Dame,36160
36,Indre,46.514,2.0055,Pouligny-Saint-Martin,36160
36,Indre,46.684,1.0465,Pouligny-Saint-Pierre,36300
36,Indre,47.030,1.3060,Préaux,36240
36,Indre,46.698,0.9804,Preuilly-la-Ville,36220
36,Indre,46.524,1.2985,Prissac,36370
36,Indre,46.781,2.0583,Pruniers,36120
36,Indre,47.108,1.8120,Reboursin,36150
36,Indre,47.080,2.0108,Reuilly,36260
36,Indre,46.613,1.3792,Rivarennes,36800
36,Indre,46.708,1.2062,Rosnay,36300
36,Indre,46.461,1.3772,Roussines,36170
36,Indre,47.072,1.6527,Rouvres-les-Bois,36110
36,Indre,46.623,1.1836,Ruffec,36300
36,Indre,46.502,1.3636,Sacierges-Saint-Martin,36170
36,Indre,46.633,1.0057,Saint-Aigny,36300
36,Indre,46.932,1.9299,Saint-Aoustrille,36100
36,Indre,46.725,1.9632,Saint-Août,36120
36,Indre,46.861,2.0320,Saint-Aubin,36100
36,Indre,46.447,1.3993,Saint-Benoît-du-Sault,36170
36,Indre,46.675,1.9823,Saint-Chartier,36400
36,Indre,47.187,1.7121,Saint-Christophe-en-Bazelle,36210
36,Indre,46.679,2.1158,Saint-Christophe-en-Boucherie,36400
36,Indre,46.493,1.4042,Saint-Civran,36170
36,Indre,47.022,1.1567,Saint-Cyran-du-Jambot,36700
36,Indre,46.526,1.8450,Saint-Denis-de-Jouhet,36230
36,Indre,46.854,1.8711,Sainte-Fauste,36100
36,Indre,47.098,1.7791,Saint-Florentin,36150
36,Indre,46.648,1.4303,Saint-Gaultier,36800
36,Indre,46.859,1.3333,Sainte-Gemme,36500
36,Indre,46.911,1.3504,Saint-Genou,36500
36,Indre,46.986,2.0649,Saint-Georges-sur-Arnon,36100
36,Indre,46.479,1.4489,Saint-Gilles,36170
36,Indre,46.556,1.0667,Saint-Hilaire-sur-Benaize,36370
36,Indre,46.895,1.4971,Saint-Lactencin,36500
36,Indre,47.011,1.9954,Sainte-Lizaigne,36260
36,Indre,46.608,1.5234,Saint-Marcel,36200
36,Indre,46.789,1.6234,Saint-Maur,36250
36,Indre,46.789,1.6234,Saint-Maur,36250
36,Indre,47.005,1.2651,Saint-Médard,36700
36,Indre,46.787,1.1742,Saint-Michel-en-Brenne,36290
36,Indre,47.101,1.9696,Saint-Pierre-de-Jards,36260
36,Indre,46.968,1.5140,Saint-Pierre-de-Lamps,36110
36,Indre,46.432,1.6482,Saint-Plantaire,36190
36,Indre,46.504,2.0676,Sainte-Sévère-sur-Indre,36160
36,Indre,46.962,1.8510,Saint-Valentin,36100
36,Indre,46.597,1.9070,Sarzay,36230
36,Indre,46.755,1.8905,Sassierges-Saint-Germain,36120
36,Indre,46.868,1.2567,Saulnay,36290
36,Indre,46.654,0.9854,Sauzelles,36220
36,Indre,46.446,2.0453,Sazeray,36160
36,Indre,46.884,2.0958,Ségry,36100
36,Indre,47.017,1.4554,Selles-sur-Nahon,36180
36,Indre,47.218,1.6937,Sembleçay,36210
36,Indre,46.965,1.4804,Sougé,36500
36,Indre,46.652,1.5656,Tendu,36200
36,Indre,46.594,1.4288,Thenay,36800
36,Indre,46.634,2.0699,Thevet-Saint-Julien,36400
36,Indre,46.898,1.9293,Thizay,36100
36,Indre,46.405,1.2114,Tilly,36310
36,Indre,46.730,0.9831,Tournon-Saint-Martin,36220
36,Indre,46.973,1.2467,Le Tranger,36700
36,Indre,46.622,1.8541,Tranzault,36230
36,Indre,46.528,2.1456,Urciers,36160
36,Indre,47.155,1.5585,Valençay,36600
36,Indre,47.204,1.5915,Val-Fouzon,36210
36,Indre,47.204,1.5915,Val-Fouzon,36210
36,Indre,47.204,1.5915,Val-Fouzon,36210
36,Indre,47.053,1.8253,Vatan,36150
36,Indre,46.699,1.6368,Velles,36330
36,Indre,46.787,1.3602,Vendœuvres,36500
36,Indre,47.242,1.5636,La Vernelle,36600
36,Indre,46.654,2.0144,Verneuil-sur-Igneraie,36400
36,Indre,47.132,1.5098,Veuil,36600
36,Indre,46.621,2.1434,Vicq-Exemplet,36400
36,Indre,47.100,1.5580,Vicq-sur-Nahon,36600
36,Indre,46.438,2.0839,Vigoulant,36160
36,Indre,46.517,1.4744,Vigoux,36170
36,Indre,46.436,2.1218,Vijon,36160
36,Indre,46.844,1.5159,Villedieu-sur-Indre,36320
36,Indre,46.924,1.5896,Villegongis,36110
36,Indre,46.973,1.3558,Villegouin,36500
36,Indre,47.187,1.4597,Villentrois,36600
36,Indre,46.884,1.1988,Villiers,36290
36,Indre,46.907,1.6537,Vineuil,36110
36,Indre,46.819,1.9132,Vouillon,36100
