department_id,department_name,latitude,longitude,locality,postal_code
37,Indre-et-Loire,46.941,0.7347,Abilly,37160
37,Indre-et-Loire,47.452,0.4465,Ambillou,37340
37,Indre-et-Loire,47.391,1.0002,Amboise,37400
37,Indre-et-Loire,47.132,0.3077,Anché,37500
37,Indre-et-Loire,46.968,0.5547,Antogny-le-Tillac,37800
37,Indre-et-Loire,47.276,0.5946,Artannes-sur-Indre,37260
37,Indre-et-Loire,47.067,0.2763,Assay,37120
37,Indre-et-Loire,47.314,0.9022,Athée-sur-Cher,37270
37,Indre-et-Loire,47.522,1.0023,Autrèche,37110
37,Indre-et-Loire,47.554,0.9371,Auzouer-en-Touraine,37110
37,Indre-et-Loire,47.223,0.1875,Avoine,37420
37,Indre-et-Loire,47.183,0.4596,Avon-les-Roches,37220
37,Indre-et-Loire,47.388,0.3029,Avrillé-les-Ponceaux,37340
37,Indre-et-Loire,47.272,0.4694,Azay-le-Rideau,37190
37,Indre-et-Loire,47.334,0.8448,Azay-sur-Cher,37270
37,Indre-et-Loire,47.203,0.9432,Azay-sur-Indre,37310
37,Indre-et-Loire,47.336,0.6013,Ballan-Miré,37510
37,Indre-et-Loire,46.881,0.7748,Barrou,37350
37,Indre-et-Loire,47.128,1.0229,Beaulieu-lès-Loches,37600
37,Indre-et-Loire,47.568,0.6727,Beaumont-Louestault,37360
37,Indre-et-Loire,47.193,0.1862,Beaumont-en-Véron,37420
37,Indre-et-Loire,47.179,1.2043,Beaumont-Village,37460
37,Indre-et-Loire,47.315,0.2174,Benais,37140
37,Indre-et-Loire,47.360,0.5253,Berthenay,37510
37,Indre-et-Loire,47.000,0.9524,Betz-le-Château,37600
37,Indre-et-Loire,47.307,0.9871,Bléré,37150
37,Indre-et-Loire,46.824,0.9754,Bossay-sur-Claise,37290
37,Indre-et-Loire,47.112,0.7332,Bossée,37240
37,Indre-et-Loire,47.594,0.8443,Le Boulay,37110
37,Indre-et-Loire,47.310,0.1742,Bourgueil,37140
37,Indre-et-Loire,47.068,0.7310,Bournan,37240
37,Indre-et-Loire,46.848,0.8923,Boussay,37290
37,Indre-et-Loire,46.999,0.4075,Braslou,37120
37,Indre-et-Loire,46.982,0.3286,Braye-sous-Faye,37120
37,Indre-et-Loire,47.559,0.2608,Braye-sur-Maulne,37330
37,Indre-et-Loire,47.560,0.4076,Brèches,37330
37,Indre-et-Loire,47.289,0.3615,Bréhémont,37130
37,Indre-et-Loire,47.036,1.0791,Bridoré,37600
37,Indre-et-Loire,47.096,0.3876,Brizay,37220
37,Indre-et-Loire,47.630,0.5525,Bueil-en-Touraine,37370
37,Indre-et-Loire,47.202,0.0740,Candes-Saint-Martin,37500
37,Indre-et-Loire,47.488,1.0602,Cangey,37530
37,Indre-et-Loire,46.948,0.8994,La Celle-Guenand,37350
37,Indre-et-Loire,47.020,0.6156,La Celle-Saint-Avant,37160
37,Indre-et-Loire,47.253,1.1815,Céré-la-Ronde,37460
37,Indre-et-Loire,47.503,0.6848,Cerelles,37390
37,Indre-et-Loire,46.838,0.8262,Chambon,37290
37,Indre-et-Loire,47.172,0.9687,Chambourg-sur-Indre,37310
37,Indre-et-Loire,47.331,0.7168,Chambray-lès-Tours,37170
37,Indre-et-Loire,47.056,0.3279,Champigny-sur-Veude,37120
37,Indre-et-Loire,47.449,0.8805,Chançay,37210
37,Indre-et-Loire,47.140,0.9396,Chanceaux-près-Loches,37600
37,Indre-et-Loire,47.478,0.7032,Chanceaux-sur-Choisille,37390
37,Indre-et-Loire,47.477,0.2530,Channay-sur-Lathan,37330
37,Indre-et-Loire,47.313,0.4178,La Chapelle-aux-Naux,37130
37,Indre-et-Loire,47.084,0.7846,La Chapelle-Blanche-Saint-Martin,37240
37,Indre-et-Loire,47.250,0.2153,La Chapelle-sur-Loire,37140
37,Indre-et-Loire,47.468,0.5951,Charentilly,37390
37,Indre-et-Loire,47.431,1.0412,Chargé,37530
37,Indre-et-Loire,46.916,0.9908,Charnizay,37290
37,Indre-et-Loire,47.527,0.3296,Château-la-Vallière,37330
37,Indre-et-Loire,47.592,0.9097,Château-Renault,37110
37,Indre-et-Loire,46.876,0.8518,Chaumussay,37350
37,Indre-et-Loire,47.023,0.3515,Chaveignes,37120
37,Indre-et-Loire,47.222,0.9917,Chédigny,37310
37,Indre-et-Loire,47.240,0.4227,Cheillé,37190
37,Indre-et-Loire,47.659,0.6681,Chemillé-sur-Dême,37370
37,Indre-et-Loire,47.153,1.1587,Chemillé-sur-Indrois,37460
37,Indre-et-Loire,47.339,1.0703,Chenonceaux,37150
37,Indre-et-Loire,47.066,0.4396,Chezelles,37220
37,Indre-et-Loire,47.172,0.2450,Chinon,37500
37,Indre-et-Loire,47.349,1.0960,Chisseaux,37150
37,Indre-et-Loire,47.245,0.1091,Chouzé-sur-Loire,37140
37,Indre-et-Loire,47.265,0.9432,Cigogné,37310
37,Indre-et-Loire,47.157,0.1761,Cinais,37500
37,Indre-et-Loire,47.353,0.4533,Cinq-Mars-la-Pile,37130
37,Indre-et-Loire,47.051,0.8731,Ciran,37240
37,Indre-et-Loire,47.339,1.0408,Civray-de-Touraine,37150
37,Indre-et-Loire,47.036,0.7127,Civray-sur-Esves,37160
37,Indre-et-Loire,47.445,0.3789,Cléré-les-Pins,37340
37,Indre-et-Loire,47.367,0.2359,Continvoir,37340
37,Indre-et-Loire,47.259,0.8458,Cormery,37320
37,Indre-et-Loire,47.553,0.3603,Couesmes,37330
37,Indre-et-Loire,47.249,0.8845,Courçay,37310
37,Indre-et-Loire,47.489,0.3332,Courcelles-de-Touraine,37330
37,Indre-et-Loire,47.030,0.3995,Courcoué,37120
37,Indre-et-Loire,47.167,0.0772,Couziers,37500
37,Indre-et-Loire,47.168,0.3416,Cravant-les-Côteaux,37500
37,Indre-et-Loire,47.166,0.4943,Crissay-sur-Manse,37220
37,Indre-et-Loire,47.348,0.9923,La Croix-en-Touraine,37150
37,Indre-et-Loire,47.538,0.8226,Crotelles,37380
37,Indre-et-Loire,47.131,0.4692,Crouzilles,37220
37,Indre-et-Loire,47.019,0.7689,Cussay,37240
37,Indre-et-Loire,47.549,1.0468,Dame-Marie-les-Bois,37110
37,Indre-et-Loire,47.353,0.9560,Dierre,37150
37,Indre-et-Loire,47.164,0.8905,Dolus-le-Sec,37310
37,Indre-et-Loire,47.066,0.6341,Draché,37800
37,Indre-et-Loire,47.297,0.5343,Druye,37190
37,Indre-et-Loire,47.276,1.1234,Épeigné-les-Bois,37150
37,Indre-et-Loire,47.675,0.6178,Épeigné-sur-Dême,37370
37,Indre-et-Loire,47.342,0.2979,Les Essards,37130
37,Indre-et-Loire,47.032,0.9039,Esves-le-Moutier,37240
37,Indre-et-Loire,47.293,0.7906,Esvres,37320
37,Indre-et-Loire,46.952,0.3431,Faye-la-Vineuse,37120
37,Indre-et-Loire,47.623,0.7563,La Ferrière,37110
37,Indre-et-Loire,46.996,0.8740,Ferrière-Larçon,37350
37,Indre-et-Loire,47.145,1.0484,Ferrière-sur-Beaulieu,37600
37,Indre-et-Loire,47.411,0.6032,Fondettes,37230
37,Indre-et-Loire,47.309,1.0784,Francueil,37150
37,Indre-et-Loire,47.184,1.1088,Genillé,37460
37,Indre-et-Loire,47.389,0.1878,Gizeux,37340
37,Indre-et-Loire,46.918,0.8163,Le Grand-Pressigny,37350
37,Indre-et-Loire,46.893,0.7254,La Guerche,37350
37,Indre-et-Loire,46.994,0.6969,Descartes,37160
37,Indre-et-Loire,47.668,0.7601,Les Hermites,37110
37,Indre-et-Loire,47.423,0.2833,Hommes,37340
37,Indre-et-Loire,47.227,0.2550,Huismes,37420
37,Indre-et-Loire,47.122,0.4230,L'Île-Bouchard,37220
37,Indre-et-Loire,47.298,0.2718,Ingrandes-de-Touraine,37140
37,Indre-et-Loire,46.954,0.4220,Jaulnay,37120
37,Indre-et-Loire,47.333,0.6545,Joué-lès-Tours,37300
37,Indre-et-Loire,47.349,0.3674,Langeais,37130
37,Indre-et-Loire,47.352,0.7760,Larçay,37270
37,Indre-et-Loire,47.093,0.3349,Lémeré,37120
37,Indre-et-Loire,47.139,0.1106,Lerné,37500
37,Indre-et-Loire,47.228,1.1089,Le Liège,37460
37,Indre-et-Loire,47.294,0.4174,Lignières-de-Touraine,37130
37,Indre-et-Loire,47.108,0.2720,Ligré,37500
37,Indre-et-Loire,47.042,0.8173,Ligueil,37240
37,Indre-et-Loire,47.455,1.0313,Limeray,37530
37,Indre-et-Loire,47.120,0.9741,Loches,37600
37,Indre-et-Loire,47.083,1.2036,Loché-sur-Indrois,37460
37,Indre-et-Loire,47.179,0.7396,Louans,37320
37,Indre-et-Loire,47.606,0.6552,Louestault,37370
37,Indre-et-Loire,47.156,0.7617,Le Louroux,37240
37,Indre-et-Loire,47.527,0.2558,Lublé,37330
37,Indre-et-Loire,47.389,0.9203,Lussault-sur-Loire,37400
37,Indre-et-Loire,47.411,0.5423,Luynes,37230
37,Indre-et-Loire,47.015,0.4686,Luzé,37120
37,Indre-et-Loire,47.265,1.0625,Luzillé,37150
37,Indre-et-Loire,47.051,0.5871,Maillé,37800
37,Indre-et-Loire,47.136,0.8216,Manthelan,37240
37,Indre-et-Loire,47.082,0.2096,Marçay,37500
37,Indre-et-Loire,47.030,0.6597,Marcé-sur-Esves,37160
37,Indre-et-Loire,47.548,0.2245,Marcilly-sur-Maulne,37330
37,Indre-et-Loire,47.046,0.5275,Marcilly-sur-Vienne,37800
37,Indre-et-Loire,46.976,0.4813,Marigny-Marmande,37120
37,Indre-et-Loire,47.623,0.7037,Marray,37370
37,Indre-et-Loire,47.391,0.4294,Mazières-de-Touraine,37130
37,Indre-et-Loire,47.444,0.6245,La Membrolle-sur-Choisille,37390
37,Indre-et-Loire,47.454,0.6594,Mettray,37390
37,Indre-et-Loire,47.498,0.7862,Monnaie,37380
37,Indre-et-Loire,47.283,0.7066,Montbazon,37250
37,Indre-et-Loire,47.643,0.8224,Monthodon,37110
37,Indre-et-Loire,47.382,0.8412,Montlouis-sur-Loire,37270
37,Indre-et-Loire,47.152,1.2016,Montrésor,37460
37,Indre-et-Loire,47.487,0.9521,Montreuil-en-Touraine,37530
37,Indre-et-Loire,47.277,0.6454,Monts,37260
37,Indre-et-Loire,47.563,1.0077,Morand,37110
37,Indre-et-Loire,47.446,1.0983,Mosnes,37530
37,Indre-et-Loire,47.104,0.9003,Mouzay,37600
37,Indre-et-Loire,47.432,0.9468,Nazelles-Négron,37530
37,Indre-et-Loire,47.184,0.5290,Neuil,37190
37,Indre-et-Loire,47.511,0.9163,Neuillé-le-Lierre,37380
37,Indre-et-Loire,47.550,0.5500,Neuillé-Pont-Pierre,37360
37,Indre-et-Loire,46.971,0.7816,Neuilly-le-Brignon,37160
37,Indre-et-Loire,47.614,0.9167,Neuville-sur-Brenne,37110
37,Indre-et-Loire,47.604,0.5898,Neuvy-le-Roi,37370
37,Indre-et-Loire,47.416,0.8971,Noizay,37210
37,Indre-et-Loire,47.454,0.7092,Notre-Dame-d'Oé,37390
37,Indre-et-Loire,47.133,1.3113,Nouans-les-Fontaines,37460
37,Indre-et-Loire,47.033,0.5607,Nouâtre,37800
37,Indre-et-Loire,47.537,0.7404,Nouzilly,37380
37,Indre-et-Loire,47.102,0.5674,Noyant-de-Touraine,37800
37,Indre-et-Loire,47.214,1.2568,Orbigny,37460
37,Indre-et-Loire,47.164,0.4070,Panzoult,37220
37,Indre-et-Loire,47.452,0.7429,Parçay-Meslay,37210
37,Indre-et-Loire,47.091,0.4795,Parçay-sur-Vienne,37220
37,Indre-et-Loire,46.980,0.8273,Paulmy,37350
37,Indre-et-Loire,47.453,0.5180,Pernay,37230
37,Indre-et-Loire,47.092,1.0080,Perrusson,37600
37,Indre-et-Loire,46.909,0.9171,Le Petit-Pressigny,37350
37,Indre-et-Loire,47.443,0.9873,Pocé-sur-Cisse,37530
37,Indre-et-Loire,47.264,0.5642,Pont-de-Ruan,37260
37,Indre-et-Loire,47.014,0.5380,Ports,37800
37,Indre-et-Loire,47.082,0.5469,Pouzay,37800
37,Indre-et-Loire,46.850,0.9305,Preuilly-sur-Claise,37290
37,Indre-et-Loire,46.989,0.5486,Pussigny,37800
37,Indre-et-Loire,46.974,0.3947,Razines,37120
37,Indre-et-Loire,47.222,0.9164,Reignac-sur-Indre,37310
37,Indre-et-Loire,47.286,0.2355,Restigné,37140
37,Indre-et-Loire,47.485,0.8721,Reugny,37380
37,Indre-et-Loire,47.381,0.6375,La Riche,37520
37,Indre-et-Loire,47.014,0.3156,Richelieu,37120
37,Indre-et-Loire,47.251,0.3051,Rigny-Ussé,37420
37,Indre-et-Loire,47.446,0.2189,Rillé,37340
37,Indre-et-Loire,47.055,0.4992,Rilly-sur-Vienne,37220
37,Indre-et-Loire,47.251,0.3623,Rivarennes,37190
37,Indre-et-Loire,47.144,0.2662,Rivière,37500
37,Indre-et-Loire,47.128,0.2135,La Roche-Clermault,37500
37,Indre-et-Loire,47.429,0.7609,Rochecorbon,37210
37,Indre-et-Loire,47.531,0.6474,Rouziers-de-Touraine,37360
37,Indre-et-Loire,47.236,0.5382,Saché,37190
37,Indre-et-Loire,47.495,0.6310,Saint-Antoine-du-Rocher,37360
37,Indre-et-Loire,47.618,0.3970,Saint-Aubin-le-Dépeint,37370
37,Indre-et-Loire,47.357,0.7375,Saint-Avertin,37550
37,Indre-et-Loire,47.174,0.8393,Saint-Bauld,37310
37,Indre-et-Loire,47.212,0.3219,Saint-Benoît-la-Forêt,37500
37,Indre-et-Loire,47.224,0.7582,Saint-Branchs,37320
37,Indre-et-Loire,47.156,0.6766,Sainte-Catherine-de-Fierbois,37800
37,Indre-et-Loire,47.623,0.4731,Saint-Christophe-sur-le-Nais,37370
37,Indre-et-Loire,47.418,0.6578,Saint-Cyr-sur-Loire,37540
37,Indre-et-Loire,47.152,0.5786,Saint-Épain,37800
37,Indre-et-Loire,47.392,0.4988,Saint-Étienne-de-Chigny,37230
37,Indre-et-Loire,46.971,1.0212,Saint-Flovier,37600
37,Indre-et-Loire,47.372,0.5893,Saint-Genouph,37510
37,Indre-et-Loire,47.180,0.1105,Saint-Germain-sur-Vienne,37500
37,Indre-et-Loire,47.057,1.1325,Saint-Hippolyte,37600
37,Indre-et-Loire,47.084,1.0550,Saint-Jean-Saint-Germain,37600
37,Indre-et-Loire,47.513,0.2716,Saint-Laurent-de-Lin,37330
37,Indre-et-Loire,47.585,0.7706,Saint-Laurent-en-Gâtines,37380
37,Indre-et-Loire,47.361,0.9099,Saint-Martin-le-Beau,37270
37,Indre-et-Loire,47.115,0.6385,Sainte-Maure-de-Touraine,37800
37,Indre-et-Loire,47.317,0.3265,Saint-Michel-sur-Loire,37130
37,Indre-et-Loire,47.296,0.1303,Saint-Nicolas-de-Bourgueil,37140
37,Indre-et-Loire,47.584,1.0342,Saint-Nicolas-des-Motets,37110
37,Indre-et-Loire,47.479,1.0019,Saint-Ouen-les-Vignes,37530
37,Indre-et-Loire,47.581,0.4666,Saint-Paterne-Racan,37370
37,Indre-et-Loire,47.290,0.3010,Coteaux-sur-Loire,37130
37,Indre-et-Loire,47.388,0.7380,Saint-Pierre-des-Corps,37700
37,Indre-et-Loire,47.208,1.0367,Saint-Quentin-sur-Indrois,37310
37,Indre-et-Loire,47.409,1.0407,Saint-Règle,37530
37,Indre-et-Loire,47.446,0.5740,Saint-Roch,37390
37,Indre-et-Loire,47.056,0.9532,Saint-Senoch,37600
37,Indre-et-Loire,47.598,0.9590,Saunay,37110
37,Indre-et-Loire,47.449,0.3266,Savigné-sur-Lathan,37340
37,Indre-et-Loire,47.211,0.1301,Savigny-en-Véron,37420
37,Indre-et-Loire,47.346,0.5587,Savonnières,37510
37,Indre-et-Loire,47.125,0.3499,Sazilly,37220
37,Indre-et-Loire,47.503,0.5648,Semblançay,37360
37,Indre-et-Loire,47.112,1.1063,Sennevières,37600
37,Indre-et-Loire,47.080,0.6843,Sepmes,37800
37,Indre-et-Loire,47.126,0.1607,Seuilly,37500
37,Indre-et-Loire,47.513,0.4773,Sonzay,37360
37,Indre-et-Loire,47.231,0.6866,Sorigny,37250
37,Indre-et-Loire,47.515,0.4026,Souvigné,37330
37,Indre-et-Loire,47.398,1.0841,Souvigny-de-Touraine,37530
37,Indre-et-Loire,47.270,0.9898,Sublaines,37310
37,Indre-et-Loire,47.207,0.8295,Tauxigny-Saint-Bauld,37310
37,Indre-et-Loire,47.117,0.3857,Tavant,37220
37,Indre-et-Loire,47.099,0.4335,Theneuil,37220
37,Indre-et-Loire,47.219,0.6010,Thilouze,37260
37,Indre-et-Loire,47.164,0.1419,Thizay,37500
37,Indre-et-Loire,46.761,0.9465,Tournon-Saint-Pierre,37290
37,Indre-et-Loire,47.061,0.3955,La Tour-Saint-Gelin,37120
37,Indre-et-Loire,47.398,0.6965,Tours,37000
37,Indre-et-Loire,47.398,0.6965,Tours,37100
37,Indre-et-Loire,47.398,0.6965,Tours,37200
37,Indre-et-Loire,47.111,0.5110,Trogues,37220
37,Indre-et-Loire,47.285,0.8516,Truyes,37320
37,Indre-et-Loire,47.306,0.4736,Vallères,37190
37,Indre-et-Loire,47.070,0.9127,Varennes,37600
37,Indre-et-Loire,47.288,0.7299,Veigné,37250
37,Indre-et-Loire,47.352,0.8102,Véretz,37270
37,Indre-et-Loire,47.042,0.4573,Verneuil-le-Château,37120
37,Indre-et-Loire,47.035,1.0338,Verneuil-sur-Indre,37600
37,Indre-et-Loire,47.436,0.8405,Vernou-sur-Brenne,37210
37,Indre-et-Loire,47.220,0.4964,Villaines-les-Rochers,37190
37,Indre-et-Loire,47.331,0.5003,Villandry,37510
37,Indre-et-Loire,47.391,0.7745,La Ville-aux-Dames,37700
37,Indre-et-Loire,47.637,0.5234,Villebourg,37370
37,Indre-et-Loire,47.043,1.2539,Villedômain,37460
37,Indre-et-Loire,47.551,0.8699,Villedômer,37110
37,Indre-et-Loire,47.135,1.2361,Villeloin-Coulangé,37460
37,Indre-et-Loire,47.197,0.6384,Villeperdue,37260
37,Indre-et-Loire,47.583,0.2834,Villiers-au-Bouin,37330
37,Indre-et-Loire,47.094,0.8468,Vou,37240
37,Indre-et-Loire,47.427,0.8036,Vouvray,37210
37,Indre-et-Loire,46.790,0.8762,Yzeures-sur-Creuse,37290
