department_id,department_name,latitude,longitude,locality,postal_code
47,Lot-et-Garonne,44.202,0.6255,Agen,47000
47,Lot-et-Garonne,44.489,0.3404,Agmé,47350
47,Lot-et-Garonne,44.640,0.3827,Agnac,47800
47,Lot-et-Garonne,44.301,0.3582,Aiguillon,47190
47,Lot-et-Garonne,44.623,0.2865,Allemans-du-Dropt,47800
47,Lot-et-Garonne,44.381,0.6285,Allez-et-Cazeneuve,47110
47,Lot-et-Garonne,44.193,-0.080,Allons,47420
47,Lot-et-Garonne,44.230,0.2463,Ambrus,47160
47,Lot-et-Garonne,44.102,0.2855,Andiran,47170
47,Lot-et-Garonne,44.356,-0.002,Antagnac,47700
47,Lot-et-Garonne,44.373,0.9552,Anthé,47370
47,Lot-et-Garonne,44.286,0.1704,Anzex,47700
47,Lot-et-Garonne,44.384,0.0666,Argenton,47250
47,Lot-et-Garonne,44.555,0.3899,Armillac,47800
47,Lot-et-Garonne,44.064,0.6580,Astaffort,47220
47,Lot-et-Garonne,44.137,0.5682,Aubiac,47310
47,Lot-et-Garonne,44.340,0.8147,Auradou,47140
47,Lot-et-Garonne,44.654,0.2435,Auriac-sur-Dropt,47120
47,Lot-et-Garonne,44.258,0.7019,Bajamont,47480
47,Lot-et-Garonne,44.682,0.1494,Baleyssagues,47120
47,Lot-et-Garonne,44.158,0.2441,Barbaste,47230
47,Lot-et-Garonne,44.267,0.4265,Bazens,47130
47,Lot-et-Garonne,44.511,0.6234,Beaugas,47290
47,Lot-et-Garonne,44.533,0.1449,Beaupuy,47200
47,Lot-et-Garonne,44.274,0.8964,Beauville,47470
47,Lot-et-Garonne,44.313,0.0325,Beauziac,47700
47,Lot-et-Garonne,44.410,0.6697,Bias,47300
47,Lot-et-Garonne,44.487,0.2597,Birac-sur-Trec,47200
47,Lot-et-Garonne,44.609,0.9604,Blanquefort-sur-Briolance,47500
47,Lot-et-Garonne,44.294,0.8591,Blaymont,47470
47,Lot-et-Garonne,44.170,0.6467,Boé,47550
47,Lot-et-Garonne,44.208,0.6890,Bon-Encontre,47240
47,Lot-et-Garonne,44.543,0.6774,Boudy-de-Beauregard,47290
47,Lot-et-Garonne,44.403,0.1004,Bouglon,47250
47,Lot-et-Garonne,44.619,0.4197,Bourgougnague,47410
47,Lot-et-Garonne,44.425,0.9726,Bourlens,47370
47,Lot-et-Garonne,44.631,0.6769,Bournel,47210
47,Lot-et-Garonne,44.332,0.4030,Bourran,47320
47,Lot-et-Garonne,44.154,0.0821,Boussès,47420
47,Lot-et-Garonne,44.201,0.5575,Brax,47310
47,Lot-et-Garonne,44.206,0.4054,Bruch,47130
47,Lot-et-Garonne,44.450,0.4528,Brugnac,47260
47,Lot-et-Garonne,44.253,0.3021,Buzet-sur-Baïse,47160
47,Lot-et-Garonne,44.660,0.5624,Cahuzac,47330
47,Lot-et-Garonne,44.136,0.4170,Calignac,47600
47,Lot-et-Garonne,44.373,0.2255,Calonges,47430
47,Lot-et-Garonne,44.596,0.2778,Cambes,47350
47,Lot-et-Garonne,44.547,0.6278,Cancon,47290
47,Lot-et-Garonne,44.448,0.6218,Casseneuil,47440
47,Lot-et-Garonne,44.300,0.7811,Cassignas,47340
47,Lot-et-Garonne,44.188,0.7107,Castelculier,47240
47,Lot-et-Garonne,44.311,0.0845,Casteljaloux,47700
47,Lot-et-Garonne,44.313,0.6844,Castella,47340
47,Lot-et-Garonne,44.407,0.4813,Castelmoron-sur-Lot,47260
47,Lot-et-Garonne,44.502,0.6829,Castelnaud-de-Gratecambe,47290
47,Lot-et-Garonne,44.580,0.1400,Castelnau-sur-Gupie,47180
47,Lot-et-Garonne,44.639,0.6057,Castillonnès,47330
47,Lot-et-Garonne,44.257,0.2169,Caubeyres,47160
47,Lot-et-Garonne,44.592,0.1841,Caubon-Saint-Sauveur,47120
47,Lot-et-Garonne,44.118,0.7372,Caudecoste,47220
47,Lot-et-Garonne,44.427,0.1802,Caumont-sur-Garonne,47430
47,Lot-et-Garonne,44.274,0.8215,Cauzac,47470
47,Lot-et-Garonne,44.682,0.6415,Cavarc,47330
47,Lot-et-Garonne,44.404,0.9300,Cazideroque,47370
47,Lot-et-Garonne,44.371,0.3857,Clairac,47320
47,Lot-et-Garonne,44.248,0.4562,Clermont-Dessous,47130
47,Lot-et-Garonne,44.141,0.8485,Clermont-Soubiran,47270
47,Lot-et-Garonne,44.453,0.0335,Cocumont,47250
47,Lot-et-Garonne,44.232,0.5671,Colayrac-Saint-Cirq,47450
47,Lot-et-Garonne,44.487,0.9090,Condezaygues,47500
47,Lot-et-Garonne,44.473,0.4673,Coulx,47260
47,Lot-et-Garonne,44.376,1.0405,Courbiac,47370
47,Lot-et-Garonne,44.325,0.5931,Cours,47360
47,Lot-et-Garonne,44.520,0.0682,Couthures-sur-Garonne,47180
47,Lot-et-Garonne,44.290,0.6930,La Croix-Blanche,47340
47,Lot-et-Garonne,44.081,0.7164,Cuq,47220
47,Lot-et-Garonne,44.547,0.9487,Cuzorn,47500
47,Lot-et-Garonne,44.288,0.2751,Damazan,47160
47,Lot-et-Garonne,44.387,0.8892,Dausse,47140
47,Lot-et-Garonne,44.608,0.8080,Dévillac,47210
47,Lot-et-Garonne,44.356,0.5916,Dolmayrac,47110
47,Lot-et-Garonne,44.240,0.8530,Dondas,47470
47,Lot-et-Garonne,44.664,0.6797,Doudrac,47210
47,Lot-et-Garonne,44.636,0.5515,Douzains,47330
47,Lot-et-Garonne,44.157,0.1627,Durance,47420
47,Lot-et-Garonne,44.676,0.2014,Duras,47120
47,Lot-et-Garonne,44.252,0.9001,Engayrac,47470
47,Lot-et-Garonne,44.552,0.2317,Escassefort,47350
47,Lot-et-Garonne,44.715,0.1504,Esclottes,47120
47,Lot-et-Garonne,44.173,0.3827,Espiens,47600
47,Lot-et-Garonne,44.169,0.5773,Estillac,47310
47,Lot-et-Garonne,44.105,0.6892,Fals,47220
47,Lot-et-Garonne,44.230,0.1576,Fargues-sur-Ourbise,47700
47,Lot-et-Garonne,44.446,0.2443,Fauguerolles,47400
47,Lot-et-Garonne,44.425,0.2908,Fauillet,47400
47,Lot-et-Garonne,44.642,0.6388,Ferrensac,47330
47,Lot-et-Garonne,44.217,0.3609,Feugarolles,47230
47,Lot-et-Garonne,44.099,0.4235,Fieux,47600
47,Lot-et-Garonne,44.405,0.5298,Fongrave,47260
47,Lot-et-Garonne,44.253,0.6369,Foulayronnes,47510
47,Lot-et-Garonne,44.455,0.1545,Fourques-sur-Garonne,47200
47,Lot-et-Garonne,44.067,0.4282,Francescas,47600
47,Lot-et-Garonne,44.083,0.3349,Fréchou,47600
47,Lot-et-Garonne,44.276,0.4631,Frégimont,47360
47,Lot-et-Garonne,44.314,0.8225,Frespech,47140
47,Lot-et-Garonne,44.508,0.9795,Fumel,47500
47,Lot-et-Garonne,44.299,0.4114,Galapian,47190
47,Lot-et-Garonne,44.491,0.1160,Gaujac,47200
47,Lot-et-Garonne,44.568,0.8932,Gavaudun,47150
47,Lot-et-Garonne,44.461,0.2921,Gontaud-de-Nogaret,47400
47,Lot-et-Garonne,44.367,0.4702,Granges-sur-Lot,47260
47,Lot-et-Garonne,44.418,0.3949,Grateloup-Saint-Gayrand,47400
47,Lot-et-Garonne,44.418,0.3949,Grateloup-Saint-Gayrand,47400
47,Lot-et-Garonne,44.156,0.8655,Grayssas,47270
47,Lot-et-Garonne,44.380,0.1258,Grézet-Cavagnan,47250
47,Lot-et-Garonne,44.412,0.0588,Guérin,47250
47,Lot-et-Garonne,44.341,0.7734,Hautefage-la-Tour,47340
47,Lot-et-Garonne,44.460,0.3470,Hautesvignes,47400
47,Lot-et-Garonne,44.192,0.0420,Houeillès,47420
47,Lot-et-Garonne,44.539,0.0488,Jusix,47180
47,Lot-et-Garonne,44.346,0.1271,Labastide-Castel-Amouroux,47250
47,Lot-et-Garonne,44.489,0.3726,Labretonie,47350
47,Lot-et-Garonne,44.600,0.8988,Lacapelle-Biron,47150
47,Lot-et-Garonne,44.505,0.8233,Lacaussade,47150
47,Lot-et-Garonne,44.319,0.4811,Lacépède,47360
47,Lot-et-Garonne,44.574,0.2596,Lachapelle,47350
47,Lot-et-Garonne,44.353,0.4370,Lafitte-sur-Lot,47320
47,Lot-et-Garonne,44.165,0.6992,Lafox,47240
47,Lot-et-Garonne,44.290,0.3850,Lagarrigue,47190
47,Lot-et-Garonne,44.397,0.2649,Lagruère,47400
47,Lot-et-Garonne,44.568,0.1108,Lagupie,47180
47,Lot-et-Garonne,44.660,0.5236,Lalandusse,47330
47,Lot-et-Garonne,44.070,0.5375,Lamontjoie,47310
47,Lot-et-Garonne,44.023,0.2857,Lannes,47170
47,Lot-et-Garonne,44.023,0.2857,Lannes,47170
47,Lot-et-Garonne,44.408,0.4394,Laparade,47260
47,Lot-et-Garonne,44.545,0.4147,Laperche,47800
47,Lot-et-Garonne,44.117,0.5386,Laplume,47310
47,Lot-et-Garonne,44.277,0.7558,Laroque-Timbaut,47340
47,Lot-et-Garonne,44.074,0.3865,Lasserre,47600
47,Lot-et-Garonne,44.299,0.6086,Laugnac,47360
47,Lot-et-Garonne,44.576,0.7794,Laussou,47150
47,Lot-et-Garonne,44.645,0.4702,Lauzun,47410
47,Lot-et-Garonne,44.182,0.3017,Lavardac,47230
47,Lot-et-Garonne,44.585,0.4138,Lavergne,47800
47,Lot-et-Garonne,44.120,0.6550,Layrac,47390
47,Lot-et-Garonne,44.446,0.6674,Lédat,47300
47,Lot-et-Garonne,44.621,0.2039,Lévignac-de-Guyenne,47120
47,Lot-et-Garonne,44.332,0.1762,Leyritz-Moncassin,47700
47,Lot-et-Garonne,44.462,0.2198,Longueville,47200
47,Lot-et-Garonne,44.733,0.3110,Loubès-Bernac,47120
47,Lot-et-Garonne,44.590,0.6242,Lougratte,47290
47,Lot-et-Garonne,44.262,0.5174,Lusignan-Petit,47360
47,Lot-et-Garonne,44.276,0.5812,Madaillan,47360
47,Lot-et-Garonne,44.480,0.0759,Marcellus,47200
47,Lot-et-Garonne,44.505,0.1721,Marmande,47200
47,Lot-et-Garonne,44.093,0.5899,Marmont-Pachas,47220
47,Lot-et-Garonne,44.399,0.2002,Le Mas-d'Agenais,47430
47,Lot-et-Garonne,44.406,1.0421,Masquières,47370
47,Lot-et-Garonne,44.317,0.8563,Massels,47140
47,Lot-et-Garonne,44.340,0.8706,Massoulès,47140
47,Lot-et-Garonne,44.560,0.1756,Mauvezin-sur-Gupie,47200
47,Lot-et-Garonne,44.655,0.7076,Mazières-Naresse,47210
47,Lot-et-Garonne,44.506,0.0288,Meilhan-sur-Garonne,47180
47,Lot-et-Garonne,44.060,0.2670,Mézin,47170
47,Lot-et-Garonne,44.583,0.3564,Miramont-de-Guyenne,47800
47,Lot-et-Garonne,44.139,0.6084,Moirax,47310
47,Lot-et-Garonne,44.538,0.5253,Monbahus,47290
47,Lot-et-Garonne,44.313,0.7392,Monbalen,47340
47,Lot-et-Garonne,44.144,0.4969,Moncaut,47310
47,Lot-et-Garonne,44.444,0.5206,Monclar,47380
47,Lot-et-Garonne,44.041,0.3676,Moncrabeau,47600
47,Lot-et-Garonne,44.520,0.7580,Monflanquin,47150
47,Lot-et-Garonne,44.209,0.2957,Mongaillard,47230
47,Lot-et-Garonne,44.332,0.3058,Monheurt,47160
47,Lot-et-Garonne,44.484,0.8782,Monségur,47150
47,Lot-et-Garonne,44.501,0.9306,Monsempron-Libos,47500
47,Lot-et-Garonne,44.165,0.4570,Montagnac-sur-Auvignon,47600
47,Lot-et-Garonne,44.537,0.8473,Montagnac-sur-Lède,47150
47,Lot-et-Garonne,44.494,0.5185,Montastruc,47380
47,Lot-et-Garonne,44.613,0.5810,Montauriol,47330
47,Lot-et-Garonne,44.605,0.6824,Montaut,47210
47,Lot-et-Garonne,44.468,0.9832,Montayral,47500
47,Lot-et-Garonne,44.210,0.4519,Montesquieu,47130
47,Lot-et-Garonne,44.613,0.2518,Monteton,47120
47,Lot-et-Garonne,44.569,0.4726,Montignac-de-Lauzun,47800
47,Lot-et-Garonne,44.548,0.3520,Montignac-Toupinerie,47350
47,Lot-et-Garonne,44.342,0.5344,Montpezat,47360
47,Lot-et-Garonne,44.462,0.0955,Montpouillan,47200
47,Lot-et-Garonne,44.565,0.5466,Monviel,47290
47,Lot-et-Garonne,44.543,0.5836,Moulinet,47290
47,Lot-et-Garonne,44.642,0.3013,Moustier,47800
47,Lot-et-Garonne,44.132,0.3433,Nérac,47600
47,Lot-et-Garonne,44.332,0.3321,Nicole,47190
47,Lot-et-Garonne,44.079,0.4699,Nomdieu,47600
47,Lot-et-Garonne,44.475,0.6477,Pailloles,47440
47,Lot-et-Garonne,44.668,0.2682,Pardaillan,47120
47,Lot-et-Garonne,44.661,0.8160,Parranquet,47210
47,Lot-et-Garonne,44.192,0.5946,Le Passage,47520
47,Lot-et-Garonne,44.575,0.8261,Paulhiac,47150
47,Lot-et-Garonne,44.379,0.8394,Penne-d'Agenais,47140
47,Lot-et-Garonne,44.576,0.3048,Peyrière,47350
47,Lot-et-Garonne,44.272,0.0001,Pindères,47700
47,Lot-et-Garonne,44.463,0.5682,Pinel-Hauterive,47380
47,Lot-et-Garonne,44.463,0.5682,Pinel-Hauterive,47380
47,Lot-et-Garonne,44.197,0.2071,Pompiey,47230
47,Lot-et-Garonne,44.240,0.0580,Pompogne,47420
47,Lot-et-Garonne,44.235,0.6758,Pont-du-Casse,47480
47,Lot-et-Garonne,44.260,0.3744,Port-Sainte-Marie,47130
47,Lot-et-Garonne,44.041,0.2003,Poudenas,47170
47,Lot-et-Garonne,44.352,0.0746,Poussignac,47700
47,Lot-et-Garonne,44.294,0.5142,Prayssas,47360
47,Lot-et-Garonne,44.329,0.2605,Puch-d'Agenais,47160
47,Lot-et-Garonne,44.370,0.6984,Pujols,47300
47,Lot-et-Garonne,44.513,0.3147,Puymiclan,47350
47,Lot-et-Garonne,44.187,0.8055,Puymirol,47270
47,Lot-et-Garonne,44.599,0.3193,Puysserampion,47800
47,Lot-et-Garonne,44.669,0.7693,Rayet,47210
47,Lot-et-Garonne,44.352,0.2307,Razimet,47160
47,Lot-et-Garonne,44.100,0.2101,Réaup-Lisse,47170
47,Lot-et-Garonne,44.100,0.2101,Réaup-Lisse,47170
47,Lot-et-Garonne,44.283,0.1182,La Réunion,47700
47,Lot-et-Garonne,44.655,0.7381,Rives,47210
47,Lot-et-Garonne,44.417,0.0188,Romestaing,47250
47,Lot-et-Garonne,44.176,0.5572,Roquefort,47310
47,Lot-et-Garonne,44.625,0.3420,Roumagne,47800
47,Lot-et-Garonne,44.368,0.0368,Ruffiac,47700
47,Lot-et-Garonne,44.340,0.7202,Saint-Antoine-de-Ficalba,47340
47,Lot-et-Garonne,44.728,0.2719,Saint-Astier,47120
47,Lot-et-Garonne,44.475,0.8399,Saint-Aubin,47150
47,Lot-et-Garonne,44.576,0.2221,Saint-Avit,47350
47,Lot-et-Garonne,44.524,0.3705,Saint-Barthélemy-d'Agenais,47350
47,Lot-et-Garonne,44.530,0.1031,Sainte-Bazeille,47180
47,Lot-et-Garonne,44.215,0.7559,Saint-Caprais-de-Lerm,47270
47,Lot-et-Garonne,44.608,0.4782,Saint-Colomb-de-Lauzun,47410
47,Lot-et-Garonne,44.695,0.1195,Sainte-Colombe-de-Duras,47120
47,Lot-et-Garonne,44.357,0.6571,Sainte-Colombe-de-Villeneuve,47300
47,Lot-et-Garonne,44.186,0.5163,Sainte-Colombe-en-Bruilhois,47310
47,Lot-et-Garonne,44.413,0.5590,Saint-Étienne-de-Fougères,47380
47,Lot-et-Garonne,44.612,0.7621,Saint-Étienne-de-Villeréal,47210
47,Lot-et-Garonne,44.578,0.7084,Saint-Eutrope-de-Born,47210
47,Lot-et-Garonne,44.564,0.9983,Saint-Front-sur-Lémance,47500
47,Lot-et-Garonne,44.367,0.1617,Sainte-Gemme-Martaillac,47250
47,Lot-et-Garonne,44.622,0.1571,Saint-Géraud,47120
47,Lot-et-Garonne,44.247,0.5326,Saint-Hilaire-de-Lusignan,47450
47,Lot-et-Garonne,44.689,0.3027,Saint-Jean-de-Duras,47120
47,Lot-et-Garonne,44.157,0.7402,Saint-Jean-de-Thurac,47270
47,Lot-et-Garonne,44.237,0.4033,Saint-Laurent,47130
47,Lot-et-Garonne,44.300,0.3138,Saint-Léger,47160
47,Lot-et-Garonne,44.287,0.2399,Saint-Léon,47160
47,Lot-et-Garonne,44.405,0.5998,Sainte-Livrade-sur-Lot,47110
47,Lot-et-Garonne,44.415,0.1483,Sainte-Marthe,47430
47,Lot-et-Garonne,44.331,-0.025,Saint-Martin-Curton,47700
47,Lot-et-Garonne,44.228,0.8183,Saint-Martin-de-Beauville,47270
47,Lot-et-Garonne,44.640,0.8134,Saint-Martin-de-Villeréal,47210
47,Lot-et-Garonne,44.570,0.0914,Saint-Martin-Petit,47180
47,Lot-et-Garonne,44.009,0.1543,Sainte-Maure-de-Peyriac,47170
47,Lot-et-Garonne,44.581,0.5738,Saint-Maurice-de-Lestapel,47290
47,Lot-et-Garonne,44.215,0.8936,Saint-Maurin,47270
47,Lot-et-Garonne,44.131,0.7565,Saint-Nicolas-de-la-Balerme,47220
47,Lot-et-Garonne,44.471,0.1991,Saint-Pardoux-du-Breuil,47200
47,Lot-et-Garonne,44.612,0.3781,Saint-Pardoux-Isaac,47800
47,Lot-et-Garonne,44.485,0.6025,Saint-Pastour,47290
47,Lot-et-Garonne,44.002,0.0935,Saint-Pé-Saint-Simon,47170
47,Lot-et-Garonne,44.258,0.2701,Saint-Pierre-de-Buzet,47160
47,Lot-et-Garonne,44.180,0.7520,Saint-Pierre-de-Clairac,47270
47,Lot-et-Garonne,44.648,0.2065,Saint-Pierre-sur-Dropt,47120
47,Lot-et-Garonne,44.681,0.5991,Saint-Quentin-du-Dropt,47330
47,Lot-et-Garonne,44.250,0.7897,Saint-Robert,47340
47,Lot-et-Garonne,44.153,0.7768,Saint-Romain-le-Noble,47270
47,Lot-et-Garonne,44.300,0.4499,Saint-Salvy,47360
47,Lot-et-Garonne,44.338,0.4898,Saint-Sardos,47360
47,Lot-et-Garonne,44.485,-0.005,Saint-Sauveur-de-Meilhan,47180
47,Lot-et-Garonne,44.706,0.2389,Saint-Sernin,47120
47,Lot-et-Garonne,44.128,0.7832,Saint-Sixte,47220
47,Lot-et-Garonne,44.417,0.8087,Saint-Sylvestre-sur-Lot,47140
47,Lot-et-Garonne,44.164,0.8268,Saint-Urcisse,47270
47,Lot-et-Garonne,44.092,0.4997,Saint-Vincent-de-Lamontjoie,47310
47,Lot-et-Garonne,44.467,0.9336,Saint-Vite,47500
47,Lot-et-Garonne,44.529,0.8900,Salles,47150
47,Lot-et-Garonne,44.434,0.1097,Samazan,47250
47,Lot-et-Garonne,44.232,-0.020,Sauméjan,47420
47,Lot-et-Garonne,44.127,0.4556,Saumont,47600
47,Lot-et-Garonne,44.246,0.7498,Sauvagnas,47340
47,Lot-et-Garonne,44.230,0.7958,La Sauvetat-de-Savères,47270
47,Lot-et-Garonne,44.649,0.3315,La Sauvetat-du-Dropt,47800
47,Lot-et-Garonne,44.481,0.7166,La Sauvetat-sur-Lède,47150
47,Lot-et-Garonne,44.587,1.0379,Sauveterre-la-Lémance,47500
47,Lot-et-Garonne,44.149,0.7000,Sauveterre-Saint-Denis,47220
47,Lot-et-Garonne,44.717,0.1840,Savignac-de-Duras,47120
47,Lot-et-Garonne,44.483,0.7926,Savignac-sur-Leyze,47150
47,Lot-et-Garonne,44.589,0.5319,Ségalas,47410
47,Lot-et-Garonne,44.322,0.6459,Sembas,47360
47,Lot-et-Garonne,44.421,0.2379,Sénestis,47430
47,Lot-et-Garonne,44.615,0.5317,Sérignac-Péboudou,47410
47,Lot-et-Garonne,44.215,0.4941,Sérignac-sur-Garonne,47310
47,Lot-et-Garonne,44.549,0.2922,Seyches,47350
47,Lot-et-Garonne,44.056,0.1255,Sos,47170
47,Lot-et-Garonne,44.056,0.1255,Sos,47170
47,Lot-et-Garonne,44.056,0.1255,Sos,47170
47,Lot-et-Garonne,44.688,0.3365,Soumensac,47120
47,Lot-et-Garonne,44.446,0.2031,Taillebourg,47200
47,Lot-et-Garonne,44.206,0.8360,Tayrac,47270
47,Lot-et-Garonne,44.375,0.5256,Le Temple-sur-Lot,47110
47,Lot-et-Garonne,44.433,1.0157,Thézac,47370
47,Lot-et-Garonne,44.253,0.3309,Thouars-sur-Garonne,47230
47,Lot-et-Garonne,44.519,0.4523,Tombebœuf,47380
47,Lot-et-Garonne,44.383,0.3249,Tonneins,47400
47,Lot-et-Garonne,44.684,0.8063,Tourliac,47210
47,Lot-et-Garonne,44.392,0.9960,Tournon-d'Agenais,47370
47,Lot-et-Garonne,44.510,0.4183,Tourtrès,47380
47,Lot-et-Garonne,44.417,0.8894,Trémons,47140
47,Lot-et-Garonne,44.445,0.8639,Trentels,47140
47,Lot-et-Garonne,44.432,0.3560,Varès,47400
47,Lot-et-Garonne,44.468,0.4040,Verteuil-d'Agenais,47260
47,Lot-et-Garonne,44.212,0.3227,Vianne,47230
47,Lot-et-Garonne,44.525,0.4760,Villebramar,47380
47,Lot-et-Garonne,44.303,0.2120,Villefranche-du-Queyran,47160
47,Lot-et-Garonne,44.743,0.2367,Villeneuve-de-Duras,47120
47,Lot-et-Garonne,44.425,0.7425,Villeneuve-sur-Lot,47300
47,Lot-et-Garonne,44.633,0.7603,Villeréal,47210
47,Lot-et-Garonne,44.371,0.2788,Villeton,47400
47,Lot-et-Garonne,44.511,0.2389,Virazeil,47200
47,Lot-et-Garonne,44.207,0.2565,Xaintrailles,47230
47,Lot-et-Garonne,44.441,0.9274,Saint-Georges,47370
