department_id,department_name,latitude,longitude,locality,postal_code
54,Meurthe-et-Moselle,48.892,6.2655,Abaucourt,54610
54,Meurthe-et-Moselle,49.200,5.8440,Abbéville-lès-Conflans,54800
54,Meurthe-et-Moselle,48.361,5.9825,Aboncourt,54115
54,Meurthe-et-Moselle,49.263,5.7528,Affléville,54800
54,Meurthe-et-Moselle,48.458,6.1653,Affracourt,54740
54,Meurthe-et-Moselle,48.729,6.2355,Agincourt,54770
54,Meurthe-et-Moselle,48.736,6.0192,Aingeray,54460
54,Meurthe-et-Moselle,48.549,5.9208,Allain,54170
54,Meurthe-et-Moselle,49.128,5.7765,Allamont,54800
54,Meurthe-et-Moselle,48.548,5.8146,Allamps,54112
54,Meurthe-et-Moselle,49.510,5.5687,Allondrelle-la-Malmaison,54260
54,Meurthe-et-Moselle,48.754,6.3092,Amance,54770
54,Meurthe-et-Moselle,48.630,6.7844,Amenoncourt,54450
54,Meurthe-et-Moselle,48.533,6.8369,Ancerviller,54450
54,Meurthe-et-Moselle,49.335,5.8819,Anderny,54560
54,Meurthe-et-Moselle,48.767,5.8880,Andilly,54200
54,Meurthe-et-Moselle,48.504,6.9719,Angomont,54540
54,Meurthe-et-Moselle,49.272,5.8647,Anoux,54150
54,Meurthe-et-Moselle,48.812,5.8228,Ansauville,54470
54,Meurthe-et-Moselle,48.603,6.4153,Anthelupt,54110
54,Meurthe-et-Moselle,48.812,6.2982,Armaucourt,54760
54,Meurthe-et-Moselle,49.013,6.0259,Arnaville,54530
54,Meurthe-et-Moselle,48.724,6.5330,Arracourt,54370
54,Meurthe-et-Moselle,48.835,6.2887,Arraye-et-Han,54760
54,Meurthe-et-Moselle,48.660,6.2629,Art-sur-Meurthe,54510
54,Meurthe-et-Moselle,48.660,6.2629,Art-sur-Meurthe,54510
54,Meurthe-et-Moselle,48.717,6.4860,Athienville,54370
54,Meurthe-et-Moselle,48.892,6.1110,Atton,54700
54,Meurthe-et-Moselle,49.211,5.9750,Auboué,54580
54,Meurthe-et-Moselle,49.367,5.8936,Audun-le-Roman,54560
54,Meurthe-et-Moselle,48.608,6.7979,Autrepierre,54450
54,Meurthe-et-Moselle,48.828,6.1077,Autreville-sur-Moselle,54380
54,Meurthe-et-Moselle,48.531,6.1273,Autrey,54160
54,Meurthe-et-Moselle,49.322,5.7381,Avillers,54490
54,Meurthe-et-Moselle,48.771,5.9464,Avrainville,54385
54,Meurthe-et-Moselle,48.642,6.8132,Avricourt,54450
54,Meurthe-et-Moselle,49.294,5.9677,Avril,54150
54,Meurthe-et-Moselle,48.583,6.2293,Azelot,54210
54,Meurthe-et-Moselle,48.497,6.6948,Azerailles,54122
54,Meurthe-et-Moselle,48.449,6.7405,Baccarat,54120
54,Meurthe-et-Moselle,48.449,6.7405,Baccarat,54120
54,Meurthe-et-Moselle,48.449,6.7405,Baccarat,54120
54,Meurthe-et-Moselle,48.494,6.9101,Badonviller,54540
54,Meurthe-et-Moselle,48.557,5.8767,Bagneux,54170
54,Meurthe-et-Moselle,48.436,6.2833,Bainville-aux-Miroirs,54290
54,Meurthe-et-Moselle,48.590,6.0878,Bainville-sur-Madon,54550
54,Meurthe-et-Moselle,48.570,6.8498,Barbas,54450
54,Meurthe-et-Moselle,48.550,6.3557,Barbonville,54360
54,Meurthe-et-Moselle,48.523,5.8520,Barisey-au-Plain,54170
54,Meurthe-et-Moselle,48.545,5.8438,Barisey-la-Côte,54170
54,Meurthe-et-Moselle,49.229,5.8881,Les Baroches,54150
54,Meurthe-et-Moselle,49.229,5.8881,Les Baroches,54150
54,Meurthe-et-Moselle,49.438,5.7507,Baslieux,54620
54,Meurthe-et-Moselle,48.693,6.5270,Bathelémont,54370
54,Meurthe-et-Moselle,49.177,5.9696,Batilly,54980
54,Meurthe-et-Moselle,48.443,5.9848,Battigny,54115
54,Meurthe-et-Moselle,48.670,6.5310,Bauzemont,54370
54,Meurthe-et-Moselle,48.479,6.3213,Bayon,54290
54,Meurthe-et-Moselle,49.015,5.9975,Bayonville-sur-Mad,54890
54,Meurthe-et-Moselle,49.410,5.7659,Bazailles,54620
54,Meurthe-et-Moselle,48.851,5.7882,Beaumont,54470
54,Meurthe-et-Moselle,49.214,5.7424,Béchamps,54800
54,Meurthe-et-Moselle,48.848,6.1870,Belleau,54610
54,Meurthe-et-Moselle,48.848,6.1870,Belleau,54610
54,Meurthe-et-Moselle,48.848,6.1870,Belleau,54610
54,Meurthe-et-Moselle,48.848,6.1870,Belleau,54610
54,Meurthe-et-Moselle,48.848,6.1870,Belleau,54610
54,Meurthe-et-Moselle,48.814,6.0896,Belleville,54940
54,Meurthe-et-Moselle,48.564,6.6619,Bénaménil,54450
54,Meurthe-et-Moselle,48.524,6.2245,Benney,54740
54,Meurthe-et-Moselle,48.851,5.8415,Bernécourt,54470
54,Meurthe-et-Moselle,48.576,7.0161,Bertrambois,54480
54,Meurthe-et-Moselle,48.435,6.8122,Bertrichamps,54120
54,Meurthe-et-Moselle,49.297,5.9097,Bettainvillers,54640
54,Meurthe-et-Moselle,49.436,5.6756,Beuveille,54620
54,Meurthe-et-Moselle,48.378,5.9728,Beuvezin,54115
54,Meurthe-et-Moselle,49.387,5.9190,Beuvillers,54560
54,Meurthe-et-Moselle,48.795,6.3360,Bey-sur-Seille,54760
54,Meurthe-et-Moselle,48.747,6.4727,Bezange-la-Grande,54370
54,Meurthe-et-Moselle,48.848,6.1033,Bezaumont,54380
54,Meurthe-et-Moselle,48.623,5.9252,Bicqueley,54200
54,Meurthe-et-Moselle,48.633,6.5126,Bienville-la-Petite,54300
54,Meurthe-et-Moselle,48.495,7.0217,Bionville,54540
54,Meurthe-et-Moselle,48.550,6.4152,Blainville-sur-l'Eau,54360
54,Meurthe-et-Moselle,48.590,6.8425,Blâmont,54450
54,Meurthe-et-Moselle,48.582,6.7370,Blémerey,54450
54,Meurthe-et-Moselle,48.875,6.0622,Blénod-lès-Pont-à-Mousson,54700
54,Meurthe-et-Moselle,48.597,5.8270,Blénod-lès-Toul,54113
54,Meurthe-et-Moselle,49.411,5.7403,Boismont,54620
54,Meurthe-et-Moselle,49.172,5.8226,Boncourt,54800
54,Meurthe-et-Moselle,48.627,6.4954,Bonviller,54300
54,Meurthe-et-Moselle,49.326,5.8428,Mont-Bonvillers,54111
54,Meurthe-et-Moselle,48.447,6.3973,Borville,54290
54,Meurthe-et-Moselle,48.754,5.7573,Boucq,54200
54,Meurthe-et-Moselle,48.940,5.8471,Bouillonville,54470
54,Meurthe-et-Moselle,48.739,5.8853,Bouvron,54200
54,Meurthe-et-Moselle,48.772,6.2714,Bouxières-aux-Chênes,54770
54,Meurthe-et-Moselle,48.772,6.2714,Bouxières-aux-Chênes,54770
54,Meurthe-et-Moselle,48.758,6.1635,Bouxières-aux-Dames,54136
54,Meurthe-et-Moselle,48.955,6.1014,Bouxières-sous-Froidmont,54700
54,Meurthe-et-Moselle,48.370,6.1073,Bouzanville,54930
54,Meurthe-et-Moselle,49.122,5.8085,Brainville,54800
54,Meurthe-et-Moselle,48.409,6.1922,Bralleville,54740
54,Meurthe-et-Moselle,48.816,6.2183,Bratte,54610
54,Meurthe-et-Moselle,49.439,5.8853,Bréhain-la-Ville,54190
54,Meurthe-et-Moselle,48.523,6.9213,Bréménil,54540
54,Meurthe-et-Moselle,48.491,6.3599,Brémoncourt,54290
54,Meurthe-et-Moselle,49.255,5.9704,Val de Briey,54150
54,Meurthe-et-Moselle,48.774,6.3548,Brin-sur-Seille,54280
54,Meurthe-et-Moselle,48.492,6.7492,Brouville,54120
54,Meurthe-et-Moselle,48.712,5.8566,Bruley,54200
54,Meurthe-et-Moselle,49.123,5.9256,Bruville,54800
54,Meurthe-et-Moselle,48.682,6.3415,Buissoncourt,54110
54,Meurthe-et-Moselle,48.572,5.8436,Bulligny,54113
54,Meurthe-et-Moselle,48.698,6.5705,Bures,54370
54,Meurthe-et-Moselle,48.537,6.6883,Buriville,54450
54,Meurthe-et-Moselle,48.577,6.2482,Burthecourt-aux-Chênes,54210
54,Meurthe-et-Moselle,48.533,6.1779,Ceintrey,54134
54,Meurthe-et-Moselle,48.695,6.3120,Cerville,54420
54,Meurthe-et-Moselle,48.636,6.0900,Chaligny,54230
54,Meurthe-et-Moselle,49.051,5.9154,Chambley-Bussières,54890
54,Meurthe-et-Moselle,48.734,6.3530,Champenoux,54280
54,Meurthe-et-Moselle,48.957,6.0661,Champey-sur-Moselle,54700
54,Meurthe-et-Moselle,48.720,6.1229,Champigneulles,54250
54,Meurthe-et-Moselle,48.593,6.5379,Chanteheux,54300
54,Meurthe-et-Moselle,48.440,6.0668,Chaouilley,54330
54,Meurthe-et-Moselle,49.484,5.5146,Charency-Vezin,54260
54,Meurthe-et-Moselle,48.995,5.8652,Charey,54470
54,Meurthe-et-Moselle,48.624,5.8275,Charmes-la-Côte,54113
54,Meurthe-et-Moselle,48.534,6.3892,Charmois,54360
54,Meurthe-et-Moselle,48.654,5.9243,Chaudeney-sur-Moselle,54200
54,Meurthe-et-Moselle,48.631,6.1338,Chavigny,54230
54,Meurthe-et-Moselle,48.587,6.7708,Chazelles-sur-Albe,54450
54,Meurthe-et-Moselle,48.521,6.6378,Chenevières,54122
54,Meurthe-et-Moselle,48.858,6.2833,Chenicourt,54610
54,Meurthe-et-Moselle,49.474,5.7660,Chenières,54720
54,Meurthe-et-Moselle,48.653,5.8073,Choloy-Ménillot,54200
54,Meurthe-et-Moselle,48.653,5.8073,Choloy-Ménillot,54200
54,Meurthe-et-Moselle,48.585,6.9448,Cirey-sur-Vezouze,54480
54,Meurthe-et-Moselle,48.469,6.4094,Clayeures,54290
54,Meurthe-et-Moselle,48.883,6.1803,Clémery,54610
54,Meurthe-et-Moselle,48.506,6.1375,Clérey-sur-Brenon,54330
54,Meurthe-et-Moselle,48.702,6.6172,Coincourt,54370
54,Meurthe-et-Moselle,49.463,5.5523,Colmey,54260
54,Meurthe-et-Moselle,49.463,5.5523,Colmey,54260
54,Meurthe-et-Moselle,48.516,5.8955,Colombey-les-Belles,54170
54,Meurthe-et-Moselle,49.168,5.8479,Conflans-en-Jarnisy,54800
54,Meurthe-et-Moselle,49.485,5.7011,Cons-la-Grandville,54870
54,Meurthe-et-Moselle,49.525,5.7165,Cosnes-et-Romain,54400
54,Meurthe-et-Moselle,49.525,5.7165,Cosnes-et-Romain,54400
54,Meurthe-et-Moselle,48.691,6.4022,Courbesseaux,54110
54,Meurthe-et-Moselle,48.369,6.0311,Courcelles,54930
54,Meurthe-et-Moselle,48.585,6.2832,Coyviller,54210
54,Meurthe-et-Moselle,48.467,6.2320,Crantenoy,54740
54,Meurthe-et-Moselle,48.528,5.9619,Crépey,54170
54,Meurthe-et-Moselle,48.519,6.2637,Crévéchamps,54290
54,Meurthe-et-Moselle,48.639,6.4064,Crévic,54110
54,Meurthe-et-Moselle,48.582,5.8893,Crézilles,54113
54,Meurthe-et-Moselle,48.644,6.5505,Crion,54300
54,Meurthe-et-Moselle,48.612,6.5720,Croismare,54300
54,Meurthe-et-Moselle,49.433,5.9207,Crusnes,54680
54,Meurthe-et-Moselle,48.789,6.1461,Custines,54670
54,Meurthe-et-Moselle,49.481,5.7377,Cutry,54720
54,Meurthe-et-Moselle,48.566,6.3920,Damelevières,54360
54,Meurthe-et-Moselle,49.006,5.8317,Dampvitoux,54470
54,Meurthe-et-Moselle,48.426,6.7207,Deneuvre,54120
54,Meurthe-et-Moselle,48.618,6.4581,Deuxville,54370
54,Meurthe-et-Moselle,48.387,6.1307,Diarville,54930
54,Meurthe-et-Moselle,48.834,6.0556,Dieulouard,54380
54,Meurthe-et-Moselle,48.490,5.9783,Dolcourt,54170
54,Meurthe-et-Moselle,48.619,6.3607,Dombasle-sur-Meurthe,54110
54,Meurthe-et-Moselle,48.814,5.9351,Domèvre-en-Haye,54385
54,Meurthe-et-Moselle,48.561,6.8008,Domèvre-sur-Vezouze,54450
54,Meurthe-et-Moselle,48.641,5.8235,Domgermain,54119
54,Meurthe-et-Moselle,48.580,6.6982,Domjevin,54450
54,Meurthe-et-Moselle,48.418,6.0321,Dommarie-Eulmont,54115
54,Meurthe-et-Moselle,48.717,6.2156,Dommartemont,54130
54,Meurthe-et-Moselle,49.010,5.8662,Dommartin-la-Chaussée,54470
54,Meurthe-et-Moselle,48.671,5.9252,Dommartin-lès-Toul,54200
54,Meurthe-et-Moselle,48.734,6.2519,Dommartin-sous-Amance,54770
54,Meurthe-et-Moselle,49.328,5.7643,Domprix,54490
54,Meurthe-et-Moselle,49.328,5.7643,Domprix,54490
54,Meurthe-et-Moselle,48.511,6.3350,Domptail-en-l'Air,54290
54,Meurthe-et-Moselle,49.146,5.9314,Doncourt-lès-Conflans,54800
54,Meurthe-et-Moselle,49.442,5.7149,Doncourt-lès-Longuyon,54620
54,Meurthe-et-Moselle,48.670,6.4117,Drouville,54370
54,Meurthe-et-Moselle,48.680,5.8426,Écrouves,54200
54,Meurthe-et-Moselle,48.680,5.8426,Écrouves,54200
54,Meurthe-et-Moselle,48.493,6.3933,Einvaux,54360
54,Meurthe-et-Moselle,48.655,6.4779,Einville-au-Jard,54370
54,Meurthe-et-Moselle,48.637,6.6826,Emberménil,54370
54,Meurthe-et-Moselle,49.500,5.5005,Épiez-sur-Chiers,54260
54,Meurthe-et-Moselle,48.925,6.1812,Éply,54610
54,Meurthe-et-Moselle,48.729,6.3882,Erbéviller-sur-Amezule,54280
54,Meurthe-et-Moselle,49.417,5.8979,Errouville,54680
54,Meurthe-et-Moselle,48.911,5.8060,Essey-et-Maizerais,54470
54,Meurthe-et-Moselle,48.423,6.4705,Essey-la-Côte,54830
54,Meurthe-et-Moselle,48.707,6.2328,Essey-lès-Nancy,54270
54,Meurthe-et-Moselle,48.456,6.0532,Étreval,54330
54,Meurthe-et-Moselle,48.750,6.2221,Eulmont,54690
54,Meurthe-et-Moselle,48.919,5.8592,Euvezin,54470
54,Meurthe-et-Moselle,48.792,6.1992,Faulx,54760
54,Meurthe-et-Moselle,48.457,5.9338,Favières,54115
54,Meurthe-et-Moselle,48.403,6.0020,Fécocourt,54115
54,Meurthe-et-Moselle,48.485,6.8831,Fenneviller,54540
54,Meurthe-et-Moselle,48.553,6.2948,Ferrières,54210
54,Meurthe-et-Moselle,48.905,5.9640,Fey-en-Haye,54470
54,Meurthe-et-Moselle,49.411,5.8422,Fillières,54560
54,Meurthe-et-Moselle,48.618,6.3976,Flainval,54110
54,Meurthe-et-Moselle,48.569,6.1934,Flavigny-sur-Moselle,54630
54,Meurthe-et-Moselle,48.629,6.2038,Fléville-devant-Nancy,54710
54,Meurthe-et-Moselle,49.242,5.8146,Fléville-Lixières,54150
54,Meurthe-et-Moselle,48.503,6.6578,Flin,54122
54,Meurthe-et-Moselle,48.883,5.8513,Flirey,54470
54,Meurthe-et-Moselle,48.449,6.6555,Fontenoy-la-Joûte,54122
54,Meurthe-et-Moselle,48.707,5.9911,Fontenoy-sur-Moselle,54840
54,Meurthe-et-Moselle,48.456,6.1038,Forcelles-Saint-Gorgon,54330
54,Meurthe-et-Moselle,48.392,6.0848,Forcelles-sous-Gugney,54930
54,Meurthe-et-Moselle,48.673,5.7809,Foug,54570
54,Meurthe-et-Moselle,48.525,6.5424,Fraimbois,54300
54,Meurthe-et-Moselle,48.374,6.0609,Fraisnes-en-Saintois,54930
54,Meurthe-et-Moselle,48.741,5.9264,Francheville,54200
54,Meurthe-et-Moselle,48.500,6.4513,Franconville,54830
54,Meurthe-et-Moselle,48.561,6.7067,Fréménil,54450
54,Meurthe-et-Moselle,48.605,6.9032,Frémonville,54450
54,Meurthe-et-Moselle,49.498,5.6510,Fresnois-la-Montagne,54260
54,Meurthe-et-Moselle,49.143,5.8307,Friauville,54800
54,Meurthe-et-Moselle,48.572,6.1265,Frolois,54160
54,Meurthe-et-Moselle,48.750,6.1231,Frouard,54390
54,Meurthe-et-Moselle,48.469,6.3646,Froville,54290
54,Meurthe-et-Moselle,48.476,6.7317,Gélacourt,54120
54,Meurthe-et-Moselle,48.458,5.9882,Gélaucourt,54115
54,Meurthe-et-Moselle,48.677,6.3806,Gellenoncourt,54110
54,Meurthe-et-Moselle,48.419,5.8836,Gémonville,54115
54,Meurthe-et-Moselle,48.488,6.1526,Gerbécourt-et-Haplemont,54740
54,Meurthe-et-Moselle,48.493,6.5108,Gerbéviller,54830
54,Meurthe-et-Moselle,48.546,6.0015,Germiny,54170
54,Meurthe-et-Moselle,48.409,6.2178,Germonville,54740
54,Meurthe-et-Moselle,48.842,5.9857,Gézoncourt,54380
54,Meurthe-et-Moselle,48.590,5.7429,Gibeaumeix,54112
54,Meurthe-et-Moselle,49.173,5.9160,Giraumont,54780
54,Meurthe-et-Moselle,48.434,6.4959,Giriviller,54830
54,Meurthe-et-Moselle,48.457,6.6873,Glonville,54122
54,Meurthe-et-Moselle,48.614,6.8685,Gogney,54450
54,Meurthe-et-Moselle,49.244,5.7623,Gondrecourt-Aix,54800
54,Meurthe-et-Moselle,48.682,5.9812,Gondreville,54840
54,Meurthe-et-Moselle,48.604,6.7667,Gondrexon,54450
54,Meurthe-et-Moselle,49.536,5.6830,Gorcy,54730
54,Meurthe-et-Moselle,48.505,6.0139,Goviller,54330
54,Meurthe-et-Moselle,49.421,5.5202,Grand-Failly,54260
54,Meurthe-et-Moselle,49.421,5.5202,Grand-Failly,54260
54,Meurthe-et-Moselle,48.380,6.0079,Grimonviller,54115
54,Meurthe-et-Moselle,48.415,6.2479,Gripport,54290
54,Meurthe-et-Moselle,48.841,6.0171,Griscourt,54380
54,Meurthe-et-Moselle,48.829,5.8461,Grosrouvres,54470
54,Meurthe-et-Moselle,48.395,6.0584,Gugney,54930
54,Meurthe-et-Moselle,48.624,5.8773,Gye,54113
54,Meurthe-et-Moselle,48.515,6.7191,Hablainville,54120
54,Meurthe-et-Moselle,49.031,5.8643,Hagéville,54470
54,Meurthe-et-Moselle,48.484,6.3410,Haigneville,54290
54,Meurthe-et-Moselle,48.551,6.8595,Halloville,54450
54,Meurthe-et-Moselle,48.498,6.0713,Hammeville,54330
54,Meurthe-et-Moselle,48.824,5.8080,Hamonville,54470
54,Meurthe-et-Moselle,49.098,5.8367,Hannonville-Suzémont,54800
54,Meurthe-et-Moselle,48.661,6.3611,Haraucourt,54110
54,Meurthe-et-Moselle,48.570,6.8940,Harbouey,54450
54,Meurthe-et-Moselle,48.473,6.1877,Haroué,54740
54,Meurthe-et-Moselle,49.196,5.8978,Hatrize,54800
54,Meurthe-et-Moselle,49.496,5.8066,Haucourt-Moulaine,54860
54,Meurthe-et-Moselle,49.496,5.8066,Haucourt-Moulaine,54860
54,Meurthe-et-Moselle,48.501,6.4788,Haudonville,54830
54,Meurthe-et-Moselle,48.528,6.3225,Haussonville,54290
54,Meurthe-et-Moselle,48.651,6.1990,Heillecourt,54180
54,Meurthe-et-Moselle,48.664,6.5687,Hénaménil,54370
54,Meurthe-et-Moselle,48.553,6.7541,Herbéviller,54450
54,Meurthe-et-Moselle,48.550,6.5081,Hériménil,54300
54,Meurthe-et-Moselle,49.518,5.7924,Herserange,54440
54,Meurthe-et-Moselle,48.716,6.4330,Hoéville,54370
54,Meurthe-et-Moselle,49.222,5.9927,Homécourt,54310
54,Meurthe-et-Moselle,48.536,6.0933,Houdelmont,54330
54,Meurthe-et-Moselle,48.641,6.1735,Houdemont,54180
54,Meurthe-et-Moselle,48.513,6.0989,Houdreville,54330
54,Meurthe-et-Moselle,48.407,6.1157,Housséville,54930
54,Meurthe-et-Moselle,48.600,6.3907,Hudiviller,54110
54,Meurthe-et-Moselle,49.495,5.8561,Hussigny-Godbrange,54590
54,Meurthe-et-Moselle,48.632,6.8198,Igney,54450
54,Meurthe-et-Moselle,48.761,5.9747,Jaillon,54200
54,Meurthe-et-Moselle,49.149,5.8812,Jarny,54800
54,Meurthe-et-Moselle,49.149,5.8812,Jarny,54800
54,Meurthe-et-Moselle,48.667,6.2046,Jarville-la-Malgrange,54140
54,Meurthe-et-Moselle,48.966,5.8927,Jaulny,54470
54,Meurthe-et-Moselle,48.846,6.2430,Jeandelaincourt,54114
54,Meurthe-et-Moselle,49.173,5.7966,Jeandelize,54800
54,Meurthe-et-Moselle,48.414,6.1623,Jevoncourt,54740
54,Meurthe-et-Moselle,48.864,6.0160,Jezainville,54700
54,Meurthe-et-Moselle,49.232,6.0116,Jœuf,54240
54,Meurthe-et-Moselle,48.610,6.5178,Jolivet,54300
54,Meurthe-et-Moselle,49.389,5.8025,Joppécourt,54620
54,Meurthe-et-Moselle,49.158,5.9614,Jouaville,54800
54,Meurthe-et-Moselle,49.288,5.7792,Joudreville,54490
54,Meurthe-et-Moselle,48.740,6.5604,Juvrecourt,54370
54,Meurthe-et-Moselle,49.182,5.8734,Labry,54800
54,Meurthe-et-Moselle,48.417,6.7690,Lachapelle,54120
54,Meurthe-et-Moselle,48.745,5.8289,Lagney,54200
54,Meurthe-et-Moselle,48.739,6.2737,Laître-sous-Amance,54770
54,Meurthe-et-Moselle,49.451,5.7794,Laix,54720
54,Meurthe-et-Moselle,48.468,6.0080,Lalœuf,54115
54,Meurthe-et-Moselle,48.520,6.4430,Lamath,54300
54,Meurthe-et-Moselle,48.502,6.4218,Landécourt,54360
54,Meurthe-et-Moselle,48.854,6.1522,Landremont,54380
54,Meurthe-et-Moselle,49.318,5.8075,Landres,54970
54,Meurthe-et-Moselle,48.724,6.3000,Laneuvelotte,54280
54,Meurthe-et-Moselle,48.622,6.6454,Laneuveville-aux-Bois,54370
54,Meurthe-et-Moselle,48.707,5.8056,Laneuveville-derrière-Foug,54570
54,Meurthe-et-Moselle,48.470,6.2638,Laneuveville-devant-Bayon,54740
54,Meurthe-et-Moselle,48.646,6.2412,Laneuveville-devant-Nancy,54410
54,Meurthe-et-Moselle,48.646,6.2412,Laneuveville-devant-Nancy,54410
54,Meurthe-et-Moselle,48.806,6.3189,Lanfroicourt,54760
54,Meurthe-et-Moselle,49.253,5.8865,Lantéfontaine,54150
54,Meurthe-et-Moselle,49.253,5.8865,Lantéfontaine,54150
54,Meurthe-et-Moselle,48.544,6.5977,Laronxe,54950
54,Meurthe-et-Moselle,48.682,6.1135,Laxou,54520
54,Meurthe-et-Moselle,48.682,6.1135,Laxou,54520
54,Meurthe-et-Moselle,48.753,6.1950,Lay-Saint-Christophe,54690
54,Meurthe-et-Moselle,48.681,5.7614,Lay-Saint-Remy,54570
54,Meurthe-et-Moselle,48.434,6.2411,Lebeuville,54740
54,Meurthe-et-Moselle,48.628,6.7434,Leintrey,54450
54,Meurthe-et-Moselle,48.505,6.1868,Lemainville,54740
54,Meurthe-et-Moselle,48.453,6.2549,Leménil-Mitry,54740
54,Meurthe-et-Moselle,48.671,6.3001,Lenoncourt,54110
54,Meurthe-et-Moselle,48.931,6.1107,Lesménils,54700
54,Meurthe-et-Moselle,48.874,6.2852,Létricourt,54610
54,Meurthe-et-Moselle,49.503,5.7290,Lexy,54720
54,Meurthe-et-Moselle,48.802,6.2692,Leyr,54760
54,Meurthe-et-Moselle,48.894,5.9023,Limey-Remenauville,54470
54,Meurthe-et-Moselle,48.867,5.9121,Lironville,54470
54,Meurthe-et-Moselle,48.753,6.0523,Liverdun,54460
54,Meurthe-et-Moselle,48.867,6.0984,Loisy,54700
54,Meurthe-et-Moselle,49.533,5.8023,Longlaville,54810
54,Meurthe-et-Moselle,49.458,5.5917,Longuyon,54260
54,Meurthe-et-Moselle,49.458,5.5917,Longuyon,54260
54,Meurthe-et-Moselle,49.458,5.5917,Longuyon,54260
54,Meurthe-et-Moselle,49.521,5.7663,Longwy,54400
54,Meurthe-et-Moselle,48.497,6.3147,Lorey,54290
54,Meurthe-et-Moselle,48.430,6.3697,Loromontzey,54290
54,Meurthe-et-Moselle,49.244,5.8546,Lubey,54150
54,Meurthe-et-Moselle,48.722,5.8288,Lucey,54200
54,Meurthe-et-Moselle,48.620,6.1733,Ludres,54710
54,Meurthe-et-Moselle,48.592,6.4981,Lunéville,54300
54,Meurthe-et-Moselle,48.602,6.2212,Lupcourt,54210
54,Meurthe-et-Moselle,48.444,6.5657,Magnières,54129
54,Meurthe-et-Moselle,48.895,6.0358,Maidières,54700
54,Meurthe-et-Moselle,48.917,6.2511,Mailly-sur-Seille,54610
54,Meurthe-et-Moselle,49.304,5.8553,Mairy-Mainville,54150
54,Meurthe-et-Moselle,49.304,5.8553,Mairy-Mainville,54150
54,Meurthe-et-Moselle,48.647,6.4379,Maixe,54370
54,Meurthe-et-Moselle,48.590,6.0487,Maizières,54550
54,Meurthe-et-Moselle,49.357,5.8657,Malavillers,54560
54,Meurthe-et-Moselle,48.791,6.1680,Malleloy,54670
54,Meurthe-et-Moselle,48.721,6.1899,Malzéville,54220
54,Meurthe-et-Moselle,48.879,5.9559,Mamey,54470
54,Meurthe-et-Moselle,49.274,5.9194,Mance,54150
54,Meurthe-et-Moselle,49.281,5.8966,Mancieulles,54790
54,Meurthe-et-Moselle,48.828,5.7904,Mandres-aux-Quatre-Tours,54470
54,Meurthe-et-Moselle,48.451,6.2889,Mangonville,54290
54,Meurthe-et-Moselle,48.601,6.2702,Manoncourt-en-Vermois,54210
54,Meurthe-et-Moselle,48.781,5.9191,Manoncourt-en-Woëvre,54385
54,Meurthe-et-Moselle,48.831,5.9154,Manonville,54385
54,Meurthe-et-Moselle,48.591,6.6625,Manonviller,54300
54,Meurthe-et-Moselle,48.597,6.6082,Marainviller,54300
54,Meurthe-et-Moselle,48.790,6.0903,Marbache,54820
54,Meurthe-et-Moselle,48.657,6.0578,Maron,54230
54,Meurthe-et-Moselle,49.096,5.8846,Mars-la-Tour,54800
54,Meurthe-et-Moselle,48.559,6.0366,Marthemont,54330
54,Meurthe-et-Moselle,48.848,5.9519,Martincourt,54380
54,Meurthe-et-Moselle,48.439,6.5216,Mattexey,54830
54,Meurthe-et-Moselle,48.709,6.1495,Maxéville,54320
54,Meurthe-et-Moselle,48.709,6.1495,Maxéville,54320
54,Meurthe-et-Moselle,48.755,6.3793,Mazerulles,54280
54,Meurthe-et-Moselle,48.512,6.3799,Méhoncourt,54360
54,Meurthe-et-Moselle,48.774,5.8476,Ménil-la-Tour,54200
54,Meurthe-et-Moselle,49.385,5.7584,Mercy-le-Bas,54960
54,Meurthe-et-Moselle,49.369,5.8253,Mercy-le-Haut,54560
54,Meurthe-et-Moselle,49.369,5.8253,Mercy-le-Haut,54560
54,Meurthe-et-Moselle,48.591,6.1377,Méréville,54850
54,Meurthe-et-Moselle,48.473,6.7792,Merviller,54120
54,Meurthe-et-Moselle,48.610,6.1421,Messein,54850
54,Meurthe-et-Moselle,49.501,5.7859,Mexy,54135
54,Meurthe-et-Moselle,48.534,6.7831,Mignéville,54540
54,Meurthe-et-Moselle,48.815,6.1394,Millery,54670
54,Meurthe-et-Moselle,48.809,5.8798,Minorville,54385
54,Meurthe-et-Moselle,49.197,5.9483,Moineville,54580
54,Meurthe-et-Moselle,48.828,6.2478,Moivrons,54760
54,Meurthe-et-Moselle,48.563,6.5614,Moncel-lès-Lunéville,54300
54,Meurthe-et-Moselle,48.768,6.4242,Moncel-sur-Seille,54280
54,Meurthe-et-Moselle,48.896,6.0013,Montauville,54700
54,Meurthe-et-Moselle,48.792,6.2363,Montenoy,54760
54,Meurthe-et-Moselle,48.513,6.8033,Montigny,54540
54,Meurthe-et-Moselle,49.471,5.6681,Montigny-sur-Chiers,54870
54,Meurthe-et-Moselle,49.471,5.6681,Montigny-sur-Chiers,54870
54,Meurthe-et-Moselle,48.498,5.7828,Mont-l'Étroit,54170
54,Meurthe-et-Moselle,48.619,5.8505,Mont-le-Vignoble,54113
54,Meurthe-et-Moselle,48.535,6.8878,Montreux,54450
54,Meurthe-et-Moselle,49.545,5.7794,Mont-Saint-Martin,54350
54,Meurthe-et-Moselle,48.549,6.4421,Mont-sur-Meurthe,54360
54,Meurthe-et-Moselle,49.443,5.8177,Morfontaine,54920
54,Meurthe-et-Moselle,48.480,6.4404,Moriviller,54830
54,Meurthe-et-Moselle,48.917,6.1461,Morville-sur-Seille,54700
54,Meurthe-et-Moselle,48.672,6.6399,Mouacourt,54370
54,Meurthe-et-Moselle,49.213,5.7786,Mouaville,54800
54,Meurthe-et-Moselle,48.910,6.0925,Mousson,54700
54,Meurthe-et-Moselle,49.232,5.9557,Moutiers,54660
54,Meurthe-et-Moselle,48.601,5.8968,Moutrot,54113
54,Meurthe-et-Moselle,48.487,6.5867,Moyen,54118
54,Meurthe-et-Moselle,49.342,5.8308,Murville,54490
54,Meurthe-et-Moselle,48.690,6.1758,Nancy,54000
54,Meurthe-et-Moselle,48.690,6.1758,Nancy,54100
54,Meurthe-et-Moselle,48.447,6.8700,Neufmaisons,54540
54,Meurthe-et-Moselle,48.614,6.1091,Neuves-Maisons,54230
54,Meurthe-et-Moselle,48.520,6.8768,Neuviller-lès-Badonviller,54540
54,Meurthe-et-Moselle,48.490,6.2817,Neuviller-sur-Moselle,54290
54,Meurthe-et-Moselle,48.877,6.2330,Nomeny,54610
54,Meurthe-et-Moselle,48.548,6.8907,Nonhigny,54450
54,Meurthe-et-Moselle,49.276,5.8093,Norroy-le-Sec,54150
54,Meurthe-et-Moselle,48.932,6.0123,Norroy-lès-Pont-à-Mousson,54700
54,Meurthe-et-Moselle,48.845,5.8850,Noviant-aux-Prés,54385
54,Meurthe-et-Moselle,48.593,5.9486,Ochey,54170
54,Meurthe-et-Moselle,48.551,6.7180,Ogéviller,54450
54,Meurthe-et-Moselle,48.471,6.0591,Ognéville,54330
54,Meurthe-et-Moselle,49.173,5.7677,Olley,54800
54,Meurthe-et-Moselle,48.493,6.1184,Omelmont,54330
54,Meurthe-et-Moselle,49.021,5.9685,Onville,54890
54,Meurthe-et-Moselle,48.487,6.2050,Ormes-et-Ville,54740
54,Meurthe-et-Moselle,49.491,5.4470,Othe,54260
54,Meurthe-et-Moselle,49.225,5.8417,Ozerailles,54150
54,Meurthe-et-Moselle,48.698,5.8475,Pagney-derrière-Barine,54200
54,Meurthe-et-Moselle,48.988,6.0111,Pagny-sur-Moselle,54530
54,Meurthe-et-Moselle,48.929,5.7960,Pannes,54470
54,Meurthe-et-Moselle,48.527,6.0636,Parey-Saint-Césaire,54330
54,Meurthe-et-Moselle,48.668,6.6082,Parroy,54370
54,Meurthe-et-Moselle,48.541,6.9211,Parux,54480
54,Meurthe-et-Moselle,49.439,5.5011,Petit-Failly,54260
54,Meurthe-et-Moselle,48.546,6.9741,Petitmont,54480
54,Meurthe-et-Moselle,48.530,6.7437,Pettonville,54120
54,Meurthe-et-Moselle,48.467,6.8838,Pexonne,54540
54,Meurthe-et-Moselle,48.916,6.2767,Phlin,54610
54,Meurthe-et-Moselle,49.307,5.7838,Piennes,54490
54,Meurthe-et-Moselle,48.639,5.9638,Pierre-la-Treiche,54200
54,Meurthe-et-Moselle,48.464,6.9384,Pierre-Percée,54540
54,Meurthe-et-Moselle,49.418,5.7091,Pierrepont,54620
54,Meurthe-et-Moselle,48.548,6.1107,Pierreville,54160
54,Meurthe-et-Moselle,48.773,6.1108,Pompey,54340
54,Meurthe-et-Moselle,48.921,6.0539,Pont-à-Mousson,54700
54,Meurthe-et-Moselle,48.609,6.0750,Pont-Saint-Vincent,54550
54,Meurthe-et-Moselle,48.899,6.1597,Port-sur-Seille,54700
54,Meurthe-et-Moselle,48.437,6.1114,Praye,54116
54,Meurthe-et-Moselle,48.971,5.9631,Prény,54530
54,Meurthe-et-Moselle,49.347,5.7994,Preutin-Higny,54490
54,Meurthe-et-Moselle,48.549,6.1518,Pulligny,54160
54,Meurthe-et-Moselle,48.390,6.0324,Pulney,54115
54,Meurthe-et-Moselle,48.701,6.2661,Pulnoy,54425
54,Meurthe-et-Moselle,49.151,5.7867,Puxe,54800
54,Meurthe-et-Moselle,49.073,5.8851,Puxieux,54800
54,Meurthe-et-Moselle,48.471,6.1053,Quevilloncourt,54330
54,Meurthe-et-Moselle,48.513,7.0973,Raon-lès-Leau,54540
54,Meurthe-et-Moselle,48.924,6.2184,Raucourt,54610
54,Meurthe-et-Moselle,48.651,6.5100,Raville-sur-Sânon,54370
54,Meurthe-et-Moselle,48.717,6.5823,Réchicourt-la-Petite,54370
54,Meurthe-et-Moselle,48.537,6.7294,Réclonville,54450
54,Meurthe-et-Moselle,48.568,6.4694,Rehainviller,54300
54,Meurthe-et-Moselle,48.508,6.7764,Reherrey,54120
54,Meurthe-et-Moselle,49.499,5.7573,Réhon,54430
54,Meurthe-et-Moselle,49.499,5.7573,Réhon,54430
54,Meurthe-et-Moselle,48.598,6.7431,Reillon,54450
54,Meurthe-et-Moselle,48.985,5.9036,Rembercourt-sur-Mad,54470
54,Meurthe-et-Moselle,48.463,6.4748,Remenoville,54830
54,Meurthe-et-Moselle,48.708,6.3802,Réméréville,54110
54,Meurthe-et-Moselle,48.656,6.7413,Remoncourt,54370
54,Meurthe-et-Moselle,48.612,6.8300,Repaix,54450
54,Meurthe-et-Moselle,48.595,6.1761,Richardménil,54630
54,Meurthe-et-Moselle,48.814,5.9772,Rogéville,54380
54,Meurthe-et-Moselle,48.520,6.3568,Romain,54360
54,Meurthe-et-Moselle,48.592,6.3343,Rosières-aux-Salines,54110
54,Meurthe-et-Moselle,48.788,5.9941,Rosières-en-Haye,54385
54,Meurthe-et-Moselle,48.902,6.2042,Rouves,54610
54,Meurthe-et-Moselle,48.467,6.2936,Roville-devant-Bayon,54290
54,Meurthe-et-Moselle,48.785,5.8221,Royaumeix,54200
54,Meurthe-et-Moselle,48.446,6.4304,Rozelieures,54290
54,Meurthe-et-Moselle,48.559,6.3159,Saffais,54210
54,Meurthe-et-Moselle,49.169,6.0019,Saint-Ail,54580
54,Meurthe-et-Moselle,49.169,6.0019,Saint-Ail,54580
54,Meurthe-et-Moselle,48.891,5.7972,Saint-Baussant,54470
54,Meurthe-et-Moselle,48.418,6.4296,Saint-Boingt,54290
54,Meurthe-et-Moselle,48.542,6.6233,Saint-Clément,54950
54,Meurthe-et-Moselle,48.425,6.1366,Saint-Firmin,54930
54,Meurthe-et-Moselle,48.870,6.1371,Sainte-Geneviève,54700
54,Meurthe-et-Moselle,48.423,6.3441,Saint-Germain,54290
54,Meurthe-et-Moselle,49.455,5.4886,Saint-Jean-lès-Longuyon,54260
54,Meurthe-et-Moselle,49.455,5.4886,Saint-Jean-lès-Longuyon,54260
54,Meurthe-et-Moselle,49.018,5.9042,Saint-Julien-lès-Gorze,54470
54,Meurthe-et-Moselle,49.122,5.9732,Saint-Marcel,54800
54,Meurthe-et-Moselle,48.510,6.2986,Saint-Mard,54290
54,Meurthe-et-Moselle,48.571,6.7496,Saint-Martin,54450
54,Meurthe-et-Moselle,48.506,6.8509,Saint-Maurice-aux-Forges,54540
54,Meurthe-et-Moselle,48.705,6.2064,Saint-Max,54130
54,Meurthe-et-Moselle,48.622,6.2954,Saint-Nicolas-de-Port,54210
54,Meurthe-et-Moselle,48.505,6.8305,Sainte-Pôle,54540
54,Meurthe-et-Moselle,49.526,5.6387,Saint-Pancré,54730
54,Meurthe-et-Moselle,48.499,6.2541,Saint-Remimont,54740
54,Meurthe-et-Moselle,48.416,6.3962,Saint-Rémy-aux-Bois,54290
54,Meurthe-et-Moselle,48.523,7.0030,Saint-Sauveur,54480
54,Meurthe-et-Moselle,49.375,5.7295,Saint-Supplet,54620
54,Meurthe-et-Moselle,48.791,6.0406,Saizerais,54380
54,Meurthe-et-Moselle,49.351,5.9274,Sancy,54560
54,Meurthe-et-Moselle,48.765,5.8260,Sanzey,54200
54,Meurthe-et-Moselle,49.529,5.8264,Saulnes,54650
54,Meurthe-et-Moselle,48.472,5.9334,Saulxerotte,54115
54,Meurthe-et-Moselle,48.685,6.2539,Saulxures-lès-Nancy,54420
54,Meurthe-et-Moselle,48.519,5.8005,Saulxures-lès-Vannes,54170
54,Meurthe-et-Moselle,48.417,6.0866,Saxon-Sion,54330
54,Meurthe-et-Moselle,48.715,6.2714,Seichamps,54280
54,Meurthe-et-Moselle,48.868,5.7957,Seicheprey,54470
54,Meurthe-et-Moselle,48.496,5.9443,Selaincourt,54170
54,Meurthe-et-Moselle,48.459,6.5166,Seranville,54830
54,Meurthe-et-Moselle,48.691,6.4543,Serres,54370
54,Meurthe-et-Moselle,49.393,5.8776,Serrouville,54560
54,Meurthe-et-Moselle,48.634,6.0233,Sexey-aux-Forges,54550
54,Meurthe-et-Moselle,48.718,6.0309,Sexey-les-Bois,54840
54,Meurthe-et-Moselle,48.631,6.5476,Sionviller,54300
54,Meurthe-et-Moselle,48.829,6.2071,Sivry,54610
54,Meurthe-et-Moselle,48.636,6.3757,Sommerviller,54110
54,Meurthe-et-Moselle,48.741,6.4162,Sornéville,54280
54,Meurthe-et-Moselle,49.074,5.8319,Sponville,54800
54,Meurthe-et-Moselle,48.605,6.9404,Tanconville,54480
54,Meurthe-et-Moselle,48.467,6.1375,Tantonville,54116
54,Meurthe-et-Moselle,49.508,5.6298,Tellancourt,54260
54,Meurthe-et-Moselle,48.543,6.0507,Thélod,54330
54,Meurthe-et-Moselle,48.404,6.0529,They-sous-Vaudemont,54930
54,Meurthe-et-Moselle,48.903,6.3027,Thézey-Saint-Martin,54610
54,Meurthe-et-Moselle,48.933,5.9009,Thiaucourt-Regniéville,54470
54,Meurthe-et-Moselle,48.407,6.8050,Thiaville-sur-Meurthe,54120
54,Meurthe-et-Moselle,48.579,6.6298,Thiébauménil,54300
54,Meurthe-et-Moselle,49.473,5.9061,Thil,54880
54,Meurthe-et-Moselle,48.444,6.0322,Thorey-Lyautey,54115
54,Meurthe-et-Moselle,48.575,5.9721,Thuilley-aux-Groseilles,54170
54,Meurthe-et-Moselle,49.203,5.8062,Thumeréville,54800
54,Meurthe-et-Moselle,49.460,5.8831,Tiercelet,54190
54,Meurthe-et-Moselle,48.685,6.2212,Tomblaine,54510
54,Meurthe-et-Moselle,48.554,6.2593,Tonnoy,54210
54,Meurthe-et-Moselle,48.686,5.8950,Toul,54200
54,Meurthe-et-Moselle,48.413,5.9492,Tramont-Émy,54115
54,Meurthe-et-Moselle,48.400,5.9666,Tramont-Lassus,54115
54,Meurthe-et-Moselle,48.414,5.9274,Tramont-Saint-André,54115
54,Meurthe-et-Moselle,48.802,5.9455,Tremblecourt,54385
54,Meurthe-et-Moselle,49.322,5.9437,Trieux,54750
54,Meurthe-et-Moselle,48.723,5.7722,Trondes,54570
54,Meurthe-et-Moselle,49.082,5.9190,Tronville,54800
54,Meurthe-et-Moselle,49.307,5.8939,Tucquegnieux,54640
54,Meurthe-et-Moselle,49.463,5.7082,Ugny,54870
54,Meurthe-et-Moselle,48.568,5.7464,Uruffe,54112
54,Meurthe-et-Moselle,48.481,6.8173,Vacqueville,54540
54,Meurthe-et-Moselle,48.554,7.0073,Val-et-Châtillon,54480
54,Meurthe-et-Moselle,48.683,6.4939,Valhey,54370
54,Meurthe-et-Moselle,49.214,5.9199,Valleroy,54910
54,Meurthe-et-Moselle,48.460,6.5453,Vallois,54830
54,Meurthe-et-Moselle,49.029,5.9823,Vandelainville,54890
54,Meurthe-et-Moselle,48.424,5.9915,Vandeléville,54115
54,Meurthe-et-Moselle,48.959,6.0202,Vandières,54121
54,Meurthe-et-Moselle,48.657,6.1653,Vandœuvre-lès-Nancy,54500
54,Meurthe-et-Moselle,48.571,5.7849,Vannes-le-Châtel,54112
54,Meurthe-et-Moselle,48.641,6.3213,Varangéville,54110
54,Meurthe-et-Moselle,48.504,6.6147,Vathiménil,54122
54,Meurthe-et-Moselle,48.665,6.6862,Vaucourt,54370
54,Meurthe-et-Moselle,48.421,6.0583,Vaudémont,54330
54,Meurthe-et-Moselle,48.454,6.2087,Vaudeville,54740
54,Meurthe-et-Moselle,48.437,6.2053,Vaudigny,54740
54,Meurthe-et-Moselle,48.520,6.7558,Vaxainville,54120
54,Meurthe-et-Moselle,48.603,6.7088,Vého,54450
54,Meurthe-et-Moselle,48.699,6.0471,Velaine-en-Haye,54840
54,Meurthe-et-Moselle,48.715,6.3252,Velaine-sous-Amance,54280
54,Meurthe-et-Moselle,48.530,6.2855,Velle-sur-Moselle,54290
54,Meurthe-et-Moselle,48.460,6.8136,Veney,54540
54,Meurthe-et-Moselle,48.441,6.4614,Vennezey,54830
54,Meurthe-et-Moselle,48.587,6.8046,Verdenal,54450
54,Meurthe-et-Moselle,48.483,6.0939,Vézelise,54330
54,Meurthe-et-Moselle,48.939,5.9184,Viéville-en-Haye,54470
54,Meurthe-et-Moselle,48.569,6.3443,Vigneulles,54360
54,Meurthe-et-Moselle,48.939,5.9586,Vilcey-sur-Trey,54700
54,Meurthe-et-Moselle,48.439,6.3364,Villacourt,54290
54,Meurthe-et-Moselle,49.417,5.8011,Ville-au-Montois,54620
54,Meurthe-et-Moselle,48.841,6.1300,Ville-au-Val,54380
54,Meurthe-et-Moselle,48.993,5.9462,Villecey-sur-Mad,54890
54,Meurthe-et-Moselle,48.619,6.2442,Ville-en-Vermois,54210
54,Meurthe-et-Moselle,49.539,5.6572,Ville-Houdlémont,54730
54,Meurthe-et-Moselle,48.820,6.0069,Villers-en-Haye,54380
54,Meurthe-et-Moselle,49.505,5.6889,Villers-la-Chèvre,54870
54,Meurthe-et-Moselle,49.469,5.8318,Villers-la-Montagne,54920
54,Meurthe-et-Moselle,49.469,5.4819,Villers-le-Rond,54260
54,Meurthe-et-Moselle,48.814,6.2511,Villers-lès-Moivrons,54760
54,Meurthe-et-Moselle,48.661,6.1287,Villers-lès-Nancy,54600
54,Meurthe-et-Moselle,48.943,5.9950,Villers-sous-Prény,54700
54,Meurthe-et-Moselle,49.464,5.9264,Villerupt,54190
54,Meurthe-et-Moselle,49.464,5.9264,Villerupt,54190
54,Meurthe-et-Moselle,49.120,5.8727,Ville-sur-Yron,54800
54,Meurthe-et-Moselle,49.478,5.5537,Villette,54260
54,Meurthe-et-Moselle,48.657,5.9759,Villey-le-Sec,54840
54,Meurthe-et-Moselle,48.728,5.9635,Villey-Saint-Étienne,54200
54,Meurthe-et-Moselle,48.455,6.3183,Virecourt,54290
54,Meurthe-et-Moselle,48.587,6.0129,Viterne,54123
54,Meurthe-et-Moselle,48.493,6.0424,Vitrey,54330
54,Meurthe-et-Moselle,48.590,6.4423,Vitrimont,54300
54,Meurthe-et-Moselle,48.970,6.0598,Vittonville,54700
54,Meurthe-et-Moselle,49.465,5.6311,Viviers-sur-Chiers,54260
54,Meurthe-et-Moselle,49.465,5.6311,Viviers-sur-Chiers,54260
54,Meurthe-et-Moselle,49.465,5.6311,Viviers-sur-Chiers,54260
54,Meurthe-et-Moselle,48.517,6.1741,Voinémont,54134
54,Meurthe-et-Moselle,48.459,6.0772,Vroncourt,54330
54,Meurthe-et-Moselle,49.012,5.9362,Waville,54890
54,Meurthe-et-Moselle,48.978,5.8489,Xammes,54470
54,Meurthe-et-Moselle,48.539,6.4769,Xermaménil,54300
54,Meurthe-et-Moselle,48.561,6.0907,Xeuilley,54990
54,Meurthe-et-Moselle,48.432,6.1762,Xirocourt,54740
54,Meurthe-et-Moselle,49.356,5.7652,Xivry-Circourt,54490
54,Meurthe-et-Moselle,49.056,5.8560,Xonville,54800
54,Meurthe-et-Moselle,48.653,6.7080,Xousse,54370
54,Meurthe-et-Moselle,48.690,6.6573,Xures,54370
54,Meurthe-et-Moselle,49.396,5.7111,Han-devant-Pierrepont,54620
