department_id,department_name,latitude,longitude,locality,postal_code
57,Moselle,49.256,6.3541,Aboncourt,57920
57,Moselle,48.818,6.3558,Aboncourt-sur-Seille,57590
57,Moselle,48.601,7.1557,Abreschviller,57560
57,Moselle,48.915,6.5903,Achain,57340
57,Moselle,49.046,7.1836,Achen,57412
57,Moselle,49.005,6.4441,Adaincourt,57580
57,Moselle,49.007,6.6063,Adelange,57380
57,Moselle,48.845,6.3036,Ajoncourt,57590
57,Moselle,48.896,6.3403,Alaincourt-la-Côte,57590
57,Moselle,48.929,6.8693,Albestroff,57670
57,Moselle,49.364,6.0482,Algrange,57440
57,Moselle,49.180,7.0011,Alsting,57515
57,Moselle,49.027,6.8155,Altrippe,57660
57,Moselle,49.068,6.7314,Altviller,57730
57,Moselle,49.276,6.5532,Alzing,57320
57,Moselle,49.159,6.0463,Amanvillers,57865
57,Moselle,48.840,6.4879,Amelécourt,57170
57,Moselle,49.239,6.0994,Amnéville,57360
57,Moselle,49.239,6.0994,Amnéville,57360
57,Moselle,49.032,6.3980,Ancerville,57580
57,Moselle,49.065,6.0447,Ancy-Dornot,57130
57,Moselle,49.065,6.0447,Ancy-Dornot,57130
57,Moselle,49.387,6.0425,Angevillers,57440
57,Moselle,49.197,6.2482,Antilly,57640
57,Moselle,49.268,6.4622,Anzeling,57320
57,Moselle,49.460,6.3860,Apach,57480
57,Moselle,48.976,6.5304,Arraincourt,57380
57,Moselle,49.198,6.2105,Argancy,57640
57,Moselle,49.018,6.5037,Arriance,57580
57,Moselle,48.994,6.0569,Arry,57680
57,Moselle,49.087,6.2687,Ars-Laquenexy,57530
57,Moselle,49.085,6.0478,Ars-sur-Moselle,57130
57,Moselle,48.721,7.1633,Arzviller,57405
57,Moselle,48.652,6.9670,Aspach,57790
57,Moselle,48.766,6.7995,Assenoncourt,57260
57,Moselle,48.790,6.3855,Attilloncourt,57170
57,Moselle,49.025,6.3360,Aube,57580
57,Moselle,49.458,5.9573,Audun-le-Tiche,57390
57,Moselle,49.055,6.1157,Augny,57685
57,Moselle,48.861,6.3282,Aulnois-sur-Seille,57590
57,Moselle,49.418,5.9468,Aumetz,57710
57,Moselle,48.655,6.8054,Avricourt,57810
57,Moselle,49.247,6.1957,Ay-sur-Moselle,57300
57,Moselle,48.730,6.8219,Azoudange,57810
57,Moselle,48.928,6.4063,Bacourt,57590
57,Moselle,48.967,7.5224,Baerenthal,57230
57,Moselle,49.101,6.5968,Bambiderstroff,57690
57,Moselle,49.121,6.4645,Bannay,57220
57,Moselle,49.124,6.1417,Le Ban-Saint-Martin,57050
57,Moselle,48.708,6.9576,Barchain,57830
57,Moselle,48.938,6.6143,Baronville,57340
57,Moselle,49.073,6.8230,Barst,57450
57,Moselle,48.872,6.8006,Bassing,57260
57,Moselle,48.960,6.4586,Baudrecourt,57580
57,Moselle,49.057,6.3850,Bazoncourt,57530
57,Moselle,48.721,6.9910,Bébing,57830
57,Moselle,48.982,6.3859,Béchy,57580
57,Moselle,49.167,6.9424,Behren-lès-Forbach,57460
57,Moselle,48.900,6.5744,Bellange,57340
57,Moselle,48.908,6.7565,Bénestroff,57670
57,Moselle,49.133,6.8374,Béning-lès-Saint-Avold,57800
57,Moselle,49.434,6.3114,Berg-sur-Moselle,57570
57,Moselle,48.972,6.6945,Bérig-Vintrange,57660
57,Moselle,48.799,7.2435,Berling,57370
57,Moselle,48.933,6.7126,Bermering,57340
57,Moselle,48.821,6.9818,Berthelming,57930
57,Moselle,49.314,6.1933,Bertrange,57310
57,Moselle,49.268,6.6516,Berviller-en-Moselle,57550
57,Moselle,49.238,6.4892,Bettange,57220
57,Moselle,48.807,7.0287,Bettborn,57930
57,Moselle,49.245,6.3137,Bettelainville,57640
57,Moselle,49.129,6.8129,Betting,57800
57,Moselle,49.075,7.2904,Bettviller,57410
57,Moselle,49.000,6.3122,Beux,57580
57,Moselle,49.468,6.2955,Beyren-lès-Sierck,57570
57,Moselle,48.732,6.6118,Bezange-la-Petite,57630
57,Moselle,49.331,6.4768,Bibiche,57320
57,Moselle,48.806,7.1708,Bickenholtz,57635
57,Moselle,48.843,6.7892,Bidestroff,57260
57,Moselle,49.063,6.7909,Biding,57660
57,Moselle,49.025,7.2475,Bining,57410
57,Moselle,48.801,6.3695,Bioncourt,57170
57,Moselle,49.111,6.4796,Bionville-sur-Nied,57220
57,Moselle,48.808,6.9001,Belles-Forêts,57930
57,Moselle,48.808,6.9001,Belles-Forêts,57930
57,Moselle,48.808,6.9001,Belles-Forêts,57930
57,Moselle,49.164,6.5995,Bisten-en-Lorraine,57220
57,Moselle,49.003,6.7038,Bistroff,57660
57,Moselle,49.047,7.4596,Bitche,57230
57,Moselle,48.789,6.6765,Blanche-Église,57260
57,Moselle,49.110,7.1785,Bliesbruck,57200
57,Moselle,49.113,7.1422,Blies-Ébersing,57200
57,Moselle,49.144,7.0949,Blies-Guersviller,57200
57,Moselle,49.149,6.6191,Boucheporn,57220
57,Moselle,49.382,5.9520,Boulange,57655
57,Moselle,49.177,6.4984,Boulay-Moselle,57220
57,Moselle,49.177,6.4984,Boulay-Moselle,57220
57,Moselle,48.874,6.7636,Bourgaltroff,57260
57,Moselle,48.724,6.7362,Bourdonnay,57810
57,Moselle,48.769,7.1980,Bourscheid,57370
57,Moselle,49.144,6.9478,Bousbach,57460
57,Moselle,49.275,6.2043,Bousse,57310
57,Moselle,49.121,7.4617,Bousseviller,57230
57,Moselle,49.435,6.1933,Boust,57570
57,Moselle,49.001,6.6311,Boustroff,57380
57,Moselle,49.298,6.5416,Bouzonville,57320
57,Moselle,48.908,6.5446,Bréhain,57340
57,Moselle,49.132,7.4185,Breidenbach,57720
57,Moselle,49.451,6.2246,Breistroff-la-Grande,57570
57,Moselle,49.258,6.5599,Brettnach,57320
57,Moselle,49.192,6.0838,Bronvaux,57535
57,Moselle,49.130,6.5088,Brouck,57220
57,Moselle,48.693,7.1006,Brouderdorff,57565
57,Moselle,48.755,7.1658,Brouviller,57635
57,Moselle,48.960,6.5493,Brulange,57340
57,Moselle,48.979,6.2845,Buchy,57420
57,Moselle,49.328,6.3237,Buding,57920
57,Moselle,49.346,6.3442,Budling,57970
57,Moselle,48.719,7.0743,Buhl-Lorraine,57400
57,Moselle,48.862,6.5795,Burlioncourt,57170
57,Moselle,49.223,6.4073,Burtoncourt,57220
57,Moselle,49.075,6.8435,Cappel,57450
57,Moselle,49.166,6.7151,Carling,57490
57,Moselle,49.415,6.2351,Cattenom,57570
57,Moselle,49.212,6.2557,Chailly-lès-Ennery,57365
57,Moselle,48.796,6.4546,Chambrey,57170
57,Moselle,49.042,6.4389,Chanville,57580
57,Moselle,49.195,6.4063,Charleville-sous-Bois,57220
57,Moselle,49.176,6.2462,Charly-Oradour,57640
57,Moselle,48.898,6.5215,Château-Bréhain,57340
57,Moselle,49.283,6.5964,Château-Rouge,57320
57,Moselle,48.819,6.4931,Château-Salins,57170
57,Moselle,48.819,6.4931,Château-Salins,57170
57,Moselle,48.847,6.6276,Château-Voué,57170
57,Moselle,48.847,6.6276,Château-Voué,57170
57,Moselle,49.131,6.0658,Châtel-Saint-Germain,57160
57,Moselle,49.300,6.4436,Chémery-les-Deux,57320
57,Moselle,48.956,6.1377,Cheminot,57420
57,Moselle,48.957,6.4891,Chenois,57580
57,Moselle,49.010,6.2456,Chérisey,57420
57,Moselle,49.052,6.2436,Chesny,57245
57,Moselle,48.919,6.5050,Chicourt,57590
57,Moselle,49.157,6.2203,Chieulles,57070
57,Moselle,49.263,6.0874,Clouange,57185
57,Moselle,49.143,6.8532,Cocheren,57800
57,Moselle,49.143,6.8532,Cocheren,57800
57,Moselle,49.106,6.2692,Coincy,57530
57,Moselle,49.024,6.1366,Coin-lès-Cuvry,57420
57,Moselle,49.010,6.1597,Coin-sur-Seille,57420
57,Moselle,49.096,6.3361,Colligny-Maizery,57530
57,Moselle,49.350,6.5339,Colmen,57320
57,Moselle,49.155,6.4274,Condé-Northen,57220
57,Moselle,49.155,6.4274,Condé-Northen,57220
57,Moselle,48.891,6.6640,Conthil,57340
57,Moselle,49.456,6.3507,Contz-les-Bains,57480
57,Moselle,49.029,6.0725,Corny-sur-Moselle,57680
57,Moselle,49.196,6.5831,Coume,57220
57,Moselle,49.118,6.3997,Courcelles-Chaussy,57530
57,Moselle,49.118,6.3997,Courcelles-Chaussy,57530
57,Moselle,49.057,6.3077,Courcelles-sur-Nied,57530
57,Moselle,48.876,6.3328,Craincourt,57590
57,Moselle,49.050,6.5751,Créhange,57690
57,Moselle,49.209,6.6808,Creutzwald,57150
57,Moselle,48.844,6.8352,Cutting,57260
57,Moselle,49.039,6.1614,Cuvry,57420
57,Moselle,48.642,7.2392,Dabo,57850
57,Moselle,48.642,7.2392,Dabo,57850
57,Moselle,49.240,6.6129,Dalem,57550
57,Moselle,48.888,6.5644,Dalhain,57340
57,Moselle,49.306,6.4017,Dalstein,57320
57,Moselle,48.761,7.2906,Danne-et-Quatre-Vents,57370
57,Moselle,48.743,7.2383,Dannelbourg,57820
57,Moselle,48.883,6.3852,Delme,57590
57,Moselle,49.183,6.5422,Denting,57220
57,Moselle,48.785,6.8447,Desseling,57260
57,Moselle,48.945,6.5847,Destry,57340
57,Moselle,48.728,6.9347,Diane-Capelle,57830
57,Moselle,49.104,6.9358,Diebling,57980
57,Moselle,48.807,6.7173,Dieuze,57260
57,Moselle,49.006,6.8553,Diffembach-lès-Hellimer,57660
57,Moselle,49.336,6.2625,Distroff,57925
57,Moselle,48.770,7.0213,Dolving,57400
57,Moselle,48.861,6.8240,Domnom-lès-Dieuze,57260
57,Moselle,48.878,6.4110,Donjeux,57590
57,Moselle,48.750,6.6888,Donnelay,57810
57,Moselle,49.280,6.3999,Ébersviller,57320
57,Moselle,49.221,6.4871,Éblange,57220
57,Moselle,49.024,7.5200,Éguelshardt,57230
57,Moselle,48.985,6.6009,Eincheville,57340
57,Moselle,49.050,6.5440,Elvange,57690
57,Moselle,49.360,6.2924,Elzange,57970
57,Moselle,49.020,7.3288,Enchenberg,57415
57,Moselle,49.227,6.2187,Ennery,57365
57,Moselle,49.414,6.1109,Entrange,57330
57,Moselle,49.105,7.3194,Epping,57720
57,Moselle,49.114,7.2653,Erching,57720
57,Moselle,49.063,6.9750,Ernestviller,57510
57,Moselle,48.980,6.7759,Erstroff,57660
57,Moselle,49.416,6.0673,Escherange,57330
57,Moselle,49.145,6.3746,Les Étangs,57530
57,Moselle,49.025,7.1869,Etting,57412
57,Moselle,49.180,6.9582,Etzling,57460
57,Moselle,49.501,6.1939,Évrange,57570
57,Moselle,49.163,6.2720,Failly,57640
57,Moselle,49.163,6.2720,Failly,57640
57,Moselle,49.225,6.6382,Falck,57550
57,Moselle,49.298,6.1064,Fameck,57290
57,Moselle,49.298,6.1064,Fameck,57290
57,Moselle,49.298,6.1064,Fameck,57290
57,Moselle,49.116,6.8677,Farébersviller,57450
57,Moselle,49.090,6.8842,Farschviller,57450
57,Moselle,49.035,6.5940,Faulquemont,57380
57,Moselle,49.035,6.5940,Faulquemont,57380
57,Moselle,48.850,7.0098,Fénétrange,57930
57,Moselle,49.189,6.1069,Fèves,57280
57,Moselle,49.029,6.0997,Féy,57420
57,Moselle,49.324,6.5302,Filstroff,57320
57,Moselle,49.442,6.2731,Fixem,57570
57,Moselle,49.374,6.5362,Flastroff,57320
57,Moselle,48.791,7.1641,Fleisheim,57635
57,Moselle,49.072,6.5639,Flétrange,57690
57,Moselle,49.037,6.2054,Fleury,57420
57,Moselle,49.240,6.2639,Flévy,57365
57,Moselle,48.972,6.4117,Flocourt,57580
57,Moselle,49.328,6.1228,Florange,57190
57,Moselle,49.328,6.1228,Florange,57190
57,Moselle,49.151,6.9062,Folkling,57600
57,Moselle,49.069,6.6846,Folschviller,57730
57,Moselle,48.876,6.4783,Fonteny,57590
57,Moselle,49.357,5.9967,Fontoy,57650
57,Moselle,49.191,6.8927,Forbach,57600
57,Moselle,49.191,6.8927,Forbach,57600
57,Moselle,49.191,6.8927,Forbach,57600
57,Moselle,48.850,6.3308,Fossieux,57590
57,Moselle,48.640,6.8677,Foulcrey,57830
57,Moselle,49.096,6.5136,Fouligny,57220
57,Moselle,48.918,6.3250,Foville,57420
57,Moselle,48.962,6.7955,Francaltroff,57670
57,Moselle,48.635,6.9894,Fraquelfing,57790
57,Moselle,49.133,7.1153,Frauenberg,57200
57,Moselle,49.289,6.4826,Freistroff,57320
57,Moselle,48.924,6.4734,Frémery,57590
57,Moselle,49.014,6.7854,Frémestroff,57660
57,Moselle,48.838,6.4401,Fresnes-en-Saulnois,57170
57,Moselle,48.998,6.7786,Freybouse,57660
57,Moselle,49.152,6.7973,Freyming-Merlebach,57800
57,Moselle,49.152,6.7973,Freyming-Merlebach,57800
57,Moselle,48.770,6.8719,Fribourg,57810
57,Moselle,49.273,6.1335,Gandrange,57175
57,Moselle,48.708,7.2371,Garrebourg,57820
57,Moselle,49.434,6.2879,Gavisse,57570
57,Moselle,48.761,6.7373,Gelucourt,57260
57,Moselle,48.851,6.5159,Gerbécourt,57170
57,Moselle,48.929,6.9178,Givrycourt,57670
57,Moselle,49.141,6.3476,Glatigny,57530
57,Moselle,48.974,7.3772,Goetzenbruck,57620
57,Moselle,48.974,7.3772,Goetzenbruck,57620
57,Moselle,48.987,6.2230,Goin,57420
57,Moselle,49.238,6.4614,Gomelange,57220
57,Moselle,49.238,6.4614,Gomelange,57220
57,Moselle,48.691,6.9076,Gondrexange,57815
57,Moselle,49.058,5.9912,Gorze,57680
57,Moselle,48.790,6.9850,Gosselming,57930
57,Moselle,49.111,6.0242,Gravelotte,57130
57,Moselle,48.810,6.4114,Grémecey,57170
57,Moselle,48.974,6.8416,Gréning,57660
57,Moselle,49.382,6.5135,Grindorff-Bizing,57480
57,Moselle,49.155,7.0222,Grosbliederstroff,57520
57,Moselle,49.068,7.2189,Gros-Réderching,57410
57,Moselle,48.981,6.7402,Grostenquin,57660
57,Moselle,49.048,6.9839,Grundviller,57510
57,Moselle,49.076,6.9508,Guebenhouse,57510
57,Moselle,48.841,6.7139,Guébestroff,57260
57,Moselle,48.777,6.7014,Guéblange-lès-Dieuze,57260
57,Moselle,48.980,6.9564,Le Val-de-Guéblange,57430
57,Moselle,48.867,6.7371,Guébling,57260
57,Moselle,49.298,6.2043,Guénange,57310
57,Moselle,48.829,6.6904,Val-de-Bride,57260
57,Moselle,48.829,6.6904,Val-de-Bride,57260
57,Moselle,49.104,6.8048,Guenviller,57470
57,Moselle,48.802,6.8198,Guermange,57260
57,Moselle,49.324,6.5763,Guerstling,57320
57,Moselle,49.193,6.6191,Guerting,57880
57,Moselle,49.022,6.6681,Guessling-Hémering,57380
57,Moselle,49.070,6.5171,Guinglange,57690
57,Moselle,49.207,6.4451,Guinkirchen,57220
57,Moselle,48.880,6.8439,Guinzeling,57670
57,Moselle,48.704,7.1630,Guntzviller,57405
57,Moselle,48.885,6.6034,Haboudange,57340
57,Moselle,49.496,6.1655,Hagen,57570
57,Moselle,49.246,6.1585,Hagondange,57300
57,Moselle,49.123,6.5552,Hallering,57690
57,Moselle,49.387,6.4772,Halstroff,57480
57,Moselle,49.375,6.2386,Basse-Ham,57970
57,Moselle,49.182,6.6492,Ham-sous-Varsberg,57880
57,Moselle,49.054,7.0376,Hambach,57910
57,Moselle,48.831,6.5857,Hampont,57170
57,Moselle,48.815,7.2328,Hangviller,57370
57,Moselle,48.914,6.4520,Hannocourt,57590
57,Moselle,48.990,6.4447,Han-sur-Nied,57580
57,Moselle,49.103,7.4422,Hanviller,57230
57,Moselle,48.808,6.6056,Haraucourt-sur-Seille,57630
57,Moselle,49.221,6.6047,Hargarten-aux-Mines,57550
57,Moselle,48.966,6.6551,Harprich,57340
57,Moselle,48.662,7.1741,Harreberg,57870
57,Moselle,48.670,7.0877,Hartzviller,57870
57,Moselle,48.689,7.2218,Haselbourg,57850
57,Moselle,49.076,7.4953,Haspelschiedt,57230
57,Moselle,48.627,6.9612,Hattigny,57790
57,Moselle,49.211,6.1843,Hauconcourt,57280
57,Moselle,48.762,6.9914,Haut-Clocher,57400
57,Moselle,49.388,6.0010,Havange,57650
57,Moselle,49.330,6.0664,Hayange,57700
57,Moselle,49.330,6.0664,Hayange,57700
57,Moselle,49.330,6.0664,Hayange,57700
57,Moselle,49.169,6.3785,Hayes,57530
57,Moselle,48.961,6.9425,Hazembourg,57430
57,Moselle,49.306,6.5975,Heining-lès-Bouzonville,57320
57,Moselle,48.808,7.0660,Hellering-lès-Fénétrange,57930
57,Moselle,48.995,6.8255,Hellimer,57660
57,Moselle,49.152,6.4823,Helstroff,57220
57,Moselle,49.047,6.4911,Hémilly,57690
57,Moselle,48.699,6.9711,Héming,57830
57,Moselle,48.732,7.2113,Henridorff,57820
57,Moselle,49.099,6.8565,Henriville,57450
57,Moselle,48.777,7.1728,Hérange,57635
57,Moselle,48.681,7.0155,Hermelange,57790
57,Moselle,49.003,6.4805,Herny,57580
57,Moselle,48.691,6.9543,Hertzing,57830
57,Moselle,48.687,7.0519,Hesse,57400
57,Moselle,49.263,6.4293,Hestroff,57320
57,Moselle,49.417,6.1525,Hettange-Grande,57330
57,Moselle,48.780,7.1004,Hilbesheim,57400
57,Moselle,49.005,6.9113,Hilsprich,57510
57,Moselle,49.187,6.4485,Hinckange,57220
57,Moselle,48.977,6.5081,Holacourt,57380
57,Moselle,49.257,6.4998,Holling,57220
57,Moselle,49.014,6.9684,Holving,57510
57,Moselle,49.287,6.3557,Hombourg-Budange,57920
57,Moselle,49.127,6.7743,Hombourg-Haut,57470
57,Moselle,48.738,7.1443,Hommarting,57405
57,Moselle,48.677,7.1771,Hommert,57870
57,Moselle,48.940,6.9638,Honskirch,57670
57,Moselle,49.157,6.7326,L'Hôpital,57490
57,Moselle,49.057,6.8613,Hoste,57510
57,Moselle,49.078,7.3580,Hottviller,57720
57,Moselle,48.718,7.2630,Hultehouse,57820
57,Moselle,49.101,6.9852,Hundling,57990
57,Moselle,49.414,6.3294,Hunting,57480
57,Moselle,48.645,6.8979,Ibigny,57830
57,Moselle,49.328,6.1793,Illange,57970
57,Moselle,48.710,7.0190,Imling,57400
57,Moselle,49.345,6.3003,Inglange,57970
57,Moselle,48.954,6.8861,Insming,57670
57,Moselle,48.890,6.9098,Insviller,57670
57,Moselle,49.105,7.0040,Ippling,57990
57,Moselle,48.834,6.3946,Jallaucourt,57590
57,Moselle,49.063,6.0850,Jouy-aux-Arches,57130
57,Moselle,49.072,6.2566,Jury,57245
57,Moselle,49.100,6.0801,Jussy,57130
57,Moselle,48.767,6.6566,Juvelize,57630
57,Moselle,48.930,6.3588,Juville,57590
57,Moselle,49.023,7.1445,Kalhausen,57412
57,Moselle,49.435,6.1146,Kanfen,57330
57,Moselle,48.975,6.9099,Kappelkinger,57430
57,Moselle,49.310,6.3434,Kédange-sur-Canner,57920
57,Moselle,49.324,6.3952,Kemplich,57920
57,Moselle,49.162,6.9740,Kerbach,57460
57,Moselle,49.391,6.3726,Kerling-lès-Sierck,57480
57,Moselle,48.736,6.9600,Kerprich-aux-Bois,57830
57,Moselle,49.437,6.4105,Kirsch-lès-Sierck,57480
57,Moselle,49.403,6.4341,Kirschnaumen,57480
57,Moselle,48.957,6.9814,Kirviller,57430
57,Moselle,49.318,6.3704,Klang,57920
57,Moselle,49.337,6.0331,Knutange,57240
57,Moselle,49.388,6.2861,Kœnigsmacker,57970
57,Moselle,49.455,6.3177,Haute-Kontz,57480
57,Moselle,49.348,6.2367,Kuntzig,57970
57,Moselle,49.078,6.7537,Lachambre,57730
57,Moselle,48.603,7.0237,Lafrimbolle,57560
57,Moselle,48.687,6.7122,Lagarde,57810
57,Moselle,49.029,7.3642,Lambach,57410
57,Moselle,48.668,6.9605,Landange,57830
57,Moselle,48.965,6.6165,Landroff,57340
57,Moselle,48.651,7.0053,Laneuveville-lès-Lorquin,57790
57,Moselle,48.866,6.4446,Laneuveville-en-Saulnois,57590
57,Moselle,48.762,6.9588,Langatte,57400
57,Moselle,48.730,6.8777,Languimberg,57810
57,Moselle,49.028,6.7714,Laning,57660
57,Moselle,49.079,6.3141,Laquenexy,57530
57,Moselle,49.082,6.6421,Laudrefang,57385
57,Moselle,49.368,6.4437,Laumesfeld,57480
57,Moselle,49.434,6.5006,Launstroff,57480
57,Moselle,49.041,6.7105,Lelling,57660
57,Moselle,49.010,7.3824,Lemberg,57620
57,Moselle,48.863,6.3871,Lemoncourt,57590
57,Moselle,49.033,6.3636,Lemud,57580
57,Moselle,49.106,7.4078,Lengelsheim,57720
57,Moselle,48.958,6.8192,Léning,57670
57,Moselle,48.951,6.5159,Lesse,57580
57,Moselle,49.127,6.0995,Lessy,57160
57,Moselle,48.736,6.6550,Ley,57810
57,Moselle,49.029,6.8415,Leyviller,57660
57,Moselle,48.757,6.6218,Lezey,57630
57,Moselle,48.881,6.7139,Lidrezing,57340
57,Moselle,49.121,7.4960,Liederschiedt,57230
57,Moselle,48.993,6.2604,Liéhon,57420
57,Moselle,48.799,6.7490,Lindre-Basse,57260
57,Moselle,48.819,6.7563,Lindre-Haute,57260
57,Moselle,48.911,6.3417,Liocourt,57590
57,Moselle,48.787,7.1450,Lixheim,57635
57,Moselle,49.151,6.9907,Lixing-lès-Rouhling,57520
57,Moselle,49.034,6.7403,Lixing-lès-Saint-Avold,57660
57,Moselle,48.886,6.8716,Lhor,57670
57,Moselle,49.328,5.9709,Lommerange,57650
57,Moselle,49.114,6.1465,Longeville-lès-Metz,57050
57,Moselle,49.119,6.6482,Longeville-lès-Saint-Avold,57740
57,Moselle,48.666,7.0009,Lorquin,57790
57,Moselle,49.144,6.1090,Lorry-lès-Metz,57050
57,Moselle,48.983,6.0942,Lorry-Mardigny,57420
57,Moselle,48.865,6.8639,Lostroff,57670
57,Moselle,48.852,6.8933,Loudrefing,57670
57,Moselle,49.080,6.9151,Loupershouse,57510
57,Moselle,49.144,7.3844,Loutzviller,57720
57,Moselle,48.960,6.1825,Louvigny,57420
57,Moselle,48.843,6.5100,Lubécourt,57170
57,Moselle,48.940,6.4769,Lucy,57590
57,Moselle,48.980,6.3409,Luppy,57580
57,Moselle,49.273,6.2963,Luttange,57935
57,Moselle,48.734,7.2595,Lutzelbourg,57820
57,Moselle,49.094,6.7686,Macheren,57730
57,Moselle,49.094,6.7686,Macheren,57730
57,Moselle,49.020,6.5425,Mainvillers,57380
57,Moselle,49.086,6.3886,Maizeroy,57530
57,Moselle,49.110,6.3423,Maizery,57530
57,Moselle,49.208,6.1561,Maizières-lès-Metz,57280
57,Moselle,48.709,6.7840,Maizières-lès-Vic,57810
57,Moselle,48.843,6.3589,Malaucourt-sur-Seille,57590
57,Moselle,49.414,6.3067,Malling,57480
57,Moselle,49.174,6.2168,Malroy,57640
57,Moselle,49.453,6.4498,Manderen,57480
57,Moselle,48.826,6.3412,Manhoué,57590
57,Moselle,49.380,6.1747,Manom,57100
57,Moselle,49.000,6.5277,Many,57380
57,Moselle,49.215,6.1123,Marange-Silvange,57535
57,Moselle,49.116,6.5294,Marange-Zondrange,57690
57,Moselle,49.005,6.1107,Marieulles,57420
57,Moselle,48.889,6.7889,Marimont-lès-Bénestroff,57670
57,Moselle,49.065,6.1523,Marly,57155
57,Moselle,48.782,6.6158,Marsal,57630
57,Moselle,49.095,6.3072,Marsilly,57530
57,Moselle,48.929,6.5590,Marthille,57340
57,Moselle,49.161,6.1920,La Maxe,57140
57,Moselle,49.046,6.8040,Maxstadt,57660
57,Moselle,49.051,6.2779,Mécleuves,57245
57,Moselle,49.224,6.4364,Mégange,57220
57,Moselle,48.970,7.3461,Meisenthal,57960
57,Moselle,49.320,6.4294,Menskirch,57320
57,Moselle,49.461,6.4162,Merschweiller,57480
57,Moselle,49.246,6.6634,Merten,57550
57,Moselle,48.640,7.0377,Métairies-Saint-Quirin,57560
57,Moselle,48.811,7.2054,Metting,57370
57,Moselle,49.108,6.1955,Metz,57000
57,Moselle,49.108,6.1955,Metz,57050
57,Moselle,49.108,6.1955,Metz,57070
57,Moselle,49.294,6.3074,Metzeresche,57920
57,Moselle,49.316,6.2891,Metzervisse,57940
57,Moselle,49.099,6.9613,Metzing,57980
57,Moselle,49.137,6.2414,Mey,57070
57,Moselle,48.765,7.2261,Mittelbronn,57370
57,Moselle,48.855,6.9442,Mittersheim,57930
57,Moselle,48.890,6.8236,Molring,57670
57,Moselle,49.154,6.5324,Momerstroff,57220
57,Moselle,48.946,6.3361,Moncheux,57420
57,Moselle,48.717,6.6403,Moncourt,57810
57,Moselle,49.263,6.1724,Mondelange,57300
57,Moselle,49.502,6.2557,Mondorff,57570
57,Moselle,49.349,6.4119,Monneren,57920
57,Moselle,48.997,7.3062,Montbronn,57415
57,Moselle,48.932,6.8154,Montdidier,57670
57,Moselle,49.414,6.3863,Montenach,57480
57,Moselle,49.095,6.1545,Montigny-lès-Metz,57950
57,Moselle,49.221,6.0274,Montois-la-Montagne,57860
57,Moselle,49.120,6.2888,Ogy-Montoy-Flanville,57645
57,Moselle,48.927,6.6421,Morhange,57340
57,Moselle,49.167,6.8665,Morsbach,57600
57,Moselle,48.815,6.5472,Morville-lès-Vic,57170
57,Moselle,48.949,6.4292,Morville-sur-Nied,57590
57,Moselle,49.092,6.1185,Moulins-lès-Metz,57160
57,Moselle,49.092,6.1185,Moulins-lès-Metz,57160
57,Moselle,48.671,6.7787,Moussey,57770
57,Moselle,48.990,7.4383,Mouterhouse,57620
57,Moselle,48.783,6.5700,Moyenvic,57630
57,Moselle,49.253,6.0371,Moyeuvre-Grande,57250
57,Moselle,49.253,6.0371,Moyeuvre-Grande,57250
57,Moselle,49.279,6.0203,Moyeuvre-Petite,57250
57,Moselle,48.807,6.6640,Mulcey,57260
57,Moselle,48.908,6.8930,Munster,57670
57,Moselle,49.136,6.5468,Narbéfontaine,57220
57,Moselle,48.908,6.8142,Nébing,57670
57,Moselle,48.970,6.8651,Nelling,57670
57,Moselle,49.317,6.0139,Neufchef,57700
57,Moselle,49.074,7.0668,Neufgrange,57910
57,Moselle,48.680,6.9725,Neufmoulins,57830
57,Moselle,48.934,6.7792,Neufvillage,57670
57,Moselle,49.349,6.5607,Neunkirchen-lès-Bouzonville,57320
57,Moselle,48.627,7.0082,Niderhoff,57560
57,Moselle,48.710,7.1179,Niderviller,57565
57,Moselle,48.871,7.0138,Niederstinzel,57930
57,Moselle,49.161,6.5649,Niedervisse,57220
57,Moselle,49.344,6.0505,Nilvange,57240
57,Moselle,48.661,7.0490,Nitting,57790
57,Moselle,49.133,6.2724,Noisseville,57645
57,Moselle,49.179,6.1109,Norroy-le-Veneur,57140
57,Moselle,49.134,6.2558,Nouilly,57645
57,Moselle,49.100,7.3737,Nousseviller-lès-Bitche,57720
57,Moselle,49.129,6.9712,Nousseviller-Saint-Nabor,57990
57,Moselle,49.032,6.0387,Novéant-sur-Moselle,57680
57,Moselle,49.274,6.5813,Oberdorff,57320
57,Moselle,49.114,7.2233,Obergailbach,57720
57,Moselle,48.791,7.0362,Oberstinzel,57930
57,Moselle,49.150,6.5788,Obervisse,57220
57,Moselle,48.851,6.5987,Obreck,57170
57,Moselle,49.172,6.9093,Œting,57600
57,Moselle,49.110,6.3156,Ogy,57530
57,Moselle,48.718,6.6872,Ommeray,57810
57,Moselle,48.858,6.4131,Oriocourt,57590
57,Moselle,49.133,7.3348,Ormersviller,57720
57,Moselle,49.030,6.2488,Orny,57420
57,Moselle,48.901,6.4856,Oron,57590
57,Moselle,49.437,6.0070,Ottange,57840
57,Moselle,49.216,6.5223,Ottonville,57220
57,Moselle,49.370,6.3483,Oudrenne,57970
57,Moselle,48.967,6.2199,Pagny-lès-Goin,57420
57,Moselle,49.081,6.3552,Pange,57530
57,Moselle,49.072,6.2244,Peltre,57245
57,Moselle,49.054,7.3162,Petit-Réderching,57410
57,Moselle,48.988,6.8690,Petit-Tenquin,57660
57,Moselle,49.209,6.8592,Petite-Rosselle,57540
57,Moselle,48.788,6.4110,Pettoncourt,57170
57,Moselle,48.908,6.6218,Pévange,57340
57,Moselle,48.766,7.2635,Phalsbourg,57370
57,Moselle,49.002,7.5661,Philippsbourg,57230
57,Moselle,49.245,6.4120,Piblange,57220
57,Moselle,49.245,6.4120,Piblange,57220
57,Moselle,49.225,6.0957,Pierrevillers,57120
57,Moselle,48.690,7.1468,Plaine-de-Walsch,57870
57,Moselle,49.130,6.1242,Plappeville,57050
57,Moselle,49.170,6.1123,Plesnois,57140
57,Moselle,48.995,6.1825,Pommérieux,57420
57,Moselle,49.016,6.2935,Pontoy,57420
57,Moselle,49.049,6.6380,Pontpierre,57380
57,Moselle,49.160,6.6653,Porcelette,57890
57,Moselle,48.855,7.0747,Postroff,57930
57,Moselle,49.054,6.1945,Pouilly,57420
57,Moselle,49.018,6.1538,Pournoy-la-Chétive,57420
57,Moselle,49.014,6.2065,Pournoy-la-Grasse,57420
57,Moselle,48.926,6.4339,Prévocourt,57590
57,Moselle,49.053,6.9184,Puttelange-aux-Lacs,57510
57,Moselle,49.485,6.2567,Puttelange-lès-Thionville,57570
57,Moselle,48.843,6.5485,Puttigny,57170
57,Moselle,48.890,6.3625,Puzieux,57590
57,Moselle,48.925,6.6789,Racrange,57340
57,Moselle,48.996,7.2386,Rahling,57410
57,Moselle,49.295,6.0551,Ranguevaux,57700
57,Moselle,49.090,6.4775,Raville,57530
57,Moselle,48.678,6.8427,Réchicourt-le-Château,57810
57,Moselle,49.491,5.9162,Rédange,57390
57,Moselle,48.749,7.1045,Réding,57445
57,Moselle,49.268,6.5127,Rémelfang,57320
57,Moselle,49.089,7.0857,Rémelfing,57200
57,Moselle,49.413,6.4814,Rémeling,57480
57,Moselle,49.259,6.6288,Rémering,57550
57,Moselle,49.032,6.9317,Rémering-lès-Puttelange,57510
57,Moselle,49.006,6.3892,Rémilly,57580
57,Moselle,48.949,6.8430,Réning,57670
57,Moselle,49.489,6.2028,Basse-Rentgen,57570
57,Moselle,49.133,6.3163,Retonfey,57645
57,Moselle,49.434,6.3374,Rettel,57480
57,Moselle,49.038,7.3955,Reyersviller,57230
57,Moselle,49.089,5.9838,Rezonville,57130
57,Moselle,48.755,6.9070,Rhodes,57810
57,Moselle,48.889,6.6324,Riche,57340
57,Moselle,49.033,6.9737,Richeling,57510
57,Moselle,49.284,6.1626,Richemont,57270
57,Moselle,48.633,6.9123,Richeval,57830
57,Moselle,49.093,7.2583,Rimling,57720
57,Moselle,49.437,6.4635,Ritzing,57480
57,Moselle,49.409,6.0271,Rochonvillers,57840
57,Moselle,48.910,6.7144,Rodalbe,57340
57,Moselle,49.463,6.2471,Rodemack,57570
57,Moselle,49.040,7.2773,Rohrbach-lès-Bitche,57410
57,Moselle,49.172,7.4221,Rolbing,57720
57,Moselle,49.244,6.0882,Rombas,57120
57,Moselle,48.833,7.0057,Romelfing,57930
57,Moselle,49.200,6.0518,Roncourt,57860
57,Moselle,49.089,7.5228,Roppeviller,57230
57,Moselle,48.829,6.8400,Rorbach-lès-Dieuze,57260
57,Moselle,49.159,6.8560,Rosbruck,57800
57,Moselle,49.266,6.0610,Rosselange,57780
57,Moselle,49.130,7.0031,Rouhling,57520
57,Moselle,49.207,6.4724,Roupeldange,57220
57,Moselle,49.460,6.1778,Roussy-le-Village,57330
57,Moselle,49.119,6.0528,Rozérieulles,57160
57,Moselle,49.270,6.2345,Rurange-lès-Thionville,57310
57,Moselle,49.487,5.9458,Russange,57390
57,Moselle,49.441,6.3762,Rustroff,57480
57,Moselle,48.941,6.3020,Sailly-Achâtel,57420
57,Moselle,49.128,6.7123,Saint-Avold,57500
57,Moselle,49.162,6.3182,Sainte-Barbe,57640
57,Moselle,48.970,6.4328,Saint-Epvre,57580
57,Moselle,49.346,6.4482,Saint-François-Lacroix,57320
57,Moselle,48.657,6.9270,Saint-Georges,57830
57,Moselle,49.230,6.3617,Saint-Hubert,57640
57,Moselle,48.809,6.9581,Saint-Jean-de-Bassel,57930
57,Moselle,48.757,7.1942,Saint-Jean-Kourtzerode,57370
57,Moselle,49.026,6.8794,Saint-Jean-Rohrbach,57510
57,Moselle,49.139,6.2087,Saint-Julien-lès-Metz,57070
57,Moselle,48.943,6.2327,Saint-Jure,57420
57,Moselle,48.710,7.1949,Saint-Louis,57820
57,Moselle,48.990,7.3527,Saint-Louis-lès-Bitche,57620
57,Moselle,49.191,6.0072,Sainte-Marie-aux-Chênes,57255
57,Moselle,48.814,6.6377,Saint-Médard,57260
57,Moselle,49.185,6.0408,Saint-Privat-la-Montagne,57855
57,Moselle,48.584,7.1141,Saint-Quirin,57560
57,Moselle,49.106,6.0956,Sainte-Ruffine,57130
57,Moselle,48.789,6.4933,Salonnes,57170
57,Moselle,49.185,6.2792,Sanry-lès-Vigy,57640
57,Moselle,49.053,6.3421,Sanry-sur-Nied,57530
57,Moselle,48.995,7.0115,Sarralbe,57430
57,Moselle,48.774,7.0622,Sarraltroff,57400
57,Moselle,48.737,7.0468,Sarrebourg,57400
57,Moselle,49.108,7.0694,Sarreguemines,57200
57,Moselle,49.108,7.0694,Sarreguemines,57200
57,Moselle,49.092,7.1195,Sarreinsming,57905
57,Moselle,49.160,6.0950,Saulny,57140
57,Moselle,48.821,7.1554,Schalbach,57370
57,Moselle,49.007,7.1860,Schmittviller,57412
57,Moselle,48.695,7.0816,Schneckenbusch,57400
57,Moselle,49.213,6.9204,Schœneck,57350
57,Moselle,49.080,7.4059,Schorbach,57230
57,Moselle,49.372,6.5721,Schwerdorff,57320
57,Moselle,49.160,7.3962,Schweyen,57720
57,Moselle,49.114,6.1198,Scy-Chazelles,57160
57,Moselle,48.948,6.2716,Secourt,57420
57,Moselle,49.107,6.8322,Seingbouse,57455
57,Moselle,49.197,6.1377,Semécourt,57280
57,Moselle,49.322,6.0935,Serémange-Erzange,57290
57,Moselle,49.079,6.4393,Servigny-lès-Raville,57530
57,Moselle,49.148,6.2747,Servigny-lès-Sainte-Barbe,57640
57,Moselle,49.436,6.3595,Sierck-les-Bains,57480
57,Moselle,49.051,7.3561,Siersthal,57410
57,Moselle,48.987,6.1475,Sillegny,57420
57,Moselle,48.991,6.2801,Silly-en-Saulnois,57420
57,Moselle,49.122,6.3666,Silly-sur-Nied,57530
57,Moselle,48.968,6.2989,Solgne,57420
57,Moselle,49.039,6.3169,Sorbey,57580
57,Moselle,48.868,6.6370,Sotzeling,57170
57,Moselle,48.961,7.3199,Soucht,57960
57,Moselle,49.194,6.9704,Spicheren,57350
57,Moselle,49.194,6.9704,Spicheren,57350
57,Moselle,49.202,6.9327,Stiring-Wendel,57350
57,Moselle,49.202,6.9327,Stiring-Wendel,57350
57,Moselle,49.202,6.9327,Stiring-Wendel,57350
57,Moselle,49.053,7.5939,Sturzelbronn,57230
57,Moselle,48.966,6.5785,Suisse,57340
57,Moselle,49.234,6.1720,Talange,57525
57,Moselle,48.780,6.7622,Tarquimpol,57260
57,Moselle,49.125,6.9287,Tenteling,57980
57,Moselle,49.346,6.1322,Terville,57180
57,Moselle,49.230,6.5674,Téterchen,57220
57,Moselle,49.053,6.6696,Teting-sur-Nied,57385
57,Moselle,49.128,6.8901,Théding,57450
57,Moselle,48.991,6.5600,Thicourt,57380
57,Moselle,48.944,6.3936,Thimonville,57580
57,Moselle,49.375,6.1292,Thionville,57100
57,Moselle,49.375,6.1292,Thionville,57100
57,Moselle,49.375,6.1292,Thionville,57100
57,Moselle,49.375,6.1292,Thionville,57100
57,Moselle,48.981,6.5667,Thonville,57380
57,Moselle,48.907,6.4059,Tincry,57590
57,Moselle,48.905,6.8483,Torcheville,57670
57,Moselle,48.956,6.3733,Tragny,57580
57,Moselle,49.253,6.2427,Trémery,57300
57,Moselle,49.409,5.9823,Tressange,57710
57,Moselle,49.409,5.9823,Tressange,57710
57,Moselle,49.077,6.6167,Tritteling-Redlach,57385
57,Moselle,48.671,7.1272,Troisfontaines,57870
57,Moselle,48.671,7.1272,Troisfontaines,57870
57,Moselle,49.257,6.5958,Tromborn,57320
57,Moselle,48.559,7.0868,Turquestein-Blancrupt,57560
57,Moselle,49.305,6.1493,Uckange,57270
57,Moselle,49.052,6.7484,Vahl-Ebersing,57660
57,Moselle,48.919,6.7872,Vahl-lès-Bénestroff,57670
57,Moselle,49.022,6.6310,Vahl-lès-Faulquemont,57380
57,Moselle,48.950,6.6867,Vallerange,57340
57,Moselle,49.358,6.2623,Valmestroff,57970
57,Moselle,49.084,6.7025,Valmont,57730
57,Moselle,49.247,6.5168,Valmunster,57220
57,Moselle,48.877,6.5351,Vannecourt,57340
57,Moselle,49.132,6.2334,Vantoux,57070
57,Moselle,49.152,6.2413,Vany,57070
57,Moselle,49.125,6.4493,Varize-Vaudoncourt,57220
57,Moselle,49.125,6.4493,Varize-Vaudoncourt,57220
57,Moselle,49.174,6.6189,Varsberg,57880
57,Moselle,48.635,7.0712,Vasperviller,57560
57,Moselle,48.978,6.4742,Vatimont,57580
57,Moselle,49.276,6.5250,Vaudreching,57320
57,Moselle,49.093,6.0691,Vaux,57130
57,Moselle,48.859,6.5266,Vaxy,57170
57,Moselle,48.829,7.1863,Veckersviller,57370
57,Moselle,49.335,6.3630,Veckring,57920
57,Moselle,49.241,6.5388,Velving,57220
57,Moselle,48.840,6.7460,Vergaville,57260
57,Moselle,49.137,6.0070,Vernéville,57130
57,Moselle,49.008,6.2017,Verny,57420
57,Moselle,48.794,7.2259,Vescheim,57370
57,Moselle,48.905,6.9449,Vibersviller,57670
57,Moselle,48.774,6.5275,Vic-sur-Seille,57630
57,Moselle,48.780,7.1259,Vieux-Lixheim,57635
57,Moselle,49.095,6.5564,Haute-Vigneulles,57690
57,Moselle,48.968,6.2532,Vigny,57420
57,Moselle,49.208,6.3068,Vigy,57640
57,Moselle,48.988,6.6457,Viller,57340
57,Moselle,49.057,6.4411,Villers-Stoncourt,57530
57,Moselle,48.926,6.5281,Villers-sur-Nied,57340
57,Moselle,49.281,6.6310,Villing,57550
57,Moselle,48.790,7.2602,Vilsberg,57370
57,Moselle,49.090,5.9468,Vionville,57130
57,Moselle,48.942,6.7521,Virming,57340
57,Moselle,49.276,6.0953,Vitry-sur-Orne,57185
57,Moselle,48.948,6.9304,Vittersbourg,57670
57,Moselle,49.021,6.4556,Vittoncourt,57580
57,Moselle,48.893,6.4398,Viviers,57590
57,Moselle,49.026,6.4205,Voimhaut,57580
57,Moselle,49.170,6.4495,Volmerange-lès-Boulay,57220
57,Moselle,49.445,6.0672,Volmerange-les-Mines,57330
57,Moselle,49.120,7.3659,Volmunster,57720
57,Moselle,49.301,6.2518,Volstroff,57940
57,Moselle,48.652,7.0893,Voyer,57560
57,Moselle,49.192,6.3566,Vry,57640
57,Moselle,48.925,6.3050,Vulmont,57420
57,Moselle,49.139,7.4560,Waldhouse,57720
57,Moselle,49.357,6.4957,Waldweistroff,57320
57,Moselle,49.414,6.5225,Waldwisse,57480
57,Moselle,49.154,7.4737,Walschbronn,57720
57,Moselle,48.619,7.1886,Walscheid,57870
57,Moselle,48.749,7.1958,Waltembourg,57370
57,Moselle,49.077,7.1612,Wiesviller,57200
57,Moselle,49.024,7.0368,Willerwald,57430
57,Moselle,48.791,7.1908,Wintersbourg,57635
57,Moselle,49.053,7.1300,Wittring,57905
57,Moselle,49.292,6.6052,Vœlfling-lès-Bouzonville,57320
57,Moselle,49.085,7.1846,Wœlfling-lès-Sarreguemines,57200
57,Moselle,49.163,6.1577,Woippy,57140
57,Moselle,49.078,7.0055,Woustviller,57915
57,Moselle,48.854,6.6684,Wuisse,57170
57,Moselle,48.751,6.5874,Xanrey,57630
57,Moselle,48.909,6.3764,Xocourt,57590
57,Moselle,48.692,6.9926,Xouaxange,57830
57,Moselle,49.351,6.2017,Yutz,57970
57,Moselle,48.890,6.6883,Zarbeling,57340
57,Moselle,49.073,7.1260,Zetting,57905
57,Moselle,48.786,7.2103,Zilling,57370
57,Moselle,49.130,6.5867,Zimming,57690
57,Moselle,48.822,6.8005,Zommange,57260
57,Moselle,49.465,6.1350,Zoufftgen,57330
57,Moselle,49.175,6.6931,Diesen,57890
57,Moselle,49.324,6.2322,Stuckange,57970
