department_id,department_name,latitude,longitude,locality,postal_code
62,Pas-de-Calais,50.396,2.6972,Ablain-Saint-Nazaire,62153
62,Pas-de-Calais,50.153,2.7414,Ablainzevelle,62116
62,Pas-de-Calais,50.384,2.8820,Acheville,62320
62,Pas-de-Calais,50.272,2.7561,Achicourt,62217
62,Pas-de-Calais,50.132,2.7790,Achiet-le-Grand,62121
62,Pas-de-Calais,50.125,2.7552,Achiet-le-Petit,62121
62,Pas-de-Calais,50.349,2.6550,Acq,62144
62,Pas-de-Calais,50.729,2.0768,Acquin-Westbécourt,62380
62,Pas-de-Calais,50.729,2.0768,Acquin-Westbécourt,62380
62,Pas-de-Calais,50.193,2.7061,Adinfer,62116
62,Pas-de-Calais,50.690,2.0749,Affringues,62380
62,Pas-de-Calais,50.310,2.6502,Agnez-lès-Duisans,62161
62,Pas-de-Calais,50.353,2.6077,Agnières,62690
62,Pas-de-Calais,50.252,2.7605,Agny,62217
62,Pas-de-Calais,50.644,2.3953,Aire-sur-la-Lys,62120
62,Pas-de-Calais,50.441,1.6678,Airon-Notre-Dame,62180
62,Pas-de-Calais,50.427,1.6712,Airon-Saint-Vaast,62180
62,Pas-de-Calais,50.587,2.0001,Aix-en-Ergny,62650
62,Pas-de-Calais,50.480,1.8610,Aix-en-Issart,62170
62,Pas-de-Calais,50.421,2.7126,Aix-Noulette,62160
62,Pas-de-Calais,50.780,1.8719,Alembon,62850
62,Pas-de-Calais,50.524,1.8508,Alette,62650
62,Pas-de-Calais,50.721,1.8101,Alincthun,62142
62,Pas-de-Calais,50.532,2.5049,Allouagne,62157
62,Pas-de-Calais,50.733,1.9927,Alquines,62850
62,Pas-de-Calais,50.811,1.6210,Ambleteuse,62164
62,Pas-de-Calais,50.465,2.1712,Ambricourt,62310
62,Pas-de-Calais,50.308,2.4669,Ambrines,62127
62,Pas-de-Calais,50.535,2.4153,Ames,62190
62,Pas-de-Calais,50.527,2.3939,Amettes,62260
62,Pas-de-Calais,50.138,2.3974,Amplier,62760
62,Pas-de-Calais,50.865,1.9182,Andres,62340
62,Pas-de-Calais,50.409,2.7512,Angres,62143
62,Pas-de-Calais,50.461,2.8824,Annay,62880
62,Pas-de-Calais,50.503,2.7195,Annequin,62149
62,Pas-de-Calais,50.539,2.6190,Annezin,62232
62,Pas-de-Calais,50.450,2.2579,Anvin,62134
62,Pas-de-Calais,50.317,2.7410,Anzin-Saint-Aubin,62223
62,Pas-de-Calais,50.876,1.9839,Ardres,62610
62,Pas-de-Calais,50.876,1.9839,Ardres,62610
62,Pas-de-Calais,50.876,1.9839,Ardres,62610
62,Pas-de-Calais,50.364,2.8696,Arleux-en-Gohelle,62580
62,Pas-de-Calais,50.740,2.3190,Arques,62510
62,Pas-de-Calais,50.289,2.7658,Arras,62000
62,Pas-de-Calais,50.307,2.8419,Athies,62223
62,Pas-de-Calais,50.899,1.9369,Les Attaques,62730
62,Pas-de-Calais,50.491,1.7551,Attin,62170
62,Pas-de-Calais,50.348,2.5865,Aubigny-en-Artois,62690
62,Pas-de-Calais,50.386,1.9631,Aubin-Saint-Vaast,62140
62,Pas-de-Calais,50.303,2.1762,Aubrometz,62390
62,Pas-de-Calais,50.510,2.4687,Auchel,62260
62,Pas-de-Calais,50.550,2.3733,Auchy-au-Bois,62190
62,Pas-de-Calais,50.408,2.0953,Auchy-lès-Hesdin,62770
62,Pas-de-Calais,50.505,2.7811,Auchy-les-Mines,62138
62,Pas-de-Calais,50.858,1.6908,Audembert,62250
62,Pas-de-Calais,50.578,2.1267,Audincthun,62560
62,Pas-de-Calais,50.851,1.6084,Audinghen,62179
62,Pas-de-Calais,50.771,1.9845,Audrehem,62890
62,Pas-de-Calais,50.828,1.6112,Audresselles,62164
62,Pas-de-Calais,50.884,2.0815,Audruicq,62370
62,Pas-de-Calais,50.505,2.4067,Aumerval,62550
62,Pas-de-Calais,50.842,1.9864,Autingues,62610
62,Pas-de-Calais,50.231,2.1172,Auxi-le-Château,62390
62,Pas-de-Calais,50.345,2.4449,Averdoingt,62127
62,Pas-de-Calais,50.551,1.9621,Avesnes,62650
62,Pas-de-Calais,50.271,2.5285,Avesnes-le-Comte,62810
62,Pas-de-Calais,50.104,2.8330,Avesnes-lès-Bapaume,62450
62,Pas-de-Calais,50.403,2.8265,Avion,62210
62,Pas-de-Calais,50.479,2.1012,Avondance,62310
62,Pas-de-Calais,50.632,2.1454,Avroult,62560
62,Pas-de-Calais,50.169,2.7326,Ayette,62116
62,Pas-de-Calais,50.458,2.1171,Azincourt,62310
62,Pas-de-Calais,50.372,2.4487,Bailleul-aux-Cornailles,62127
62,Pas-de-Calais,50.507,2.3803,Bailleul-lès-Pernes,62550
62,Pas-de-Calais,50.211,2.6040,Bailleulmont,62123
62,Pas-de-Calais,50.335,2.8437,Bailleul-Sir-Berthoult,62580
62,Pas-de-Calais,50.222,2.6272,Bailleulval,62123
62,Pas-de-Calais,50.701,1.7128,Baincthun,62360
62,Pas-de-Calais,50.750,1.9021,Bainghen,62850
62,Pas-de-Calais,50.420,2.4722,Bajus,62150
62,Pas-de-Calais,50.861,1.9403,Balinghem,62610
62,Pas-de-Calais,50.101,2.8896,Bancourt,62450
62,Pas-de-Calais,50.101,2.8550,Bapaume,62450
62,Pas-de-Calais,50.213,3.0569,Baralle,62860
62,Pas-de-Calais,50.071,2.9389,Barastre,62124
62,Pas-de-Calais,50.456,2.6139,Barlin,62620
62,Pas-de-Calais,50.248,2.5384,Barly,62810
62,Pas-de-Calais,50.228,2.6474,Basseux,62123
62,Pas-de-Calais,50.223,2.5641,Bavincourt,62158
62,Pas-de-Calais,50.223,2.5641,Bavincourt,62158
62,Pas-de-Calais,50.806,2.1158,Bayenghem-lès-Éperlecques,62910
62,Pas-de-Calais,50.704,2.0757,Bayenghem-lès-Seninghem,62380
62,Pas-de-Calais,50.831,1.6583,Bazinghen,62250
62,Pas-de-Calais,50.436,2.1258,Béalencourt,62770
62,Pas-de-Calais,50.251,2.4078,Beaudricourt,62810
62,Pas-de-Calais,50.275,2.4858,Beaufort-Blavincourt,62810
62,Pas-de-Calais,50.073,2.8694,Beaulencourt,62450
62,Pas-de-Calais,50.446,1.7972,Beaumerie-Saint-Martin,62170
62,Pas-de-Calais,50.543,2.2190,Beaumetz-lès-Aire,62960
62,Pas-de-Calais,50.125,2.9865,Beaumetz-lès-Cambrai,62124
62,Pas-de-Calais,50.245,2.6588,Beaumetz-lès-Loges,62123
62,Pas-de-Calais,50.258,2.7898,Beaurains,62217
62,Pas-de-Calais,50.420,1.9031,Beaurainville,62990
62,Pas-de-Calais,50.374,2.2343,Beauvois,62130
62,Pas-de-Calais,50.639,1.9022,Bécourt,62240
62,Pas-de-Calais,50.142,2.8275,Béhagnies,62121
62,Pas-de-Calais,50.732,1.7777,Bellebrune,62142
62,Pas-de-Calais,50.747,1.7661,Belle-et-Houllefort,62142
62,Pas-de-Calais,50.300,3.0432,Bellonne,62490
62,Pas-de-Calais,50.476,2.8269,Bénifontaine,62410
62,Pas-de-Calais,50.414,1.5822,Berck,62600
62,Pas-de-Calais,50.466,2.2486,Bergueneuse,62134
62,Pas-de-Calais,50.273,2.4234,Berlencourt-le-Cauroy,62810
62,Pas-de-Calais,50.199,2.6300,Berles-au-Bois,62123
62,Pas-de-Calais,50.344,2.5258,Berles-Monchel,62690
62,Pas-de-Calais,50.407,2.2330,Bermicourt,62130
62,Pas-de-Calais,50.264,2.6733,Berneville,62123
62,Pas-de-Calais,50.554,1.7725,Bernieulles,62170
62,Pas-de-Calais,50.087,2.9812,Bertincourt,62124
62,Pas-de-Calais,50.382,2.5436,Béthonsart,62690
62,Pas-de-Calais,50.528,2.6424,Béthune,62400
62,Pas-de-Calais,50.442,2.5078,Beugin,62150
62,Pas-de-Calais,50.132,2.8760,Beugnâtre,62450
62,Pas-de-Calais,50.118,2.9321,Beugny,62124
62,Pas-de-Calais,50.558,1.8145,Beussent,62170
62,Pas-de-Calais,50.496,1.7267,Beutin,62170
62,Pas-de-Calais,50.798,1.6742,Beuvrequen,62250
62,Pas-de-Calais,50.532,2.6917,Beuvry,62660
62,Pas-de-Calais,50.598,1.8518,Bezinghem,62650
62,Pas-de-Calais,50.314,2.9414,Biache-Saint-Vaast,62118
62,Pas-de-Calais,50.118,2.8221,Biefvillers-lès-Bapaume,62450
62,Pas-de-Calais,50.166,2.6089,Bienvillers-au-Bois,62111
62,Pas-de-Calais,50.126,2.8010,Bihucourt,62121
62,Pas-de-Calais,50.519,2.8667,Billy-Berclau,62138
62,Pas-de-Calais,50.415,2.9082,Billy-Montigny,62420
62,Pas-de-Calais,50.540,1.9096,Bimont,62650
62,Pas-de-Calais,50.218,2.7138,Blairville,62173
62,Pas-de-Calais,50.324,2.2210,Blangerval-Blangermont,62270
62,Pas-de-Calais,50.324,2.2210,Blangerval-Blangermont,62270
62,Pas-de-Calais,50.423,2.1739,Blangy-sur-Ternoise,62770
62,Pas-de-Calais,50.715,2.2753,Blendecques,62575
62,Pas-de-Calais,50.664,1.9714,Bléquin,62380
62,Pas-de-Calais,50.616,2.3311,Blessy,62120
62,Pas-de-Calais,50.405,2.1501,Blingel,62770
62,Pas-de-Calais,50.256,2.1994,Boffles,62390
62,Pas-de-Calais,50.213,2.8200,Boiry-Becquerelle,62128
62,Pas-de-Calais,50.273,2.9425,Boiry-Notre-Dame,62156
62,Pas-de-Calais,50.192,2.7591,Boiry-Saint-Martin,62175
62,Pas-de-Calais,50.200,2.7463,Boiry-Sainte-Rictrude,62175
62,Pas-de-Calais,50.377,2.9133,Bois-Bernard,62320
62,Pas-de-Calais,50.749,2.0942,Boisdinghem,62500
62,Pas-de-Calais,50.408,1.7812,Boisjean,62170
62,Pas-de-Calais,50.212,2.7775,Boisleux-au-Mont,62175
62,Pas-de-Calais,50.212,2.7965,Boisleux-Saint-Marc,62175
62,Pas-de-Calais,50.569,2.2240,Bomy,62960
62,Pas-de-Calais,50.237,2.2683,Bonnières,62270
62,Pas-de-Calais,50.775,2.0218,Bonningues-lès-Ardres,62890
62,Pas-de-Calais,50.893,1.7710,Bonningues-lès-Calais,62340
62,Pas-de-Calais,50.479,1.9465,Boubers-lès-Hesmond,62990
62,Pas-de-Calais,50.291,2.2366,Boubers-sur-Canche,62270
62,Pas-de-Calais,50.727,1.6075,Boulogne-sur-Mer,62200
62,Pas-de-Calais,50.816,1.8997,Bouquehault,62340
62,Pas-de-Calais,50.576,2.4357,Bourecq,62190
62,Pas-de-Calais,50.268,2.3233,Bouret-sur-Canche,62270
62,Pas-de-Calais,50.180,3.1207,Bourlon,62860
62,Pas-de-Calais,50.698,1.8460,Bournonville,62240
62,Pas-de-Calais,50.448,2.4072,Bours,62550
62,Pas-de-Calais,50.770,1.8254,Boursin,62132
62,Pas-de-Calais,50.613,1.9349,Bourthes,62650
62,Pas-de-Calais,50.735,2.0328,Bouvelinghem,62380
62,Pas-de-Calais,50.423,2.6730,Bouvigny-Boyeffles,62172
62,Pas-de-Calais,50.472,2.3118,Boyaval,62134
62,Pas-de-Calais,50.197,2.8205,Boyelles,62128
62,Pas-de-Calais,50.338,3.0195,Brebières,62117
62,Pas-de-Calais,50.847,1.9556,Brêmes,62610
62,Pas-de-Calais,50.347,2.0212,Brévillers,62140
62,Pas-de-Calais,50.507,1.7209,Bréxent-Énocq,62170
62,Pas-de-Calais,50.435,1.8361,Brimeux,62170
62,Pas-de-Calais,50.490,2.5520,Bruay-la-Buissière,62700
62,Pas-de-Calais,50.490,2.5520,Bruay-la-Buissière,62700
62,Pas-de-Calais,50.714,1.8877,Brunembert,62240
62,Pas-de-Calais,50.411,2.3852,Brias,62130
62,Pas-de-Calais,50.145,2.6972,Bucquoy,62116
62,Pas-de-Calais,50.263,2.1530,Buire-au-Bois,62390
62,Pas-de-Calais,50.393,1.8231,Buire-le-Sec,62870
62,Pas-de-Calais,50.201,3.0297,Buissy,62860
62,Pas-de-Calais,50.192,2.9287,Bullecourt,62128
62,Pas-de-Calais,50.445,2.7191,Bully-les-Mines,62160
62,Pas-de-Calais,50.324,2.3481,Buneville,62130
62,Pas-de-Calais,50.532,2.4623,Burbure,62151
62,Pas-de-Calais,50.063,2.9636,Bus,62124
62,Pas-de-Calais,50.588,2.5138,Busnes,62350
62,Pas-de-Calais,50.843,1.8107,Caffiers,62132
62,Pas-de-Calais,50.208,2.9938,Cagnicourt,62182
62,Pas-de-Calais,50.950,1.8757,Calais,62100
62,Pas-de-Calais,50.489,2.4853,Calonne-Ricouart,62470
62,Pas-de-Calais,50.613,2.6089,Calonne-sur-la-Lys,62350
62,Pas-de-Calais,50.478,1.7177,La Calotterie,62170
62,Pas-de-Calais,50.477,2.4505,Camblain-Châtelain,62470
62,Pas-de-Calais,50.379,2.6105,Cambligneul,62690
62,Pas-de-Calais,50.373,2.6361,Camblain-l'Abbé,62690
62,Pas-de-Calais,50.511,2.7365,Cambrin,62149
62,Pas-de-Calais,50.564,1.6127,Camiers,62176
62,Pas-de-Calais,50.564,1.6127,Camiers,62176
62,Pas-de-Calais,50.618,1.9956,Campagne-lès-Boulonnais,62650
62,Pas-de-Calais,50.840,1.8985,Campagne-lès-Guines,62340
62,Pas-de-Calais,50.401,1.8663,Campagne-lès-Hesdin,62870
62,Pas-de-Calais,50.713,2.3334,Campagne-lès-Wardrecques,62120
62,Pas-de-Calais,50.431,1.7062,Campigneulles-les-Grandes,62170
62,Pas-de-Calais,50.440,1.7363,Campigneulles-les-Petites,62170
62,Pas-de-Calais,50.279,2.3633,Canettemont,62270
62,Pas-de-Calais,50.486,2.1457,Canlers,62310
62,Pas-de-Calais,50.222,2.3130,Canteleux,62270
62,Pas-de-Calais,50.345,2.6175,Capelle-Fermont,62690
62,Pas-de-Calais,50.347,1.9911,Capelle-lès-Hesdin,62140
62,Pas-de-Calais,50.378,2.7000,Carency,62144
62,Pas-de-Calais,50.654,1.7111,Carly,62830
62,Pas-de-Calais,50.489,2.9485,Carvin,62220
62,Pas-de-Calais,50.204,2.5824,La Cauchie,62158
62,Pas-de-Calais,50.504,2.4497,Cauchy-à-la-Tour,62260
62,Pas-de-Calais,50.394,2.5720,Caucourt,62150
62,Pas-de-Calais,50.293,2.0312,Caumont,62140
62,Pas-de-Calais,50.421,2.0040,Cavron-Saint-Martin,62140
62,Pas-de-Calais,50.381,2.4878,Chelers,62127
62,Pas-de-Calais,50.311,2.0344,Chériennes,62140
62,Pas-de-Calais,50.233,2.9129,Chérisy,62128
62,Pas-de-Calais,50.540,2.5622,Chocques,62920
62,Pas-de-Calais,50.769,2.3427,Clairmarais,62500
62,Pas-de-Calais,50.528,1.8845,Clenleu,62650
62,Pas-de-Calais,50.793,1.9839,Clerques,62890
62,Pas-de-Calais,50.653,2.1820,Cléty,62380
62,Pas-de-Calais,50.749,1.8272,Colembert,62142
62,Pas-de-Calais,50.342,1.6737,Colline-Beaumont,62180
62,Pas-de-Calais,50.425,2.4998,La Comté,62150
62,Pas-de-Calais,50.367,1.6749,Conchil-le-Temple,62180
62,Pas-de-Calais,50.293,2.1917,Conchy-sur-Canche,62270
62,Pas-de-Calais,50.649,1.6394,Condette,62360
62,Pas-de-Calais,50.416,1.9616,Contes,62990
62,Pas-de-Calais,50.744,1.7297,Conteville-lès-Boulogne,62126
62,Pas-de-Calais,50.432,2.3287,Conteville-en-Ternois,62130
62,Pas-de-Calais,50.929,1.8141,Coquelles,62231
62,Pas-de-Calais,50.335,3.0477,Corbehem,62112
62,Pas-de-Calais,50.563,1.7429,Cormont,62630
62,Pas-de-Calais,50.133,2.5339,Couin,62760
62,Pas-de-Calais,50.218,2.4820,Coullemont,62158
62,Pas-de-Calais,50.916,1.8865,Coulogne,62137
62,Pas-de-Calais,50.709,2.0001,Coulomby,62380
62,Pas-de-Calais,50.498,2.1082,Coupelle-Neuve,62310
62,Pas-de-Calais,50.532,2.0776,Coupelle-Vieille,62310
62,Pas-de-Calais,50.157,2.7766,Courcelles-le-Comte,62121
62,Pas-de-Calais,50.414,3.0149,Courcelles-lès-Lens,62970
62,Pas-de-Calais,50.453,2.9463,Courrières,62710
62,Pas-de-Calais,50.644,1.8518,Courset,62240
62,Pas-de-Calais,50.578,2.6995,La Couture,62136
62,Pas-de-Calais,50.206,2.4981,Couturelle,62158
62,Pas-de-Calais,50.600,2.1848,Coyecques,62560
62,Pas-de-Calais,50.700,1.7889,Crémarest,62240
62,Pas-de-Calais,50.472,2.2032,Crépy,62310
62,Pas-de-Calais,50.502,2.0386,Créquy,62310
62,Pas-de-Calais,50.353,2.2648,Croisette,62130
62,Pas-de-Calais,50.197,2.8811,Croisilles,62128
62,Pas-de-Calais,50.383,2.2727,Croix-en-Ternois,62130
62,Pas-de-Calais,50.486,1.6129,Cucq,62780
62,Pas-de-Calais,50.486,1.6129,Cucq,62780
62,Pas-de-Calais,50.486,1.6129,Cucq,62780
62,Pas-de-Calais,50.519,2.7465,Cuinchy,62149
62,Pas-de-Calais,50.277,2.7134,Dainville,62000
62,Pas-de-Calais,50.592,1.6054,Dannes,62187
62,Pas-de-Calais,50.622,2.2175,Delettes,62129
62,Pas-de-Calais,50.290,2.4471,Denier,62810
62,Pas-de-Calais,50.584,2.1557,Dennebrœucq,62560
62,Pas-de-Calais,50.674,1.8287,Desvres,62240
62,Pas-de-Calais,50.436,2.4483,Diéval,62460
62,Pas-de-Calais,50.469,2.5046,Divion,62460
62,Pas-de-Calais,50.626,2.1692,Dohem,62380
62,Pas-de-Calais,50.175,2.7103,Douchy-lès-Ayette,62116
62,Pas-de-Calais,50.623,1.8310,Doudeauville,62830
62,Pas-de-Calais,50.439,2.9872,Dourges,62119
62,Pas-de-Calais,50.338,1.8822,Douriez,62870
62,Pas-de-Calais,50.512,2.8263,Douvrin,62138
62,Pas-de-Calais,50.390,2.9322,Drocourt,62320
62,Pas-de-Calais,50.489,2.6327,Drouvin-le-Marais,62131
62,Pas-de-Calais,50.301,2.6960,Duisans,62161
62,Pas-de-Calais,50.248,3.0039,Dury,62156
62,Pas-de-Calais,50.701,1.6548,Echinghen,62360
62,Pas-de-Calais,50.396,2.1804,Éclimeux,62770
62,Pas-de-Calais,50.324,2.2855,Écoivres,62270
62,Pas-de-Calais,50.260,3.0619,Écourt-Saint-Quentin,62860
62,Pas-de-Calais,50.173,2.9019,Écoust-Saint-Mein,62128
62,Pas-de-Calais,50.560,2.4410,Ecquedecques,62190
62,Pas-de-Calais,50.675,2.2890,Ecques,62129
62,Pas-de-Calais,50.437,1.7680,Écuires,62170
62,Pas-de-Calais,50.332,2.7679,Écurie,62223
62,Pas-de-Calais,50.418,2.8115,Éleu-dit-Leauwette,62300
62,Pas-de-Calais,50.686,2.1153,Elnes,62380
62,Pas-de-Calais,50.496,1.9570,Embry,62990
62,Pas-de-Calais,50.608,2.2681,Enguinegatte,62145
62,Pas-de-Calais,50.586,2.2934,Enquin-lez-Guinegatte,62145
62,Pas-de-Calais,50.571,1.8477,Enquin-sur-Baillons,62650
62,Pas-de-Calais,50.818,2.1606,Éperlecques,62910
62,Pas-de-Calais,50.231,3.1594,Épinoy,62860
62,Pas-de-Calais,50.454,2.2960,Eps,62134
62,Pas-de-Calais,50.679,1.5762,Équihen-Plage,62224
62,Pas-de-Calais,50.479,2.2347,Équirre,62134
62,Pas-de-Calais,50.588,1.9747,Ergny,62650
62,Pas-de-Calais,50.430,2.2188,Érin,62134
62,Pas-de-Calais,50.583,2.2514,Erny-Saint-Julien,62960
62,Pas-de-Calais,50.164,2.8256,Ervillers,62121
62,Pas-de-Calais,50.911,1.7206,Escalles,62179
62,Pas-de-Calais,50.723,1.9355,Escœuilles,62850
62,Pas-de-Calais,50.700,2.1788,Esquerdes,62380
62,Pas-de-Calais,50.548,2.6619,Essars,62400
62,Pas-de-Calais,50.479,2.9072,Estevelles,62880
62,Pas-de-Calais,50.495,1.8035,Estrée,62170
62,Pas-de-Calais,50.593,2.3202,Estrée-Blanche,62145
62,Pas-de-Calais,50.399,2.6114,Estrée-Cauchy,62690
62,Pas-de-Calais,50.501,1.7793,Estréelles,62170
62,Pas-de-Calais,50.268,2.3943,Estrée-Wamin,62810
62,Pas-de-Calais,50.272,2.9981,Étaing,62156
62,Pas-de-Calais,50.523,1.6519,Étaples,62630
62,Pas-de-Calais,50.256,2.9804,Éterpigny,62156
62,Pas-de-Calais,50.317,2.6818,Étrun,62161
62,Pas-de-Calais,50.435,3.0300,Évin-Malmaison,62141
62,Pas-de-Calais,50.143,2.4577,Famechon,62760
62,Pas-de-Calais,50.299,2.8718,Fampoux,62118
62,Pas-de-Calais,50.360,2.8268,Farbus,62580
62,Pas-de-Calais,50.593,2.0998,Fauquembergues,62560
62,Pas-de-Calais,50.125,2.8590,Favreuil,62450
62,Pas-de-Calais,50.533,2.3030,Febvin-Palfart,62960
62,Pas-de-Calais,50.521,2.4312,Ferfay,62260
62,Pas-de-Calais,50.828,1.7680,Ferques,62250
62,Pas-de-Calais,50.544,2.7365,Festubert,62149
62,Pas-de-Calais,50.284,2.8492,Feuchy,62223
62,Pas-de-Calais,50.225,2.7462,Ficheux,62173
62,Pas-de-Calais,50.499,2.3210,Fiefs,62134
62,Pas-de-Calais,50.823,1.8312,Fiennes,62132
62,Pas-de-Calais,50.317,2.1617,Fillièvres,62770
62,Pas-de-Calais,50.558,2.2811,Fléchin,62960
62,Pas-de-Calais,50.321,2.2544,Flers,62270
62,Pas-de-Calais,50.638,2.8306,Fleurbaix,62840
62,Pas-de-Calais,50.423,2.2529,Fleury,62134
62,Pas-de-Calais,50.497,2.4294,Floringhem,62550
62,Pas-de-Calais,50.145,2.6226,Foncquevillers,62111
62,Pas-de-Calais,50.498,2.2839,Fontaine-lès-Boulans,62134
62,Pas-de-Calais,50.215,2.9043,Fontaine-lès-Croisilles,62128
62,Pas-de-Calais,50.527,2.3376,Fontaine-lès-Hermans,62550
62,Pas-de-Calais,50.302,2.0668,Fontaine-l'Étalon,62390
62,Pas-de-Calais,50.257,2.2298,Fortel-en-Artois,62270
62,Pas-de-Calais,50.254,2.5649,Fosseux,62810
62,Pas-de-Calais,50.349,2.3870,Foufflin-Ricametz,62130
62,Pas-de-Calais,50.520,2.5989,Fouquereuil,62232
62,Pas-de-Calais,50.512,2.6126,Fouquières-lès-Béthune,62232
62,Pas-de-Calais,50.429,2.9061,Fouquières-lès-Lens,62740
62,Pas-de-Calais,50.323,2.3053,Framecourt,62130
62,Pas-de-Calais,50.112,2.9028,Frémicourt,62450
62,Pas-de-Calais,50.561,1.6894,Frencq,62630
62,Pas-de-Calais,50.336,2.9287,Fresnes-lès-Montauban,62490
62,Pas-de-Calais,50.424,2.6041,Fresnicourt-le-Dolmen,62150
62,Pas-de-Calais,50.373,2.1376,Fresnoy,62770
62,Pas-de-Calais,50.368,2.8960,Fresnoy-en-Gohelle,62580
62,Pas-de-Calais,50.448,2.0525,Fressin,62140
62,Pas-de-Calais,50.912,1.8168,Fréthun,62185
62,Pas-de-Calais,50.270,2.2929,Frévent,62270
62,Pas-de-Calais,50.400,2.5242,Frévillers,62127
62,Pas-de-Calais,50.350,2.6357,Frévin-Capelle,62690
62,Pas-de-Calais,50.513,2.1230,Fruges,62310
62,Pas-de-Calais,50.325,2.1300,Galametz,62770
62,Pas-de-Calais,50.408,2.5782,Gauchin-Légal,62150
62,Pas-de-Calais,50.389,2.3155,Gauchin-Verloingt,62130
62,Pas-de-Calais,50.175,2.5287,Gaudiempré,62760
62,Pas-de-Calais,50.326,2.8856,Gavrelle,62580
62,Pas-de-Calais,50.274,2.0631,Gennes-Ivergny,62390
62,Pas-de-Calais,50.392,2.7778,Givenchy-en-Gohelle,62580
62,Pas-de-Calais,50.299,2.4906,Givenchy-le-Noble,62810
62,Pas-de-Calais,50.531,2.7603,Givenchy-lès-la-Bassée,62149
62,Pas-de-Calais,50.148,2.8001,Gomiécourt,62121
62,Pas-de-Calais,50.137,2.6528,Gommecourt,62111
62,Pas-de-Calais,50.564,2.5674,Gonnehem,62920
62,Pas-de-Calais,50.508,2.5872,Gosnay,62199
62,Pas-de-Calais,50.296,2.6444,Gouves,62123
62,Pas-de-Calais,50.242,2.5906,Gouy-en-Artois,62123
62,Pas-de-Calais,50.402,2.6557,Gouy-Servins,62530
62,Pas-de-Calais,50.322,2.4108,Gouy-en-Ternois,62127
62,Pas-de-Calais,50.373,1.9092,Gouy-Saint-André,62870
62,Pas-de-Calais,50.314,3.0582,Gouy-sous-Bellonne,62112
62,Pas-de-Calais,50.142,3.0970,Graincourt-lès-Havrincourt,62147
62,Pas-de-Calais,50.254,2.4744,Grand-Rullecourt,62810
62,Pas-de-Calais,50.449,2.7451,Grenay,62160
62,Pas-de-Calais,50.101,2.7985,Grévillers,62450
62,Pas-de-Calais,50.382,2.0635,Grigny,62140
62,Pas-de-Calais,50.178,2.4880,Grincourt-lès-Pas,62760
62,Pas-de-Calais,50.385,1.6039,Groffliers,62600
62,Pas-de-Calais,50.607,2.4893,Guarbecque,62330
62,Pas-de-Calais,50.250,2.8930,Guémappe,62128
62,Pas-de-Calais,50.917,1.9973,Guemps,62370
62,Pas-de-Calais,50.328,1.9952,Guigny,62140
62,Pas-de-Calais,50.347,2.2280,Guinecourt,62130
62,Pas-de-Calais,50.858,1.8705,Guînes,62340
62,Pas-de-Calais,50.387,2.0026,Guisy,62140
62,Pas-de-Calais,50.311,2.6071,Habarcq,62123
62,Pas-de-Calais,50.475,2.5793,Haillicourt,62940
62,Pas-de-Calais,50.500,2.7970,Haisnes,62138
62,Pas-de-Calais,50.604,1.6826,Halinghen,62830
62,Pas-de-Calais,50.700,2.2082,Hallines,62570
62,Pas-de-Calais,50.161,2.4247,Halloy,62760
62,Pas-de-Calais,50.291,2.9582,Hamblain-les-Prés,62118
62,Pas-de-Calais,50.183,2.8022,Hamelincourt,62121
62,Pas-de-Calais,50.591,2.4526,Ham-en-Artois,62190
62,Pas-de-Calais,50.884,1.8485,Hames-Boucres,62340
62,Pas-de-Calais,50.161,2.6419,Hannescamps,62111
62,Pas-de-Calais,50.092,2.9369,Haplincourt,62124
62,Pas-de-Calais,50.284,2.1258,Haravesnes,62390
62,Pas-de-Calais,50.796,1.8281,Hardinghen,62132
62,Pas-de-Calais,50.451,2.9033,Harnes,62440
62,Pas-de-Calais,50.236,2.9696,Haucourt,62156
62,Pas-de-Calais,50.329,2.6359,Haute-Avesnes,62144
62,Pas-de-Calais,50.333,2.3170,Hautecloque,62130
62,Pas-de-Calais,50.271,2.5683,Hauteville,62810
62,Pas-de-Calais,50.737,1.9634,Haut-Loquin,62850
62,Pas-de-Calais,50.100,3.0726,Havrincourt,62147
62,Pas-de-Calais,50.118,2.6462,Hébuterne,62111
62,Pas-de-Calais,50.691,2.2501,Helfaut,62570
62,Pas-de-Calais,50.214,2.9487,Hendecourt-lès-Cagnicourt,62182
62,Pas-de-Calais,50.208,2.7314,Hendecourt-lès-Ransart,62175
62,Pas-de-Calais,50.233,2.8716,Héninel,62128
62,Pas-de-Calais,50.409,2.9589,Hénin-Beaumont,62110
62,Pas-de-Calais,50.218,2.8389,Hénin-sur-Cojeul,62128
62,Pas-de-Calais,50.725,1.8458,Henneveux,62142
62,Pas-de-Calais,50.156,2.5317,Hénu,62760
62,Pas-de-Calais,50.655,2.2236,Herbelles,62129
62,Pas-de-Calais,50.763,1.8978,Herbinghen,62850
62,Pas-de-Calais,50.337,2.2487,Héricourt,62130
62,Pas-de-Calais,50.198,2.5585,La Herlière,62158
62,Pas-de-Calais,50.344,2.2919,Herlincourt,62130
62,Pas-de-Calais,50.353,2.3327,Herlin-le-Sec,62130
62,Pas-de-Calais,50.541,1.9901,Herly,62650
62,Pas-de-Calais,50.325,2.5838,Hermaville,62690
62,Pas-de-Calais,50.804,1.8616,Hermelinghen,62132
62,Pas-de-Calais,50.109,3.0367,Hermies,62147
62,Pas-de-Calais,50.413,2.5523,Hermin,62150
62,Pas-de-Calais,50.414,2.3077,Hernicourt,62130
62,Pas-de-Calais,50.445,2.6423,Hersin-Coupigny,62530
62,Pas-de-Calais,50.884,1.7189,Hervelinghen,62179
62,Pas-de-Calais,50.496,2.5966,Hesdigneul-lès-Béthune,62196
62,Pas-de-Calais,50.652,1.6776,Hesdigneul-lès-Boulogne,62360
62,Pas-de-Calais,50.373,2.0381,Hesdin,62140
62,Pas-de-Calais,50.668,1.6879,Hesdin-l'Abbé,62360
62,Pas-de-Calais,50.464,1.9422,Hesmond,62990
62,Pas-de-Calais,50.449,2.3293,Hestrus,62550
62,Pas-de-Calais,50.480,2.2706,Heuchin,62134
62,Pas-de-Calais,50.695,2.2939,Heuringhem,62575
62,Pas-de-Calais,50.534,2.1918,Hézecques,62310
62,Pas-de-Calais,50.570,2.6294,Hinges,62232
62,Pas-de-Calais,50.766,1.9324,Hocquinghen,62850
62,Pas-de-Calais,50.479,2.6190,Houchin,62620
62,Pas-de-Calais,50.454,2.5366,Houdain,62150
62,Pas-de-Calais,50.796,2.1648,Houlle,62910
62,Pas-de-Calais,50.296,2.3773,Houvin-Houvigneul,62270
62,Pas-de-Calais,50.583,1.7383,Hubersent,62630
62,Pas-de-Calais,50.394,2.0245,Huby-Saint-Leu,62140
62,Pas-de-Calais,50.436,2.3547,Huclier,62130
62,Pas-de-Calais,50.568,1.9156,Hucqueliers,62650
62,Pas-de-Calais,50.484,2.8112,Hulluch,62410
62,Pas-de-Calais,50.188,2.5745,Humbercamps,62158
62,Pas-de-Calais,50.500,1.9098,Humbert,62650
62,Pas-de-Calais,50.408,2.2098,Humerœuille,62130
62,Pas-de-Calais,50.384,2.2082,Humières,62130
62,Pas-de-Calais,50.174,3.0394,Inchy-en-Artois,62860
62,Pas-de-Calais,50.387,2.1503,Incourt,62770
62,Pas-de-Calais,50.669,2.2427,Bellinghem,62129
62,Pas-de-Calais,50.536,1.7881,Inxent,62170
62,Pas-de-Calais,50.616,2.4556,Isbergues,62330
62,Pas-de-Calais,50.616,2.4556,Isbergues,62330
62,Pas-de-Calais,50.616,2.4556,Isbergues,62330
62,Pas-de-Calais,50.682,1.6563,Isques,62360
62,Pas-de-Calais,50.238,2.3809,Ivergny,62810
62,Pas-de-Calais,50.362,2.9458,Izel-lès-Équerchin,62490
62,Pas-de-Calais,50.314,2.5315,Izel-lès-Hameau,62690
62,Pas-de-Calais,50.753,2.0030,Journy,62850
62,Pas-de-Calais,50.521,2.5716,Labeuvrière,62122
62,Pas-de-Calais,50.493,2.6834,Labourse,62113
62,Pas-de-Calais,50.293,1.9851,Labroye,62140
62,Pas-de-Calais,50.603,1.7619,Lacres,62830
62,Pas-de-Calais,50.156,2.9566,Lagnicourt-Marcel,62159
62,Pas-de-Calais,50.537,2.2561,Laires,62960
62,Pas-de-Calais,50.618,2.4048,Lambres,62120
62,Pas-de-Calais,50.849,1.7788,Landrethun-le-Nord,62250
62,Pas-de-Calais,50.816,1.9668,Landrethun-lès-Ardres,62610
62,Pas-de-Calais,50.519,2.5320,Lapugnoy,62122
62,Pas-de-Calais,50.297,2.5721,Lattre-Saint-Quentin,62810
62,Pas-de-Calais,50.612,2.7836,Laventie,62840
62,Pas-de-Calais,50.459,1.9783,Lebiez,62990
62,Pas-de-Calais,50.109,2.9566,Lebucquière,62124
62,Pas-de-Calais,50.054,2.9770,Léchelle,62124
62,Pas-de-Calais,50.644,1.9736,Ledinghem,62380
62,Pas-de-Calais,50.546,1.6537,Lefaux,62630
62,Pas-de-Calais,50.439,3.0585,Leforest,62790
62,Pas-de-Calais,50.437,2.8210,Lens,62300
62,Pas-de-Calais,50.385,1.7282,Lépine,62170
62,Pas-de-Calais,50.555,2.4242,Lespesses,62190
62,Pas-de-Calais,50.427,1.8644,Lespinoy,62990
62,Pas-de-Calais,50.611,2.6781,Lestrem,62136
62,Pas-de-Calais,50.853,1.7326,Leubringhen,62250
62,Pas-de-Calais,50.734,2.1691,Leulinghem,62500
62,Pas-de-Calais,50.837,1.7131,Leulinghen-Bernes,62250
62,Pas-de-Calais,50.796,1.9348,Licques,62850
62,Pas-de-Calais,50.273,2.4486,Liencourt,62810
62,Pas-de-Calais,50.549,2.4094,Lières,62190
62,Pas-de-Calais,50.596,2.3394,Liettres,62145
62,Pas-de-Calais,50.424,2.7729,Liévin,62800
62,Pas-de-Calais,50.291,2.4708,Lignereuil,62810
62,Pas-de-Calais,50.563,2.3367,Ligny-lès-Aire,62960
62,Pas-de-Calais,50.284,2.2604,Ligny-sur-Canche,62270
62,Pas-de-Calais,50.358,2.4232,Ligny-Saint-Flochel,62127
62,Pas-de-Calais,50.079,2.8249,Ligny-Thilloy,62450
62,Pas-de-Calais,50.561,2.4819,Lillers,62190
62,Pas-de-Calais,50.589,2.3726,Linghem,62120
62,Pas-de-Calais,50.342,2.2028,Linzeux,62270
62,Pas-de-Calais,50.510,2.2230,Lisbourg,62134
62,Pas-de-Calais,50.570,2.6670,Locon,62400
62,Pas-de-Calais,50.408,2.0352,La Loge,62140
62,Pas-de-Calais,50.444,1.9190,Loison-sur-Créquoise,62990
62,Pas-de-Calais,50.443,2.8583,Loison-sous-Lens,62218
62,Pas-de-Calais,50.654,1.8079,Longfossé,62240
62,Pas-de-Calais,50.735,2.2444,Longuenesse,62219
62,Pas-de-Calais,50.728,1.8804,Longueville,62142
62,Pas-de-Calais,50.535,1.7434,Longvilliers,62630
62,Pas-de-Calais,50.456,2.7857,Loos-en-Gohelle,62750
62,Pas-de-Calais,50.566,2.7977,Lorgies,62840
62,Pas-de-Calais,50.677,1.9355,Lottinghen,62240
62,Pas-de-Calais,50.826,1.9996,Louches,62610
62,Pas-de-Calais,50.516,2.4954,Lozinghem,62540
62,Pas-de-Calais,50.521,2.1742,Lugy,62310
62,Pas-de-Calais,50.705,2.1170,Lumbres,62380
62,Pas-de-Calais,50.465,1.7491,La Madelaine-sous-Montreuil,62170
62,Pas-de-Calais,50.403,2.4818,Magnicourt-en-Comte,62127
62,Pas-de-Calais,50.299,2.4111,Magnicourt-sur-Canche,62270
62,Pas-de-Calais,50.369,1.8163,Maintenay,62870
62,Pas-de-Calais,50.346,2.3577,Maisnil,62130
62,Pas-de-Calais,50.447,2.5782,Maisnil-lès-Ruitz,62620
62,Pas-de-Calais,50.450,2.1481,Maisoncelle,62310
62,Pas-de-Calais,50.322,2.4412,Maizières,62127
62,Pas-de-Calais,50.629,2.3093,Mametz,62120
62,Pas-de-Calais,50.296,2.5072,Manin,62810
62,Pas-de-Calais,50.548,1.9398,Maninghem,62650
62,Pas-de-Calais,50.769,1.6724,Maninghen-Henne,62250
62,Pas-de-Calais,50.470,1.8403,Marant,62170
62,Pas-de-Calais,50.953,1.9494,Marck,62730
62,Pas-de-Calais,50.366,2.0323,Marconne,62140
62,Pas-de-Calais,50.369,2.0071,Marconnelle,62140
62,Pas-de-Calais,50.452,1.8745,Marenla,62990
62,Pas-de-Calais,50.399,1.9348,Maresquel-Ecquemicourt,62990
62,Pas-de-Calais,50.467,2.4181,Marest,62550
62,Pas-de-Calais,50.523,1.7301,Maresville,62630
62,Pas-de-Calais,50.502,2.5063,Marles-les-Mines,62540
62,Pas-de-Calais,50.463,1.8200,Marles-sur-Canche,62170
62,Pas-de-Calais,50.330,2.7103,Marœuil,62161
62,Pas-de-Calais,50.380,2.4214,Marquay,62127
62,Pas-de-Calais,50.204,3.0960,Marquion,62860
62,Pas-de-Calais,50.812,1.7011,Marquise,62250
62,Pas-de-Calais,50.051,2.7688,Martinpuich,62450
62,Pas-de-Calais,50.545,2.1666,Matringhem,62310
62,Pas-de-Calais,50.468,2.7258,Mazingarbe,62670
62,Pas-de-Calais,50.604,2.4131,Mazinghem,62120
62,Pas-de-Calais,50.557,2.1448,Mencas,62310
62,Pas-de-Calais,50.674,1.8628,Menneville,62240
62,Pas-de-Calais,50.772,2.0916,Mentque-Nortbécourt,62890
62,Pas-de-Calais,50.234,2.7884,Mercatel,62217
62,Pas-de-Calais,50.636,2.1076,Merck-Saint-Liévin,62560
62,Pas-de-Calais,50.399,2.8681,Méricourt,62680
62,Pas-de-Calais,50.452,1.6078,Merlimont,62155
62,Pas-de-Calais,50.062,3.0627,Metz-en-Couture,62124
62,Pas-de-Calais,50.494,2.8943,Meurchin,62410
62,Pas-de-Calais,50.376,2.5688,Mingoval,62690
62,Pas-de-Calais,50.314,2.3636,Moncheaux-lès-Frévent,62270
62,Pas-de-Calais,50.303,2.2185,Monchel-sur-Canche,62270
62,Pas-de-Calais,50.238,2.6231,Monchiet,62123
62,Pas-de-Calais,50.179,2.6584,Monchy-au-Bois,62111
62,Pas-de-Calais,50.398,2.4360,Monchy-Breton,62127
62,Pas-de-Calais,50.434,2.2808,Monchy-Cayeux,62134
62,Pas-de-Calais,50.268,2.8951,Monchy-le-Preux,62118
62,Pas-de-Calais,50.174,2.4672,Mondicourt,62760
62,Pas-de-Calais,50.589,2.5980,Mont-Bernanchon,62350
62,Pas-de-Calais,50.520,1.8157,Montcavrel,62170
62,Pas-de-Calais,50.292,2.6290,Montenescourt,62123
62,Pas-de-Calais,50.428,2.9303,Montigny-en-Gohelle,62640
62,Pas-de-Calais,50.465,1.7709,Montreuil,62170
62,Pas-de-Calais,50.350,2.6904,Mont-Saint-Éloi,62144
62,Pas-de-Calais,50.321,2.3864,Monts-en-Ternois,62130
62,Pas-de-Calais,50.137,2.9547,Morchies,62124
62,Pas-de-Calais,50.763,2.1268,Moringhem,62910
62,Pas-de-Calais,50.028,2.8679,Morval,62450
62,Pas-de-Calais,50.156,2.8575,Mory,62159
62,Pas-de-Calais,50.788,2.1706,Moulle,62910
62,Pas-de-Calais,50.347,1.9551,Mouriez,62140
62,Pas-de-Calais,50.179,2.7714,Moyenneville,62121
62,Pas-de-Calais,50.839,2.1181,Muncq-Nieurlet,62890
62,Pas-de-Calais,50.741,1.8625,Nabringhen,62142
62,Pas-de-Calais,50.517,2.3630,Nédon,62550
62,Pas-de-Calais,50.527,2.3547,Nédonchel,62550
62,Pas-de-Calais,50.361,1.7392,Nempont-Saint-Firmin,62180
62,Pas-de-Calais,50.622,1.6600,Nesles,62152
62,Pas-de-Calais,50.617,1.6172,Neufchâtel-Hardelot,62152
62,Pas-de-Calais,50.617,1.6172,Neufchâtel-Hardelot,62152
62,Pas-de-Calais,50.381,2.1666,Neulette,62770
62,Pas-de-Calais,50.585,2.7795,Neuve-Chapelle,62840
62,Pas-de-Calais,50.334,2.3695,Neuville-au-Cornet,62130
62,Pas-de-Calais,50.066,3.0249,Neuville-Bourjonval,62124
62,Pas-de-Calais,50.358,2.7546,Neuville-Saint-Vaast,62580
62,Pas-de-Calais,50.478,1.7952,Neuville-sous-Montreuil,62170
62,Pas-de-Calais,50.247,2.8195,Neuville-Vitasse,62217
62,Pas-de-Calais,50.353,2.9144,Neuvireuil,62580
62,Pas-de-Calais,50.675,2.0304,Nielles-lès-Bléquin,62380
62,Pas-de-Calais,50.848,2.0066,Nielles-lès-Ardres,62610
62,Pas-de-Calais,50.907,1.8325,Nielles-lès-Calais,62185
62,Pas-de-Calais,50.240,2.1817,Nœux-lès-Auxi,62390
62,Pas-de-Calais,50.475,2.6628,Nœux-les-Mines,62290
62,Pas-de-Calais,50.813,2.0847,Nordausques,62890
62,Pas-de-Calais,50.170,2.9386,Noreuil,62128
62,Pas-de-Calais,50.587,2.4093,Norrent-Fontes,62120
62,Pas-de-Calais,50.878,2.0331,Nortkerque,62370
62,Pas-de-Calais,50.795,2.0888,Nort-Leulinghem,62890
62,Pas-de-Calais,50.931,2.0456,Nouvelle-Église,62370
62,Pas-de-Calais,50.417,2.9935,Noyelles-Godault,62950
62,Pas-de-Calais,50.375,2.1773,Noyelles-lès-Humières,62770
62,Pas-de-Calais,50.491,2.7283,Noyelles-lès-Vermelles,62980
62,Pas-de-Calais,50.309,3.0218,Noyelles-sous-Bellonne,62490
62,Pas-de-Calais,50.428,2.8755,Noyelles-sous-Lens,62221
62,Pas-de-Calais,50.297,2.5918,Noyellette,62123
62,Pas-de-Calais,50.291,2.5447,Noyelle-Vion,62810
62,Pas-de-Calais,50.307,2.2867,Nuncq-Hautecôte,62270
62,Pas-de-Calais,50.307,2.2867,Nuncq-Hautecôte,62270
62,Pas-de-Calais,50.551,2.5935,Oblinghem,62920
62,Pas-de-Calais,50.363,2.2120,Œuf-en-Ternois,62130
62,Pas-de-Calais,50.931,2.0202,Offekerque,62370
62,Pas-de-Calais,50.441,1.9524,Offin,62990
62,Pas-de-Calais,50.786,1.6979,Offrethun,62250
62,Pas-de-Calais,50.464,2.9930,Oignies,62590
62,Pas-de-Calais,50.250,3.1222,Oisy-le-Verger,62860
62,Pas-de-Calais,50.347,2.8888,Oppy,62580
62,Pas-de-Calais,50.128,2.4190,Orville,62760
62,Pas-de-Calais,50.394,2.3978,Ostreville,62130
62,Pas-de-Calais,50.455,2.4713,Ourton,62460
62,Pas-de-Calais,50.698,1.5921,Outreau,62230
62,Pas-de-Calais,50.652,2.1439,Ouve-Wirquin,62380
62,Pas-de-Calais,50.981,2.0393,Oye-Plage,62215
62,Pas-de-Calais,50.265,3.0953,Palluel,62860
62,Pas-de-Calais,50.382,2.0854,Le Parcq,62770
62,Pas-de-Calais,50.594,1.8005,Parenty,62650
62,Pas-de-Calais,50.152,2.4911,Pas-en-Artois,62760
62,Pas-de-Calais,50.287,2.9179,Pelves,62118
62,Pas-de-Calais,50.330,2.4879,Penin,62127
62,Pas-de-Calais,50.486,2.4025,Pernes,62550
62,Pas-de-Calais,50.748,1.6972,Pernes-lès-Boulogne,62126
62,Pas-de-Calais,50.913,1.7595,Peuplingues,62231
62,Pas-de-Calais,50.398,2.2554,Pierremont,62130
62,Pas-de-Calais,50.676,2.2119,Pihem,62570
62,Pas-de-Calais,50.871,1.7913,Pihen-lès-Guînes,62340
62,Pas-de-Calais,50.762,1.6849,Pittefaux,62126
62,Pas-de-Calais,50.466,2.0888,Planques,62310
62,Pas-de-Calais,50.305,2.9179,Plouvain,62118
62,Pas-de-Calais,50.376,1.9817,Bouin-Plumoison,62140
62,Pas-de-Calais,50.376,1.9817,Bouin-Plumoison,62140
62,Pas-de-Calais,50.861,2.1089,Polincove,62370
62,Pas-de-Calais,50.167,2.4425,Pommera,62760
62,Pas-de-Calais,50.181,2.5951,Pommier,62111
62,Pas-de-Calais,50.256,2.0853,Le Ponchel,62390
62,Pas-de-Calais,50.476,2.8881,Pont-à-Vendin,62880
62,Pas-de-Calais,50.712,1.5761,Le Portel,62480
62,Pas-de-Calais,50.504,2.2589,Prédefin,62134
62,Pas-de-Calais,50.474,2.3900,Pressy,62550
62,Pas-de-Calais,50.573,1.8820,Preures,62650
62,Pas-de-Calais,50.165,3.0080,Pronville-en-Artois,62860
62,Pas-de-Calais,50.106,2.6887,Puisieux,62116
62,Pas-de-Calais,50.176,2.9851,Quéant,62860
62,Pas-de-Calais,50.734,2.1264,Quelmes,62500
62,Pas-de-Calais,50.752,2.0453,Quercamps,62380
62,Pas-de-Calais,50.602,2.3679,Quernes,62120
62,Pas-de-Calais,50.331,2.0384,Le Quesnoy-en-Artois,62140
62,Pas-de-Calais,50.701,1.9419,Quesques,62240
62,Pas-de-Calais,50.664,1.7459,Questrecques,62830
62,Pas-de-Calais,50.366,2.9834,Quiéry-la-Motte,62490
62,Pas-de-Calais,50.680,2.3289,Quiestède,62120
62,Pas-de-Calais,50.529,1.9336,Quilen,62650
62,Pas-de-Calais,50.301,2.1042,Quœux-Haut-Maînil,62390
62,Pas-de-Calais,50.301,2.1042,Quœux-Haut-Maînil,62390
62,Pas-de-Calais,50.695,2.3603,Racquinghem,62120
62,Pas-de-Calais,50.546,2.1178,Radinghem,62310
62,Pas-de-Calais,50.363,2.3065,Ramecourt,62130
62,Pas-de-Calais,50.419,1.6341,Rang-du-Fliers,62180
62,Pas-de-Calais,50.205,2.6767,Ransart,62173
62,Pas-de-Calais,50.302,1.9586,Raye-sur-Authie,62140
62,Pas-de-Calais,50.648,2.3025,Saint-Augustin,62120
62,Pas-de-Calais,50.648,2.3025,Saint-Augustin,62129
62,Pas-de-Calais,50.753,1.9526,Rebergues,62850
62,Pas-de-Calais,50.431,2.5488,Rebreuve-Ranchicourt,62150
62,Pas-de-Calais,50.431,2.5488,Rebreuve-Ranchicourt,62150
62,Pas-de-Calais,50.266,2.3409,Rebreuve-sur-Canche,62270
62,Pas-de-Calais,50.257,2.3638,Rebreuviette,62270
62,Pas-de-Calais,50.572,2.1752,Reclinghem,62560
62,Pas-de-Calais,50.257,3.0276,Récourt,62860
62,Pas-de-Calais,50.518,1.7786,Recques-sur-Course,62170
62,Pas-de-Calais,50.835,2.0801,Recques-sur-Hem,62890
62,Pas-de-Calais,50.316,2.0014,Regnauville,62140
62,Pas-de-Calais,50.575,2.3615,Rely,62120
62,Pas-de-Calais,50.669,2.1745,Remilly-Wirquin,62380
62,Pas-de-Calais,50.257,2.9588,Rémy,62156
62,Pas-de-Calais,50.579,2.0689,Renty,62560
62,Pas-de-Calais,50.793,1.7847,Rety,62720
62,Pas-de-Calais,50.579,2.7472,Richebourg,62136
62,Pas-de-Calais,50.088,2.8804,Riencourt-lès-Bapaume,62450
62,Pas-de-Calais,50.194,2.9613,Riencourt-lès-Cagnicourt,62182
62,Pas-de-Calais,50.515,1.9892,Rimboval,62990
62,Pas-de-Calais,50.807,1.7410,Rinxent,62720
62,Pas-de-Calais,50.232,2.6865,Rivière,62173
62,Pas-de-Calais,50.594,2.5506,Robecq,62350
62,Pas-de-Calais,50.329,2.7898,Roclincourt,62223
62,Pas-de-Calais,50.055,2.9241,Rocquigny,62450
62,Pas-de-Calais,50.834,1.9303,Rodelinghem,62610
62,Pas-de-Calais,50.368,2.3879,Roëllecourt,62130
62,Pas-de-Calais,50.301,2.8991,Rœux,62118
62,Pas-de-Calais,50.411,2.1259,Rollancourt,62770
62,Pas-de-Calais,50.595,2.3898,Rombly,62120
62,Pas-de-Calais,50.666,2.3384,Roquetoire,62120
62,Pas-de-Calais,50.276,2.1698,Rougefay,62390
62,Pas-de-Calais,50.371,1.7745,Roussent,62870
62,Pas-de-Calais,50.399,2.9048,Rouvroy,62320
62,Pas-de-Calais,50.472,1.9996,Royon,62990
62,Pas-de-Calais,50.483,2.1159,Ruisseauville,62310
62,Pas-de-Calais,50.466,2.5907,Ruitz,62620
62,Pas-de-Calais,50.238,3.0650,Rumaucourt,62860
62,Pas-de-Calais,50.579,2.0178,Rumilly,62650
62,Pas-de-Calais,50.856,2.1676,Ruminghem,62370
62,Pas-de-Calais,50.082,3.0162,Ruyaulcourt,62124
62,Pas-de-Calais,50.492,2.3665,Sachin,62550
62,Pas-de-Calais,50.121,2.5986,Sailly-au-Bois,62111
62,Pas-de-Calais,50.287,2.9900,Sailly-en-Ostrevent,62490
62,Pas-de-Calais,50.501,2.7027,Sailly-Labourse,62113
62,Pas-de-Calais,50.653,2.7924,Sailly-sur-la-Lys,62840
62,Pas-de-Calais,50.450,2.6838,Sains-en-Gohelle,62114
62,Pas-de-Calais,50.472,2.0489,Sains-lès-Fressin,62310
62,Pas-de-Calais,50.185,3.0783,Sains-lès-Marquion,62860
62,Pas-de-Calais,50.479,2.3488,Sains-lès-Pernes,62550
62,Pas-de-Calais,50.170,2.5612,Saint-Amand,62760
62,Pas-de-Calais,50.454,1.6687,Saint-Aubin,62170
62,Pas-de-Calais,50.357,2.0442,Sainte-Austreberthe,62140
62,Pas-de-Calais,50.314,2.7623,Sainte-Catherine,62223
62,Pas-de-Calais,50.477,1.9095,Saint-Denœux,62990
62,Pas-de-Calais,50.665,1.6018,Saint-Étienne-au-Mont,62360
62,Pas-de-Calais,50.665,1.6018,Saint-Étienne-au-Mont,62360
62,Pas-de-Calais,50.624,2.5792,Saint-Floris,62350
62,Pas-de-Calais,50.937,2.1254,Saint-Folquin,62370
62,Pas-de-Calais,50.351,2.0728,Saint-Georges,62770
62,Pas-de-Calais,50.567,2.3968,Saint-Hilaire-Cottes,62120
62,Pas-de-Calais,50.871,1.7438,Saint-Inglevert,62250
62,Pas-de-Calais,50.481,1.6644,Saint-Josse,62170
62,Pas-de-Calais,50.307,2.8112,Saint-Laurent-Blangy,62223
62,Pas-de-Calais,50.183,2.8515,Saint-Léger,62128
62,Pas-de-Calais,50.695,1.6230,Saint-Léonard,62360
62,Pas-de-Calais,50.892,2.1512,Sainte-Marie-Kerque,62370
62,Pas-de-Calais,50.756,2.2297,Saint-Martin-lez-Tatinghem,62500
62,Pas-de-Calais,50.756,2.2297,Saint-Martin-lez-Tatinghem,62500
62,Pas-de-Calais,50.723,1.6479,Saint-Martin-Boulogne,62280
62,Pas-de-Calais,50.668,1.8875,Saint-Martin-Choquel,62240
62,Pas-de-Calais,50.611,2.1047,Saint-Martin-d'Hardinghem,62560
62,Pas-de-Calais,50.228,2.8519,Saint-Martin-sur-Cojeul,62128
62,Pas-de-Calais,50.517,1.9360,Saint-Michel-sous-Bois,62650
62,Pas-de-Calais,50.375,2.3605,Saint-Michel-sur-Ternoise,62130
62,Pas-de-Calais,50.308,2.7850,Saint-Nicolas,62223
62,Pas-de-Calais,50.767,2.2633,Saint-Omer,62500
62,Pas-de-Calais,50.945,2.1009,Saint-Omer-Capelle,62162
62,Pas-de-Calais,50.388,2.3501,Saint-Pol-sur-Ternoise,62130
62,Pas-de-Calais,50.368,1.8691,Saint-Rémy-au-Bois,62870
62,Pas-de-Calais,50.892,1.8266,Saint-Tricat,62185
62,Pas-de-Calais,50.622,2.5254,Saint-Venant,62350
62,Pas-de-Calais,50.420,2.8599,Sallaumines,62430
62,Pas-de-Calais,50.768,2.2196,Salperwick,62500
62,Pas-de-Calais,50.633,1.7548,Samer,62830
62,Pas-de-Calais,50.941,1.7695,Sangatte,62231
62,Pas-de-Calais,50.941,1.7695,Sangatte,62231
62,Pas-de-Calais,50.773,1.8926,Sanghen,62850
62,Pas-de-Calais,50.131,2.8367,Sapignies,62121
62,Pas-de-Calais,50.066,2.7832,Le Sars,62450
62,Pas-de-Calais,50.297,2.4316,Sars-le-Bois,62810
62,Pas-de-Calais,50.108,2.4305,Sarton,62760
62,Pas-de-Calais,50.235,3.0902,Sauchy-Cauchy,62860
62,Pas-de-Calais,50.219,3.1164,Sauchy-Lestrée,62860
62,Pas-de-Calais,50.238,3.0313,Saudemont,62860
62,Pas-de-Calais,50.353,1.8507,Saulchoy,62870
62,Pas-de-Calais,50.211,2.5247,Saulty,62158
62,Pas-de-Calais,50.354,2.5584,Savy-Berlette,62690
62,Pas-de-Calais,50.695,1.8896,Selles,62240
62,Pas-de-Calais,50.496,1.8776,Sempy,62170
62,Pas-de-Calais,50.698,2.0270,Seninghem,62380
62,Pas-de-Calais,50.650,1.9364,Senlecques,62240
62,Pas-de-Calais,50.534,2.1473,Senlis,62310
62,Pas-de-Calais,50.295,2.3130,Séricourt,62270
62,Pas-de-Calais,50.790,2.2016,Serques,62910
62,Pas-de-Calais,50.407,2.6362,Servins,62530
62,Pas-de-Calais,50.714,2.1564,Setques,62380
62,Pas-de-Calais,50.304,2.3312,Sibiville,62270
62,Pas-de-Calais,50.254,2.6337,Simencourt,62123
62,Pas-de-Calais,50.370,2.2679,Siracourt,62130
62,Pas-de-Calais,50.237,2.5052,Sombrin,62810
62,Pas-de-Calais,50.456,1.7145,Sorrus,62170
62,Pas-de-Calais,50.149,2.5700,Souastre,62111
62,Pas-de-Calais,50.388,2.7434,Souchez,62153
62,Pas-de-Calais,50.223,2.3616,Le Souich,62810
62,Pas-de-Calais,50.743,1.9229,Surques,62850
62,Pas-de-Calais,50.239,2.4347,Sus-Saint-Léger,62810
62,Pas-de-Calais,50.462,2.3601,Tangry,62550
62,Pas-de-Calais,50.865,1.6428,Tardinghen,62179
62,Pas-de-Calais,50.452,2.2204,Teneur,62134
62,Pas-de-Calais,50.339,2.3977,Ternas,62127
62,Pas-de-Calais,50.350,2.7995,Thélus,62580
62,Pas-de-Calais,50.628,2.2510,Thérouanne,62129
62,Pas-de-Calais,50.623,2.0469,Thiembronne,62560
62,Pas-de-Calais,50.413,2.4328,La Thieuloye,62130
62,Pas-de-Calais,50.132,2.4478,Thièvres,62760
62,Pas-de-Calais,50.354,1.7080,Tigny-Noyelle,62180
62,Pas-de-Calais,50.328,2.5539,Tilloy-lès-Hermaville,62690
62,Pas-de-Calais,50.277,2.8215,Tilloy-lès-Mofflaines,62217
62,Pas-de-Calais,50.444,2.1871,Tilly-Capelle,62134
62,Pas-de-Calais,50.772,2.2015,Tilques,62500
62,Pas-de-Calais,50.359,2.4940,Tincques,62127
62,Pas-de-Calais,50.611,1.7219,Tingry,62830
62,Pas-de-Calais,50.277,2.0138,Tollent,62390
62,Pas-de-Calais,50.483,2.0207,Torcy,62310
62,Pas-de-Calais,50.335,1.9148,Tortefontaine,62140
62,Pas-de-Calais,50.290,3.0325,Tortequesne,62490
62,Pas-de-Calais,50.508,1.5992,Le Touquet-Paris-Plage,62520
62,Pas-de-Calais,50.791,2.0476,Tournehem-sur-la-Hem,62890
62,Pas-de-Calais,50.469,2.1521,Tramecourt,62310
62,Pas-de-Calais,50.050,2.8923,Le Transloy,62450
62,Pas-de-Calais,50.090,3.0968,Trescault,62147
62,Pas-de-Calais,50.411,2.3437,Troisvaux,62130
62,Pas-de-Calais,50.521,1.6991,Tubersent,62630
62,Pas-de-Calais,50.270,2.2075,Vacquerie-le-Boucq,62270
62,Pas-de-Calais,50.322,2.0743,Vacqueriette-Erquières,62140
62,Pas-de-Calais,50.322,2.0743,Vacqueriette-Erquières,62140
62,Pas-de-Calais,50.434,2.3833,Valhuon,62550
62,Pas-de-Calais,50.499,2.6187,Vaudricourt,62131
62,Pas-de-Calais,50.654,2.0240,Vaudringhem,62380
62,Pas-de-Calais,50.271,2.1045,Vaulx,62390
62,Pas-de-Calais,50.143,2.9045,Vaulx-Vraucourt,62159
62,Pas-de-Calais,50.100,2.9741,Vélu,62124
62,Pas-de-Calais,50.546,2.6068,Vendin-lès-Béthune,62232
62,Pas-de-Calais,50.470,2.8538,Vendin-le-Vieil,62880
62,Pas-de-Calais,50.493,2.1792,Verchin,62310
62,Pas-de-Calais,50.554,2.0400,Verchocq,62560
62,Pas-de-Calais,50.628,1.6922,Verlincthun,62830
62,Pas-de-Calais,50.486,2.7573,Vermelles,62980
62,Pas-de-Calais,50.503,2.6621,Verquigneul,62113
62,Pas-de-Calais,50.501,2.6424,Verquin,62131
62,Pas-de-Calais,50.402,1.6509,Verton,62180
62,Pas-de-Calais,50.363,2.1130,Vieil-Hesdin,62770
62,Pas-de-Calais,50.592,2.7174,Vieille-Chapelle,62136
62,Pas-de-Calais,50.933,2.0765,Vieille-Église,62162
62,Pas-de-Calais,50.662,1.9106,Vieil-Moutier,62240
62,Pas-de-Calais,50.377,2.6641,Villers-au-Bois,62144
62,Pas-de-Calais,50.078,2.9054,Villers-au-Flos,62450
62,Pas-de-Calais,50.372,2.5294,Villers-Brûlin,62690
62,Pas-de-Calais,50.375,2.5898,Villers-Châtel,62690
62,Pas-de-Calais,50.225,3.0103,Villers-lès-Cagnicourt,62182
62,Pas-de-Calais,50.229,2.2101,Villers-l'Hôpital,62390
62,Pas-de-Calais,50.314,2.4920,Villers-Sir-Simon,62127
62,Pas-de-Calais,50.377,2.8111,Vimy,62580
62,Pas-de-Calais,50.556,2.1790,Vincly,62310
62,Pas-de-Calais,50.537,2.7797,Violaines,62138
62,Pas-de-Calais,50.245,2.9360,Vis-en-Artois,62156
62,Pas-de-Calais,50.325,2.9809,Vitry-en-Artois,62490
62,Pas-de-Calais,50.382,1.6504,Waben,62180
62,Pas-de-Calais,50.780,1.6692,Wacquinghen,62250
62,Pas-de-Calais,50.337,2.1191,Wail,62770
62,Pas-de-Calais,50.249,2.7241,Wailly,62217
62,Pas-de-Calais,50.408,1.7301,Wailly-Beaucamp,62170
62,Pas-de-Calais,50.434,2.0238,Wambercourt,62140
62,Pas-de-Calais,50.415,2.0620,Wamin,62770
62,Pas-de-Calais,50.256,2.8552,Wancourt,62128
62,Pas-de-Calais,50.272,2.6141,Wanquetin,62123
62,Pas-de-Calais,50.705,2.3455,Wardrecques,62120
62,Pas-de-Calais,50.081,2.7913,Warlencourt-Eaucourt,62450
62,Pas-de-Calais,50.184,2.5062,Warlincourt-lès-Pas,62760
62,Pas-de-Calais,50.279,2.6648,Warlus,62123
62,Pas-de-Calais,50.231,2.4691,Warluzel,62810
62,Pas-de-Calais,50.750,1.7982,Le Wast,62142
62,Pas-de-Calais,50.216,2.1653,Beauvoir-Wavans,62390
62,Pas-de-Calais,50.674,2.1381,Wavrans-sur-l'Aa,62380
62,Pas-de-Calais,50.409,2.2840,Wavrans-sur-Ternoise,62130
62,Pas-de-Calais,50.544,2.3435,Westrehem,62960
62,Pas-de-Calais,50.572,1.9503,Wicquinghem,62650
62,Pas-de-Calais,50.584,1.6593,Widehem,62630
62,Pas-de-Calais,50.651,1.7684,Wierre-au-Bois,62830
62,Pas-de-Calais,50.771,1.7371,Wierre-Effroy,62720
62,Pas-de-Calais,50.359,2.1628,Willeman,62770
62,Pas-de-Calais,50.239,2.0776,Willencourt,62390
62,Pas-de-Calais,50.362,2.8493,Willerval,62580
62,Pas-de-Calais,50.779,1.6134,Wimereux,62930
62,Pas-de-Calais,50.764,1.6420,Wimille,62126
62,Pas-de-Calais,50.495,2.8577,Wingles,62410
62,Pas-de-Calais,50.685,1.7674,Wirwignes,62240
62,Pas-de-Calais,50.661,2.0797,Wismes,62380
62,Pas-de-Calais,50.726,2.1911,Wisques,62219
62,Pas-de-Calais,50.888,1.6824,Wissant,62179
62,Pas-de-Calais,50.613,2.3632,Witternesse,62120
62,Pas-de-Calais,50.671,2.3881,Wittes,62120
62,Pas-de-Calais,50.715,2.2291,Wizernes,62570
62,Pas-de-Calais,50.614,1.8874,Zoteux,62650
62,Pas-de-Calais,50.822,2.0532,Zouafques,62890
62,Pas-de-Calais,50.822,2.0532,Zouafques,62890
62,Pas-de-Calais,50.752,2.1602,Zudausques,62500
62,Pas-de-Calais,50.852,2.0596,Zutkerque,62370
62,Pas-de-Calais,50.482,2.9997,Libercourt,62820
62,Pas-de-Calais,50.731,1.7159,La Capelle-lès-Boulogne,62360
62,Pas-de-Calais,50.064,2.9962,Ytres,62124
