department_id,department_name,latitude,longitude,locality,postal_code
71,Saône-et-Loire,46.577,4.9611,L'Abergement-de-Cuisery,71290
71,Saône-et-Loire,46.754,5.0286,L'Abergement-Sainte-Colombe,71370
71,Saône-et-Loire,46.913,4.9748,Allerey-sur-Saône,71350
71,Saône-et-Loire,46.798,4.9555,Allériot,71380
71,Saône-et-Loire,46.851,4.6901,Aluze,71510
71,Saône-et-Loire,46.326,4.2362,Amanzé,71800
71,Saône-et-Loire,46.523,4.6680,Ameugny,71460
71,Saône-et-Loire,46.235,4.3706,Anglure-sous-Dun,71170
71,Saône-et-Loire,47.077,4.0924,Anost,71550
71,Saône-et-Loire,46.892,4.4028,Antully,71400
71,Saône-et-Loire,46.323,4.0716,Anzy-le-Duc,71110
71,Saône-et-Loire,46.249,3.9935,Artaix,71110
71,Saône-et-Loire,46.889,5.3075,Authumes,71270
71,Saône-et-Loire,46.945,4.3106,Autun,71400
71,Saône-et-Loire,46.945,4.3106,Autun,71400
71,Saône-et-Loire,46.941,4.4173,Auxy,71400
71,Saône-et-Loire,46.431,4.7496,Azé,71260
71,Saône-et-Loire,46.534,4.3755,Ballore,71220
71,Saône-et-Loire,46.605,5.1215,Bantanges,71500
71,Saône-et-Loire,46.791,4.6720,Barizey,71640
71,Saône-et-Loire,47.085,4.3210,Barnay,71540
71,Saône-et-Loire,46.493,4.2818,Baron,71120
71,Saône-et-Loire,46.293,4.2850,Baudemont,71800
71,Saône-et-Loire,46.665,5.0024,Baudrières,71370
71,Saône-et-Loire,46.307,4.0323,Baugy,71110
71,Saône-et-Loire,46.410,4.3954,Beaubery,71220
71,Saône-et-Loire,46.669,4.8617,Beaumont-sur-Grosne,71240
71,Saône-et-Loire,46.667,5.3946,Beaurepaire-en-Bresse,71580
71,Saône-et-Loire,46.841,5.4403,Beauvernois,71270
71,Saône-et-Loire,46.848,5.3639,Bellevesvre,71270
71,Saône-et-Loire,46.399,4.5624,Bergesserin,71250
71,Saône-et-Loire,46.399,4.5624,Bergesserin,71250
71,Saône-et-Loire,46.395,4.6824,Berzé-le-Châtel,71960
71,Saône-et-Loire,46.368,4.7022,Berzé-la-Ville,71960
71,Saône-et-Loire,46.821,4.9697,Bey,71620
71,Saône-et-Loire,46.729,4.6932,Bissey-sous-Cruchaud,71390
71,Saône-et-Loire,46.485,4.7757,Bissy-la-Mâconnaise,71260
71,Saône-et-Loire,46.568,4.7271,Bissy-sous-Uxelles,71460
71,Saône-et-Loire,46.663,4.6213,Bissy-sur-Fley,71460
71,Saône-et-Loire,46.751,4.3827,Les Bizots,71710
71,Saône-et-Loire,46.481,4.7403,Blanot,71250
71,Saône-et-Loire,46.704,4.3931,Blanzy,71450
71,Saône-et-Loire,46.332,4.3533,Bois-Sainte-Marie,71800
71,Saône-et-Loire,46.549,4.6253,Bonnay,71460
71,Saône-et-Loire,46.898,5.0481,Les Bordes,71350
71,Saône-et-Loire,46.769,5.3472,Bosjean,71330
71,Saône-et-Loire,46.777,5.2923,Bouhans,71330
71,Saône-et-Loire,46.737,4.1515,La Boulaye,71320
71,Saône-et-Loire,46.620,3.7686,Bourbon-Lancy,71140
71,Saône-et-Loire,46.310,3.9837,Bourg-le-Comte,71110
71,Saône-et-Loire,46.364,4.6374,Bourgvilain,71520
71,Saône-et-Loire,46.891,4.7274,Bouzeron,71150
71,Saône-et-Loire,46.599,4.9033,Boyer,71700
71,Saône-et-Loire,46.921,5.0317,Bragny-sur-Saône,71350
71,Saône-et-Loire,46.351,4.5728,Brandon,71520
71,Saône-et-Loire,46.652,5.1640,Branges,71500
71,Saône-et-Loire,46.503,4.7064,Bray,71250
71,Saône-et-Loire,46.594,4.7281,Bresse-sur-Grosne,71460
71,Saône-et-Loire,46.795,4.4937,Le Breuil,71670
71,Saône-et-Loire,46.300,4.1511,Briant,71110
71,Saône-et-Loire,46.556,5.0236,Brienne,71290
71,Saône-et-Loire,46.916,4.2416,Brion,71190
71,Saône-et-Loire,46.888,4.3080,Broye,71190
71,Saône-et-Loire,46.597,5.2588,Bruailles,71500
71,Saône-et-Loire,46.429,4.5377,Buffières,71250
71,Saône-et-Loire,46.464,4.8308,Burgy,71260
71,Saône-et-Loire,46.601,4.6337,Burnand,71460
71,Saône-et-Loire,46.594,4.5858,Burzy,71460
71,Saône-et-Loire,46.333,4.7104,Bussières,71960
71,Saône-et-Loire,46.713,4.7134,Buxy,71390
71,Saône-et-Loire,46.280,3.9373,Céron,71110
71,Saône-et-Loire,46.705,4.6323,Cersot,71390
71,Saône-et-Loire,46.898,4.7743,Chagny,71150
71,Saône-et-Loire,46.258,4.7703,Chaintré,71570
71,Saône-et-Loire,46.593,3.8521,Chalmoux,71140
71,Saône-et-Loire,46.790,4.8519,Chalon-sur-Saône,71100
71,Saône-et-Loire,46.282,3.9981,Chambilly,71110
71,Saône-et-Loire,46.866,4.6813,Chamilly,71510
71,Saône-et-Loire,46.483,5.3691,Champagnat,71480
71,Saône-et-Loire,46.579,4.7476,Champagny-sous-Uxelles,71460
71,Saône-et-Loire,46.815,4.8254,Champforgeuil,71530
71,Saône-et-Loire,46.462,4.2280,Champlecy,71120
71,Saône-et-Loire,46.245,4.7582,Chânes,71570
71,Saône-et-Loire,46.930,4.6281,Change,21340
71,Saône-et-Loire,46.412,4.2519,Changy,71120
71,Saône-et-Loire,46.552,4.7360,Chapaize,71460
71,Saône-et-Loire,46.629,3.9775,La Chapelle-au-Mans,71130
71,Saône-et-Loire,46.619,4.7599,La Chapelle-de-Bragny,71240
71,Saône-et-Loire,46.218,4.7607,La Chapelle-de-Guinchay,71570
71,Saône-et-Loire,46.218,4.7607,La Chapelle-de-Guinchay,71570
71,Saône-et-Loire,46.218,4.7607,La Chapelle-de-Guinchay,71570
71,Saône-et-Loire,46.381,4.5409,La Chapelle-du-Mont-de-France,71520
71,Saône-et-Loire,46.587,5.1934,La Chapelle-Naude,71500
71,Saône-et-Loire,46.846,5.2644,La Chapelle-Saint-Sauveur,71310
71,Saône-et-Loire,46.555,4.7870,La Chapelle-sous-Brancion,71700
71,Saône-et-Loire,46.263,4.2988,La Chapelle-sous-Dun,71800
71,Saône-et-Loire,46.834,4.2431,La Chapelle-sous-Uchon,71190
71,Saône-et-Loire,46.556,5.1021,La Chapelle-Thècle,71470
71,Saône-et-Loire,46.779,4.1138,Charbonnat,71320
71,Saône-et-Loire,46.388,4.8316,Charbonnières,71260
71,Saône-et-Loire,46.508,4.8481,Chardonnay,71700
71,Saône-et-Loire,46.900,5.1972,Charette-Varennes,71270
71,Saône-et-Loire,46.900,5.1972,Charette-Varennes,71270
71,Saône-et-Loire,46.721,4.7958,La Charmée,71100
71,Saône-et-Loire,46.769,4.3162,Charmoy,71710
71,Saône-et-Loire,46.934,5.0843,Charnay-lès-Chalon,71350
71,Saône-et-Loire,46.304,4.7869,Charnay-lès-Mâcon,71850
71,Saône-et-Loire,46.447,4.2800,Charolles,71120
71,Saône-et-Loire,46.836,4.6683,Charrecey,71510
71,Saône-et-Loire,46.278,4.7187,Chasselas,71570
71,Saône-et-Loire,46.887,4.7029,Chassey-le-Camp,71150
71,Saône-et-Loire,46.237,4.2924,Chassigny-sous-Dun,71170
71,Saône-et-Loire,46.583,4.1116,Chassy,71130
71,Saône-et-Loire,46.422,4.5935,Château,71250
71,Saône-et-Loire,46.210,4.2605,Châteauneuf,71740
71,Saône-et-Loire,46.790,4.6371,Châtel-Moron,71510
71,Saône-et-Loire,46.291,4.3826,Châtenay,71800
71,Saône-et-Loire,46.793,4.9141,Châtenoy-en-Bresse,71380
71,Saône-et-Loire,46.788,4.8058,Châtenoy-le-Royal,71880
71,Saône-et-Loire,46.915,4.7953,Chaudenay,71150
71,Saône-et-Loire,46.206,4.3417,Chauffailles,71170
71,Saône-et-Loire,46.822,5.2723,La Chaux,71310
71,Saône-et-Loire,46.892,4.6664,Cheilly-lès-Maranges,71150
71,Saône-et-Loire,46.228,3.9381,Chenay-le-Châtel,71340
71,Saône-et-Loire,46.666,4.7009,Chenôves,71390
71,Saône-et-Loire,46.517,4.5676,Chérizet,71250
71,Saône-et-Loire,46.335,4.7720,Chevagny-les-Chevrières,71960
71,Saône-et-Loire,46.540,4.5006,Chevagny-sur-Guye,71220
71,Saône-et-Loire,46.457,4.5139,Chiddes,71220
71,Saône-et-Loire,47.121,4.2153,Chissey-en-Morvan,71540
71,Saône-et-Loire,46.521,4.7443,Chissey-lès-Mâcon,71460
71,Saône-et-Loire,46.871,5.0511,Ciel,71350
71,Saône-et-Loire,46.596,4.2978,Ciry-le-Noble,71420
71,Saône-et-Loire,46.289,4.3107,La Clayette,71800
71,Saône-et-Loire,46.366,4.5896,Clermain,71520
71,Saône-et-Loire,46.418,4.8218,Clessé,71260
71,Saône-et-Loire,46.555,4.0857,Clessy,71130
71,Saône-et-Loire,46.430,4.6703,Cluny,71250
71,Saône-et-Loire,46.642,4.5310,Collonge-en-Charollais,71460
71,Saône-et-Loire,46.940,4.5262,Collonge-la-Madeleine,71360
71,Saône-et-Loire,46.347,4.3332,Colombier-en-Brionnais,71800
71,Saône-et-Loire,46.880,4.1191,La Comelle,71990
71,Saône-et-Loire,46.464,5.2821,Condal,71480
71,Saône-et-Loire,47.043,4.3336,Cordesse,71540
71,Saône-et-Loire,46.535,4.6956,Cormatin,71460
71,Saône-et-Loire,46.470,4.6974,Cortambert,71250
71,Saône-et-Loire,46.528,4.6413,Cortevaix,71460
71,Saône-et-Loire,46.171,4.2738,Coublanc,71170
71,Saône-et-Loire,46.869,4.5643,Couches,71490
71,Saône-et-Loire,46.241,4.7871,Crêches-sur-Saône,71680
71,Saône-et-Loire,46.916,4.6118,Créot,71490
71,Saône-et-Loire,46.700,3.8672,Cressy-sur-Somme,71760
71,Saône-et-Loire,46.806,4.4264,Le Creusot,71200
71,Saône-et-Loire,46.816,4.8842,Crissey,71530
71,Saône-et-Loire,46.720,3.7115,Cronat,71140
71,Saône-et-Loire,46.507,4.7867,Cruzille,71260
71,Saône-et-Loire,46.504,5.3639,Cuiseaux,71480
71,Saône-et-Loire,46.556,4.9936,Cuisery,71290
71,Saône-et-Loire,46.645,4.6526,Culles-les-Roches,71460
71,Saône-et-Loire,46.311,4.3169,Curbigny,71800
71,Saône-et-Loire,46.593,3.9972,Curdin,71130
71,Saône-et-Loire,46.988,4.3827,Curgy,71400
71,Saône-et-Loire,46.402,4.5264,Curtil-sous-Buffières,71520
71,Saône-et-Loire,46.583,4.6312,Curtil-sous-Burnand,71460
71,Saône-et-Loire,47.093,4.1636,Cussy-en-Morvan,71550
71,Saône-et-Loire,46.760,4.0317,Cuzy,71320
71,Saône-et-Loire,46.834,4.9942,Damerey,71620
71,Saône-et-Loire,46.827,5.2031,Dampierre-en-Bresse,71310
71,Saône-et-Loire,46.303,4.7486,Davayé,71960
71,Saône-et-Loire,46.914,4.8479,Demigny,71150
71,Saône-et-Loire,46.865,4.6449,Dennevy,71510
71,Saône-et-Loire,46.767,4.1860,Dettey,71190
71,Saône-et-Loire,46.761,5.1671,Devrouze,71330
71,Saône-et-Loire,46.923,4.6596,Dezize-lès-Maranges,71150
71,Saône-et-Loire,46.777,5.1190,Diconne,71330
71,Saône-et-Loire,46.489,4.0251,Digoin,71160
71,Saône-et-Loire,46.489,4.0251,Digoin,71160
71,Saône-et-Loire,46.499,5.2897,Dommartin-lès-Cuiseaux,71480
71,Saône-et-Loire,46.354,4.4808,Dompierre-les-Ormes,71520
71,Saône-et-Loire,46.354,4.4808,Dompierre-les-Ormes,71520
71,Saône-et-Loire,46.664,4.2250,Dompierre-sous-Sanvignes,71420
71,Saône-et-Loire,46.449,4.5648,Donzy-le-National,71250
71,Saône-et-Loire,46.447,4.7172,Donzy-le-Pertuis,71250
71,Saône-et-Loire,46.796,4.7704,Dracy-le-Fort,71640
71,Saône-et-Loire,46.893,4.5663,Dracy-lès-Couches,71490
71,Saône-et-Loire,47.014,4.3403,Dracy-Saint-Loup,71400
71,Saône-et-Loire,46.363,4.2815,Dyo,71800
71,Saône-et-Loire,46.951,5.0701,Écuelles,71350
71,Saône-et-Loire,46.755,4.5249,Écuisses,71210
71,Saône-et-Loire,46.944,4.6007,Épertully,71360
71,Saône-et-Loire,46.745,4.9023,Épervans,71380
71,Saône-et-Loire,46.990,4.5197,Épinac,71360
71,Saône-et-Loire,46.810,4.5415,Essertenne,71510
71,Saône-et-Loire,46.859,4.1791,Étang-sur-Arroux,71190
71,Saône-et-Loire,46.589,4.7916,Étrigny,71240
71,Saône-et-Loire,46.589,4.7916,Étrigny,71240
71,Saône-et-Loire,46.833,4.8064,Farges-lès-Chalon,71150
71,Saône-et-Loire,46.511,4.9115,Farges-lès-Mâcon,71700
71,Saône-et-Loire,46.664,5.3367,Le Fay,71580
71,Saône-et-Loire,46.594,5.3815,Flacey-en-Bresse,71580
71,Saône-et-Loire,46.492,4.6389,Flagy,71250
71,Saône-et-Loire,46.199,4.1256,Fleury-la-Montagne,71340
71,Saône-et-Loire,46.675,4.6390,Fley,71390
71,Saône-et-Loire,46.851,4.7807,Fontaines,71150
71,Saône-et-Loire,46.476,4.2995,Fontenay,71120
71,Saône-et-Loire,46.831,4.8494,Fragnes-La Loyère,71530
71,Saône-et-Loire,46.831,4.8494,Fragnes-La Loyère,71530
71,Saône-et-Loire,46.719,5.3322,Frangy-en-Bresse,71330
71,Saône-et-Loire,46.641,5.0496,La Frette,71440
71,Saône-et-Loire,46.923,5.2878,Fretterans,71270
71,Saône-et-Loire,46.899,5.1631,Frontenard,71270
71,Saône-et-Loire,46.548,5.2908,Frontenaud,71580
71,Saône-et-Loire,46.279,4.7464,Fuissé,71960
71,Saône-et-Loire,46.579,4.2500,Génelard,71420
71,Saône-et-Loire,46.549,5.0497,La Genête,71290
71,Saône-et-Loire,46.652,4.5689,Genouilly,71460
71,Saône-et-Loire,46.879,4.9212,Gergy,71590
71,Saône-et-Loire,46.673,4.5976,Germagny,71460
71,Saône-et-Loire,46.277,4.5955,Germolles-sur-Grosne,71520
71,Saône-et-Loire,46.317,4.3802,Gibles,71800
71,Saône-et-Loire,46.653,4.9384,Gigny-sur-Saône,71240
71,Saône-et-Loire,46.548,3.7928,Gilly-sur-Loire,71160
71,Saône-et-Loire,46.770,4.7544,Givry,71640
71,Saône-et-Loire,46.640,4.4421,Gourdon,71300
71,Saône-et-Loire,46.968,4.1408,La Grande-Verrière,71990
71,Saône-et-Loire,46.505,4.2649,Grandvaux,71430
71,Saône-et-Loire,46.736,4.7521,Granges,71390
71,Saône-et-Loire,46.512,4.8193,Grevilly,71700
71,Saône-et-Loire,46.664,3.9133,Grury,71760
71,Saône-et-Loire,46.782,5.0290,Guerfand,71620
71,Saône-et-Loire,46.540,3.9234,Les Guerreaux,71160
71,Saône-et-Loire,46.593,4.0493,Gueugnon,71130
71,Saône-et-Loire,46.528,4.4408,La Guiche,71220
71,Saône-et-Loire,46.435,4.1720,Hautefond,71600
71,Saône-et-Loire,46.394,4.0089,L'Hôpital-le-Mercier,71600
71,Saône-et-Loire,46.605,5.0531,Huilly-sur-Seille,71290
71,Saône-et-Loire,46.342,4.7963,Hurigny,71870
71,Saône-et-Loire,46.405,4.7348,Igé,71960
71,Saône-et-Loire,47.056,4.3787,Igornay,71540
71,Saône-et-Loire,46.216,4.0769,Iguerande,71340
71,Saône-et-Loire,46.713,4.0005,Issy-l'Évêque,71760
71,Saône-et-Loire,46.412,4.6349,Jalogny,71250
71,Saône-et-Loire,46.773,4.6802,Jambles,71640
71,Saône-et-Loire,46.614,4.5501,Joncy,71460
71,Saône-et-Loire,46.473,5.3394,Joudes,71480
71,Saône-et-Loire,46.576,5.0520,Jouvençon,71290
71,Saône-et-Loire,46.604,4.8614,Jugy,71240
71,Saône-et-Loire,46.682,5.1624,Juif,71440
71,Saône-et-Loire,46.687,4.7231,Jully-lès-Buxy,71390
71,Saône-et-Loire,46.569,4.9360,Lacrost,71700
71,Saône-et-Loire,46.652,4.8348,Laives,71240
71,Saône-et-Loire,46.382,4.8040,Laizé,71870
71,Saône-et-Loire,46.910,4.1832,Laizy,71190
71,Saône-et-Loire,46.650,4.7925,Lalheue,71240
71,Saône-et-Loire,46.764,4.9320,Lans,71380
71,Saône-et-Loire,46.920,5.2433,Lays-sur-le-Doubs,71270
71,Saône-et-Loire,46.648,3.7212,Lesme,71140
71,Saône-et-Loire,46.741,5.0836,Lessard-en-Bresse,71440
71,Saône-et-Loire,46.873,4.8460,Lessard-le-National,71530
71,Saône-et-Loire,46.264,4.7293,Leynes,71570
71,Saône-et-Loire,46.240,4.2017,Ligny-en-Brionnais,71110
71,Saône-et-Loire,46.590,5.0128,Loisy,71290
71,Saône-et-Loire,46.933,5.2032,Longepierre,71270
71,Saône-et-Loire,46.635,5.2383,Louhans,71500
71,Saône-et-Loire,46.635,5.2383,Louhans,71500
71,Saône-et-Loire,46.464,4.6491,Lournand,71250
71,Saône-et-Loire,47.084,4.2610,Lucenay-l'Évêque,71540
71,Saône-et-Loire,46.480,4.8191,Lugny,71260
71,Saône-et-Loire,46.411,4.2039,Lugny-lès-Charolles,71120
71,Saône-et-Loire,46.749,4.8604,Lux,71100
71,Saône-et-Loire,46.320,4.8184,Mâcon,71000
71,Saône-et-Loire,46.320,4.8184,Mâcon,71000
71,Saône-et-Loire,46.320,4.8184,Mâcon,71000
71,Saône-et-Loire,46.320,4.8184,Mâcon,71000
71,Saône-et-Loire,46.320,4.8184,Mâcon,71000
71,Saône-et-Loire,46.227,4.1119,Mailly,71340
71,Saône-et-Loire,46.566,4.6862,Malay,71460
71,Saône-et-Loire,46.675,3.8094,Maltat,71140
71,Saône-et-Loire,46.569,4.8453,Mancey,71240
71,Saône-et-Loire,46.275,4.0391,Marcigny,71110
71,Saône-et-Loire,46.395,4.3044,Marcilly-la-Gueurce,71120
71,Saône-et-Loire,46.726,4.5918,Marcilly-lès-Buxy,71390
71,Saône-et-Loire,46.680,4.4697,Marigny,71300
71,Saône-et-Loire,46.571,4.3999,Le Rousset-Marizy,71220
71,Saône-et-Loire,46.571,4.3999,Le Rousset-Marizy,71220
71,Saône-et-Loire,46.729,3.9339,Marly-sous-Issy,71760
71,Saône-et-Loire,46.619,4.1315,Marly-sur-Arroux,71420
71,Saône-et-Loire,46.842,4.3712,Marmagne,71710
71,Saône-et-Loire,46.698,4.9260,Marnay,71240
71,Saône-et-Loire,46.531,4.7971,Martailly-lès-Brancion,71700
71,Saône-et-Loire,46.536,4.3336,Martigny-le-Comte,71220
71,Saône-et-Loire,46.610,4.5004,Mary,71300
71,Saône-et-Loire,46.490,4.6694,Massilly,71250
71,Saône-et-Loire,46.489,4.6094,Massy,71250
71,Saône-et-Loire,46.311,4.4771,Matour,71520
71,Saône-et-Loire,46.391,4.5991,Mazille,71250
71,Saône-et-Loire,46.199,4.0133,Melay,71340
71,Saône-et-Loire,46.810,4.7565,Mellecey,71640
71,Saône-et-Loire,46.810,4.7565,Mellecey,71640
71,Saône-et-Loire,46.583,5.1252,Ménetreuil,71470
71,Saône-et-Loire,46.834,4.7241,Mercurey,71640
71,Saône-et-Loire,46.834,4.7241,Mercurey,71640
71,Saône-et-Loire,46.794,5.1841,Mervans,71310
71,Saône-et-Loire,46.650,4.7508,Messey-sur-Grosne,71390
71,Saône-et-Loire,46.870,4.2532,Mesvres,71190
71,Saône-et-Loire,46.348,4.6962,Milly-Lamartine,71960
71,Saône-et-Loire,46.543,5.3386,Le Miroir,71480
71,Saône-et-Loire,46.631,3.8279,Mont,71140
71,Saône-et-Loire,46.705,4.6695,Montagny-lès-Buxy,71390
71,Saône-et-Loire,46.658,5.2836,Montagny-près-Louhans,71500
71,Saône-et-Loire,46.353,4.5444,Montagny-sur-Grosne,71520
71,Saône-et-Loire,46.471,4.8783,Montbellet,71260
71,Saône-et-Loire,46.676,4.3540,Montceau-les-Mines,71300
71,Saône-et-Loire,46.356,4.0450,Montceaux-l'Étoile,71110
71,Saône-et-Loire,46.620,4.8417,Montceaux-Ragny,71240
71,Saône-et-Loire,46.786,4.3909,Montcenis,71710
71,Saône-et-Loire,46.747,4.4742,Montchanin,71210
71,Saône-et-Loire,46.694,5.2980,Montcony,71500
71,Saône-et-Loire,46.796,4.9981,Montcoy,71620
71,Saône-et-Loire,46.959,4.2211,Monthelon,71400
71,Saône-et-Loire,46.805,5.2998,Montjay,71310
71,Saône-et-Loire,46.952,5.1290,Mont-lès-Seurre,71270
71,Saône-et-Loire,46.342,4.4140,Montmelard,71520
71,Saône-et-Loire,46.741,4.0960,Montmort,71320
71,Saône-et-Loire,46.541,5.1743,Montpont-en-Bresse,71470
71,Saône-et-Loire,46.683,5.1132,Montret,71440
71,Saône-et-Loire,46.646,4.4919,Mont-Saint-Vincent,71300
71,Saône-et-Loire,46.791,4.5868,Morey,71510
71,Saône-et-Loire,46.953,4.5052,Morlet,71360
71,Saône-et-Loire,46.499,4.3810,Mornay,71220
71,Saône-et-Loire,46.750,4.6743,Moroges,71390
71,Saône-et-Loire,46.514,3.9600,La Motte-Saint-Jean,71160
71,Saône-et-Loire,46.863,5.3806,Mouthier-en-Bresse,71270
71,Saône-et-Loire,46.237,4.3341,Mussy-sous-Dun,71170
71,Saône-et-Loire,46.619,4.8158,Nanton,71240
71,Saône-et-Loire,46.928,5.1445,Navilly,71270
71,Saône-et-Loire,46.593,3.9277,Neuvy-Grandchamp,71130
71,Saône-et-Loire,46.404,4.1648,Nochize,71600
71,Saône-et-Loire,46.633,4.9665,Ormes,71290
71,Saône-et-Loire,46.777,4.9429,Oslon,71380
71,Saône-et-Loire,46.582,4.1661,Oudry,71420
71,Saône-et-Loire,46.361,4.3101,Ouroux-sous-le-Bois-Sainte-Marie,71800
71,Saône-et-Loire,46.724,4.9506,Ouroux-sur-Saône,71370
71,Saône-et-Loire,46.324,4.1934,Oyé,71800
71,Saône-et-Loire,46.535,4.8433,Ozenay,71700
71,Saône-et-Loire,46.379,4.3603,Ozolles,71120
71,Saône-et-Loire,46.547,4.2078,Palinges,71430
71,Saône-et-Loire,46.965,5.0320,Palleau,71350
71,Saône-et-Loire,46.443,4.1128,Paray-le-Monial,71600
71,Saône-et-Loire,46.912,4.6395,Paris-l'Hôpital,71150
71,Saône-et-Loire,46.540,4.5354,Passy,71220
71,Saône-et-Loire,46.441,4.8012,Péronne,71260
71,Saône-et-Loire,46.621,4.2262,Perrecy-les-Forges,71420
71,Saône-et-Loire,46.822,4.5674,Perreuil,71510
71,Saône-et-Loire,46.543,3.8513,Perrigny-sur-Loire,71160
71,Saône-et-Loire,47.044,4.1669,La Petite-Verrière,71400
71,Saône-et-Loire,46.332,4.6713,Pierreclos,71960
71,Saône-et-Loire,46.882,5.2526,Pierre-de-Bresse,71270
71,Saône-et-Loire,46.882,5.2526,Pierre-de-Bresse,71270
71,Saône-et-Loire,46.789,5.3226,Le Planois,71330
71,Saône-et-Loire,46.533,4.8854,Plottes,71700
71,Saône-et-Loire,46.380,4.1335,Poisson,71600
71,Saône-et-Loire,46.908,5.1212,Pontoux,71270
71,Saône-et-Loire,46.604,4.3534,Pouilloux,71230
71,Saône-et-Loire,46.963,5.2366,Pourlans,71270
71,Saône-et-Loire,46.476,4.5039,Pressy-sous-Dondin,71220
71,Saône-et-Loire,46.539,4.9555,Préty,71290
71,Saône-et-Loire,46.324,4.7481,Prissé,71960
71,Saône-et-Loire,46.351,4.2182,Prizy,71800
71,Saône-et-Loire,46.259,4.6974,Pruzilly,71570
71,Saône-et-Loire,46.676,4.5658,Le Puley,71460
71,Saône-et-Loire,46.831,5.1609,La Racineuse,71310
71,Saône-et-Loire,46.600,5.0830,Rancy,71290
71,Saône-et-Loire,46.524,5.0010,Ratenelle,71290
71,Saône-et-Loire,46.639,5.3055,Ratte,71500
71,Saône-et-Loire,47.047,4.2846,Reclesne,71540
71,Saône-et-Loire,46.909,4.7242,Remigny,71150
71,Saône-et-Loire,46.542,4.0181,Rigny-sur-Arroux,71160
71,Saône-et-Loire,46.351,4.7485,La Roche-Vineuse,71960
71,Saône-et-Loire,46.190,4.7434,Romanèche-Thorins,71570
71,Saône-et-Loire,46.514,5.0814,Romenay,71470
71,Saône-et-Loire,46.740,4.7142,Rosey,71390
71,Saône-et-Loire,47.021,4.1044,Roussillon-en-Morvan,71550
71,Saône-et-Loire,46.555,4.8232,Royer,71700
71,Saône-et-Loire,46.872,4.7506,Rully,71150
71,Saône-et-Loire,46.593,5.3241,Sagy,71580
71,Saône-et-Loire,46.697,5.3722,Saillenard,71580
71,Saône-et-Loire,46.532,4.5621,Sailly,71250
71,Saône-et-Loire,46.513,3.8873,Saint-Agnan,71160
71,Saône-et-Loire,46.422,4.8681,Saint-Albain,71260
71,Saône-et-Loire,46.681,4.8191,Saint-Ambreuil,71240
71,Saône-et-Loire,46.241,4.7404,Saint-Amour-Bellevue,71570
71,Saône-et-Loire,46.650,5.0860,Saint-André-en-Bresse,71440
71,Saône-et-Loire,46.499,4.5345,Saint-André-le-Désert,71220
71,Saône-et-Loire,46.500,4.2089,Saint-Aubin-en-Charollais,71430
71,Saône-et-Loire,46.567,3.7614,Saint-Aubin-sur-Loire,71140
71,Saône-et-Loire,46.715,4.2913,Saint-Berain-sous-Sanvignes,71300
71,Saône-et-Loire,46.816,4.6143,Saint-Bérain-sur-Dheune,71510
71,Saône-et-Loire,46.641,4.6995,Saint-Boil,71390
71,Saône-et-Loire,46.202,4.1634,Saint-Bonnet-de-Cray,71340
71,Saône-et-Loire,46.478,4.4334,Saint-Bonnet-de-Joux,71220
71,Saône-et-Loire,46.530,4.2714,Saint-Bonnet-de-Vieille-Vigne,71430
71,Saône-et-Loire,46.858,5.1782,Saint-Bonnet-en-Bresse,71310
71,Saône-et-Loire,46.385,4.6346,Sainte-Cécile,71250
71,Saône-et-Loire,46.745,4.9909,Saint-Christophe-en-Bresse,71370
71,Saône-et-Loire,46.284,4.1900,Saint-Christophe-en-Brionnais,71800
71,Saône-et-Loire,46.613,4.5866,Saint-Clément-sur-Guye,71460
71,Saône-et-Loire,46.558,5.2382,Sainte-Croix,71470
71,Saône-et-Loire,46.679,4.9005,Saint-Cyr,71240
71,Saône-et-Loire,46.792,4.7015,Saint-Denis-de-Vaux,71640
71,Saône-et-Loire,46.757,4.7134,Saint-Désert,71390
71,Saône-et-Loire,46.850,5.1032,Saint-Didier-en-Bresse,71620
71,Saône-et-Loire,46.338,4.1239,Saint-Didier-en-Brionnais,71110
71,Saône-et-Loire,46.832,4.1002,Saint-Didier-sur-Arroux,71190
71,Saône-et-Loire,46.203,4.2106,Saint-Edmond,71740
71,Saône-et-Loire,46.894,4.4730,Saint-Émiland,71490
71,Saône-et-Loire,46.706,5.0622,Saint-Étienne-en-Bresse,71370
71,Saône-et-Loire,46.730,4.2202,Saint-Eugène,71320
71,Saône-et-Loire,46.721,4.4544,Saint-Eusèbe,71210
71,Saône-et-Loire,46.847,4.4631,Saint-Firmin,71670
71,Saône-et-Loire,47.001,4.2863,Saint-Forgeot,71400
71,Saône-et-Loire,46.277,4.1320,Sainte-Foy,71110
71,Saône-et-Loire,46.461,4.7714,Saint-Gengoux-de-Scissé,71260
71,Saône-et-Loire,46.613,4.6634,Saint-Gengoux-le-National,71460
71,Saône-et-Loire,46.740,5.2448,Saint-Germain-du-Bois,71330
71,Saône-et-Loire,46.694,4.9839,Saint-Germain-du-Plain,71370
71,Saône-et-Loire,46.346,4.2510,Saint-Germain-en-Brionnais,71800
71,Saône-et-Loire,46.696,4.7732,Saint-Germain-lès-Buxy,71390
71,Saône-et-Loire,46.945,4.9624,Saint-Gervais-en-Vallière,71350
71,Saône-et-Loire,46.924,4.5677,Saint-Gervais-sur-Couches,71490
71,Saône-et-Loire,46.877,4.6640,Saint-Gilles,71510
71,Saône-et-Loire,46.757,4.6346,Sainte-Hélène,71390
71,Saône-et-Loire,46.578,4.5747,Saint-Huruge,71460
71,Saône-et-Loire,46.187,4.3037,Saint-Igny-de-Roche,71170
71,Saône-et-Loire,46.806,4.6957,Saint-Jean-de-Vaux,71640
71,Saône-et-Loire,46.842,4.5863,Saint-Jean-de-Trézy,71490
71,Saône-et-Loire,46.372,4.2211,Saint-Julien-de-Civry,71800
71,Saône-et-Loire,46.246,4.1425,Saint-Julien-de-Jonzy,71110
71,Saône-et-Loire,46.772,4.5477,Saint-Julien-sur-Dheune,71210
71,Saône-et-Loire,46.730,4.5120,Saint-Laurent-d'Andenay,71210
71,Saône-et-Loire,46.269,4.2567,Saint-Laurent-en-Brionnais,71800
71,Saône-et-Loire,47.022,4.4323,Saint-Léger-du-Bois,71360
71,Saône-et-Loire,46.484,4.1163,Saint-Léger-lès-Paray,71600
71,Saône-et-Loire,46.919,4.0920,Saint-Léger-sous-Beuvray,71990
71,Saône-et-Loire,46.311,4.5627,Saint-Léger-sous-la-Bussière,71520
71,Saône-et-Loire,46.838,4.6413,Saint-Léger-sur-Dheune,71510
71,Saône-et-Loire,46.938,4.9092,Saint-Loup-Géanges,71350
71,Saône-et-Loire,46.938,4.9092,Saint-Loup-Géanges,71350
71,Saône-et-Loire,46.723,4.8521,Saint-Loup-de-Varennes,71240
71,Saône-et-Loire,46.774,4.8872,Saint-Marcel,71380
71,Saône-et-Loire,46.565,4.5224,Saint-Marcelin-de-Cray,71460
71,Saône-et-Loire,46.813,4.6717,Saint-Mard-de-Vaux,71640
71,Saône-et-Loire,46.380,4.8545,Saint-Martin-Belle-Roche,71118
71,Saône-et-Loire,46.721,4.5507,Saint-Martin-d'Auxy,71390
71,Saône-et-Loire,46.902,4.5175,Saint-Martin-de-Commune,71490
71,Saône-et-Loire,46.196,4.2384,Saint-Martin-de-Lixy,71740
71,Saône-et-Loire,46.518,4.4932,Saint-Martin-de-Salencey,71220
71,Saône-et-Loire,46.249,4.0552,Saint-Martin-du-Lac,71110
71,Saône-et-Loire,46.620,5.2942,Saint-Martin-du-Mont,71580
71,Saône-et-Loire,46.648,4.6068,Saint-Martin-du-Tartre,71460
71,Saône-et-Loire,46.804,5.0600,Saint-Martin-en-Bresse,71620
71,Saône-et-Loire,46.943,5.0072,Saint-Martin-en-Gâtinois,71350
71,Saône-et-Loire,46.583,4.5453,Saint-Martin-la-Patrouille,71460
71,Saône-et-Loire,46.813,4.7100,Saint-Martin-sous-Montaigu,71640
71,Saône-et-Loire,46.405,4.7823,Saint-Maurice-de-Satonnay,71260
71,Saône-et-Loire,46.623,4.6260,Saint-Maurice-des-Champs,71460
71,Saône-et-Loire,46.849,5.0221,Saint-Maurice-en-Rivière,71620
71,Saône-et-Loire,46.226,4.2509,Saint-Maurice-lès-Châteauneuf,71740
71,Saône-et-Loire,46.877,4.6013,Saint-Maurice-lès-Couches,71490
71,Saône-et-Loire,46.692,4.5270,Saint-Micaud,71460
71,Saône-et-Loire,46.814,4.1582,Saint-Nizier-sur-Arroux,71190
71,Saône-et-Loire,46.847,4.5090,Saint-Pierre-de-Varennes,71670
71,Saône-et-Loire,46.287,4.5251,Saint-Pierre-le-Vieux,71520
71,Saône-et-Loire,46.337,4.6212,Saint-Point,71520
71,Saône-et-Loire,46.699,4.5752,Saint-Privé,71390
71,Saône-et-Loire,46.972,4.0611,Saint-Prix,71990
71,Saône-et-Loire,46.262,4.3737,Saint-Racho,71800
71,Saône-et-Loire,46.693,4.0794,Sainte-Radegonde,71320
71,Saône-et-Loire,46.760,4.8212,Saint-Rémy,71100
71,Saône-et-Loire,46.617,4.4114,Saint-Romain-sous-Gourdon,71230
71,Saône-et-Loire,46.652,4.1849,Saint-Romain-sous-Versigny,71420
71,Saône-et-Loire,46.838,4.4237,Saint-Sernin-du-Bois,71200
71,Saône-et-Loire,46.892,4.6173,Saint-Sernin-du-Plain,71510
71,Saône-et-Loire,46.195,4.7719,Saint-Symphorien-d'Ancelles,71570
71,Saône-et-Loire,46.195,4.7719,Saint-Symphorien-d'Ancelles,71570
71,Saône-et-Loire,46.828,4.3182,Saint-Symphorien-de-Marmagne,71710
71,Saône-et-Loire,46.326,4.2853,Saint-Symphorien-des-Bois,71800
71,Saône-et-Loire,46.690,5.2414,Saint-Usuge,71500
71,Saône-et-Loire,46.684,4.6693,Saint-Vallerin,71390
71,Saône-et-Loire,46.643,4.3599,Saint-Vallier,71230
71,Saône-et-Loire,46.643,4.3599,Saint-Vallier,71230
71,Saône-et-Loire,46.253,4.7276,Saint-Vérand,71570
71,Saône-et-Loire,46.474,4.5552,Saint-Vincent-des-Prés,71250
71,Saône-et-Loire,46.671,5.0609,Saint-Vincent-en-Bresse,71440
71,Saône-et-Loire,46.525,4.1260,Saint-Vincent-Bragny,71430
71,Saône-et-Loire,46.525,4.1260,Saint-Vincent-Bragny,71430
71,Saône-et-Loire,46.407,4.0576,Saint-Yan,71600
71,Saône-et-Loire,46.568,4.6030,Saint-Ythaire,71460
71,Saône-et-Loire,46.961,4.5562,Saisy,71360
71,Saône-et-Loire,46.408,4.8608,La Salle,71260
71,Saône-et-Loire,46.517,4.6006,Salornay-sur-Guye,71250
71,Saône-et-Loire,46.902,4.6527,Sampigny-lès-Maranges,71150
71,Saône-et-Loire,46.339,4.8354,Sancé,71000
71,Saône-et-Loire,46.620,4.7049,Santilly,71460
71,Saône-et-Loire,46.668,4.2798,Sanvignes-les-Mines,71410
71,Saône-et-Loire,46.309,4.1070,Sarry,71110
71,Saône-et-Loire,46.723,4.6430,Sassangy,71390
71,Saône-et-Loire,46.833,4.9180,Sassenay,71530
71,Saône-et-Loire,46.655,4.6747,Saules,71390
71,Saône-et-Loire,46.911,5.0716,Saunières,71350
71,Saône-et-Loire,46.689,4.6017,Savianges,71460
71,Saône-et-Loire,46.633,5.3907,Savigny-en-Revermont,71580
71,Saône-et-Loire,46.581,4.6639,Savigny-sur-Grosne,71460
71,Saône-et-Loire,46.633,5.1025,Savigny-sur-Seille,71440
71,Saône-et-Loire,47.007,4.1785,La Celle-en-Morvan,71400
71,Saône-et-Loire,46.275,4.0901,Semur-en-Brionnais,71110
71,Saône-et-Loire,46.636,4.8906,Sennecey-le-Grand,71240
71,Saône-et-Loire,46.396,4.8645,Senozan,71260
71,Saône-et-Loire,46.746,5.3079,Sens-sur-Seille,71330
71,Saône-et-Loire,46.600,4.6932,Sercy,71460
71,Saône-et-Loire,46.788,5.2423,Serley,71310
71,Saône-et-Loire,46.894,5.0933,Sermesse,71350
71,Saône-et-Loire,46.310,4.6661,Serrières,71960
71,Saône-et-Loire,46.824,5.1219,Serrigny-en-Bresse,71310
71,Saône-et-Loire,46.735,4.8287,Sevrey,71100
71,Saône-et-Loire,46.555,4.5708,Sigy-le-Châtel,71250
71,Saône-et-Loire,46.612,4.9870,Simandre,71290
71,Saône-et-Loire,46.716,5.1825,Simard,71330
71,Saône-et-Loire,46.426,4.4991,Sivignon,71220
71,Saône-et-Loire,46.370,4.6729,Sologny,71960
71,Saône-et-Loire,46.293,4.7234,Solutré-Pouilly,71960
71,Saône-et-Loire,47.053,4.2096,Sommant,71540
71,Saône-et-Loire,46.621,5.1697,Sornay,71500
71,Saône-et-Loire,46.440,4.4567,Suin,71220
71,Saône-et-Loire,46.988,4.4570,Sully,71360
71,Saône-et-Loire,46.796,4.2151,La Tagnière,71190
71,Saône-et-Loire,46.510,4.6730,Taizé,71250
71,Saône-et-Loire,46.510,4.6730,Taizé,71250
71,Saône-et-Loire,46.200,4.2704,Tancon,71740
71,Saône-et-Loire,46.742,5.3527,Le Tartre,71330
71,Saône-et-Loire,47.007,4.2353,Tavernay,71400
71,Saône-et-Loire,46.804,4.0921,Thil-sur-Arroux,71190
71,Saône-et-Loire,46.743,5.1256,Thurey,71440
71,Saône-et-Loire,46.931,4.4892,Tintry,71490
71,Saône-et-Loire,46.766,4.4462,Torcy,71210
71,Saône-et-Loire,46.839,5.3354,Torpes,71270
71,Saône-et-Loire,46.682,4.1477,Toulon-sur-Arroux,71320
71,Saône-et-Loire,46.565,4.9001,Tournus,71700
71,Saône-et-Loire,46.870,5.1140,Toutenant,71350
71,Saône-et-Loire,46.305,4.6036,Tramayes,71520
71,Saône-et-Loire,46.331,4.5325,Trambly,71520
71,Saône-et-Loire,46.390,4.4874,Trivy,71520
71,Saône-et-Loire,46.727,5.0737,Tronchy,71440
71,Saône-et-Loire,46.516,4.9580,La Truchère,71290
71,Saône-et-Loire,46.498,4.8868,Uchizy,71700
71,Saône-et-Loire,46.809,4.2627,Uchon,71190
71,Saône-et-Loire,46.656,4.0455,Uxeau,71130
71,Saône-et-Loire,46.300,4.2482,Vareilles,71800
71,Saône-et-Loire,46.341,4.1569,Varenne-l'Arconce,71110
71,Saône-et-Loire,46.710,4.8781,Varennes-le-Grand,71240
71,Saône-et-Loire,46.268,4.8066,Varennes-lès-Mâcon,71000
71,Saône-et-Loire,46.437,4.0265,Varenne-Saint-Germain,71600
71,Saône-et-Loire,46.437,4.0265,Varenne-Saint-Germain,71600
71,Saône-et-Loire,46.501,5.2384,Varennes-Saint-Sauveur,71480
71,Saône-et-Loire,46.278,4.3387,Varennes-sous-Dun,71800
71,Saône-et-Loire,46.263,4.2224,Vauban,71800
71,Saône-et-Loire,46.416,4.3120,Vaudebarrier,71120
71,Saône-et-Loire,46.622,4.6018,Vaux-en-Pré,71460
71,Saône-et-Loire,46.440,4.3567,Vendenesse-lès-Charolles,71120
71,Saône-et-Loire,46.631,4.0669,Vendenesse-sur-Arroux,71130
71,Saône-et-Loire,46.890,5.0125,Verdun-sur-le-Doubs,71350
71,Saône-et-Loire,46.309,4.7100,Vergisson,71960
71,Saône-et-Loire,46.711,5.1282,Vérissey,71440
71,Saône-et-Loire,46.877,4.9768,Verjux,71590
71,Saône-et-Loire,46.395,4.4403,Verosvres,71220
71,Saône-et-Loire,46.582,4.8554,Vers,71240
71,Saône-et-Loire,46.367,4.0704,Versaugues,71110
71,Saône-et-Loire,46.377,4.7367,Verzé,71960
71,Saône-et-Loire,46.528,4.9218,Le Villars,71700
71,Saône-et-Loire,46.800,5.1031,Villegaudin,71620
71,Saône-et-Loire,46.957,5.1683,Clux-Villeneuve,71270
71,Saône-et-Loire,46.957,5.1683,Clux-Villeneuve,71270
71,Saône-et-Loire,46.762,4.5892,Villeneuve-en-Montagne,71390
71,Saône-et-Loire,46.664,5.2248,Vincelles,71500
71,Saône-et-Loire,46.353,4.0076,Vindecy,71110
71,Saône-et-Loire,46.460,4.6012,La Vineuse sur Fregande,71250
71,Saône-et-Loire,46.267,4.7775,Vinzelles,71680
71,Saône-et-Loire,46.444,4.8496,Viré,71260
71,Saône-et-Loire,46.444,4.8496,Viré,71260
71,Saône-et-Loire,46.852,4.8694,Virey-le-Grand,71530
71,Saône-et-Loire,46.472,4.3377,Viry,71120
71,Saône-et-Loire,46.492,4.5850,Vitry-lès-Cluny,71250
71,Saône-et-Loire,46.461,4.0599,Vitry-en-Charollais,71600
71,Saône-et-Loire,46.679,3.7176,Vitry-sur-Loire,71140
71,Saône-et-Loire,46.473,4.1677,Volesvres,71600
71,Saône-et-Loire,46.442,4.8801,Fleurville,71260
