department_id,department_name,latitude,longitude,locality,postal_code
76,Seine-Maritime,49.594,0.6654,Allouville-Bellefosse,76190
76,Seine-Maritime,49.607,0.6320,Alvimare,76640
76,Seine-Maritime,49.858,0.9837,Ambrumesnil,76550
76,Seine-Maritime,49.404,1.1247,Amfreville-la-Mi-Voie,76920
76,Seine-Maritime,49.698,0.8262,Amfreville-les-Champs,76560
76,Seine-Maritime,49.569,1.0653,Anceaumeville,76710
76,Seine-Maritime,49.908,1.1789,Ancourt,76370
76,Seine-Maritime,49.690,0.6606,Ancourteville-sur-Héricourt,76560
76,Seine-Maritime,49.654,0.9674,Ancretiéville-Saint-Victor,76760
76,Seine-Maritime,49.789,0.5042,Ancretteville-sur-Mer,76540
76,Seine-Maritime,49.667,0.4543,Angerville-Bailleul,76110
76,Seine-Maritime,49.768,0.5016,Angerville-la-Martel,76540
76,Seine-Maritime,49.586,0.2926,Angerville-l'Orcher,76280
76,Seine-Maritime,49.833,0.7989,Angiens,76740
76,Seine-Maritime,49.778,0.7825,Anglesqueville-la-Bras-Long,76740
76,Seine-Maritime,49.630,0.2354,Anglesqueville-l'Esneval,76280
76,Seine-Maritime,49.708,0.9662,Val-de-Saâne,76890
76,Seine-Maritime,49.838,1.0930,Anneville-sur-Scie,76590
76,Seine-Maritime,49.450,0.8919,Anneville-Ambourville,76480
76,Seine-Maritime,49.450,0.8919,Anneville-Ambourville,76480
76,Seine-Maritime,49.679,0.4316,Annouville-Vilmesnil,76110
76,Seine-Maritime,49.536,0.6329,Anquetierville,76490
76,Seine-Maritime,49.699,0.7488,Anvéville,76560
76,Seine-Maritime,49.740,1.2731,Ardouval,76680
76,Seine-Maritime,49.545,1.5257,Argueil,76780
76,Seine-Maritime,49.882,1.1367,Arques-la-Bataille,76880
76,Seine-Maritime,49.809,1.6797,Aubéguimont,76390
76,Seine-Maritime,49.807,1.5683,Aubermesnil-aux-Érables,76340
76,Seine-Maritime,49.847,1.1212,Aubermesnil-Beaumais,76550
76,Seine-Maritime,49.829,0.5841,Auberville-la-Manuel,76450
76,Seine-Maritime,49.685,0.3791,Auberville-la-Renault,76110
76,Seine-Maritime,49.712,1.1130,Auffay,76720
76,Seine-Maritime,49.769,1.7549,Aumale,76390
76,Seine-Maritime,49.830,1.0308,Auppegard,76730
76,Seine-Maritime,49.597,1.1462,Authieux-Ratiéville,76690
76,Seine-Maritime,49.338,1.1328,Les Authieux-sur-le-Port-Saint-Ouen,76520
76,Seine-Maritime,49.795,0.8542,Autigny,76740
76,Seine-Maritime,49.655,0.7278,Autretot,76190
76,Seine-Maritime,49.757,1.5746,Auvilliers,76270
76,Seine-Maritime,49.601,0.7336,Auzebosc,76190
76,Seine-Maritime,49.630,0.5734,Auzouville-Auberbosc,76640
76,Seine-Maritime,49.633,0.8837,Auzouville-l'Esneval,76760
76,Seine-Maritime,49.437,1.3096,Auzouville-sur-Ry,76116
76,Seine-Maritime,49.741,0.9318,Auzouville-sur-Saâne,76730
76,Seine-Maritime,49.472,1.6758,Avesnes-en-Bray,76220
76,Seine-Maritime,49.917,1.4081,Avesnes-en-Val,76630
76,Seine-Maritime,49.850,0.9329,Avremesnil,76730
76,Seine-Maritime,49.796,1.0104,Bacqueville-en-Caux,76730
76,Seine-Maritime,49.809,1.4219,Bailleul-Neuville,76660
76,Seine-Maritime,49.789,1.4313,Baillolet,76660
76,Seine-Maritime,49.907,1.3503,Bailly-en-Rivière,76630
76,Seine-Maritime,49.639,0.7609,Baons-le-Comte,76190
76,Seine-Maritime,49.433,0.9234,Bardouville,76480
76,Seine-Maritime,49.545,0.9570,Barentin,76360
76,Seine-Maritime,49.985,1.4126,Baromesnil,76260
76,Seine-Maritime,49.948,1.5475,Bazinval,76340
76,Seine-Maritime,49.646,1.5142,Beaubec-la-Rosière,76440
76,Seine-Maritime,49.663,1.2200,Beaumont-le-Hareng,76850
76,Seine-Maritime,49.739,1.0253,Beauval-en-Caux,76890
76,Seine-Maritime,49.657,0.2181,Beaurepaire,76280
76,Seine-Maritime,49.689,1.5753,Beaussault,76870
76,Seine-Maritime,49.636,1.0477,Beautot,76890
76,Seine-Maritime,49.484,1.5830,Beauvoir-en-Lyons,76220
76,Seine-Maritime,49.704,0.4490,Bec-de-Mortagne,76110
76,Seine-Maritime,49.384,1.1384,Belbeuf,76240
76,Seine-Maritime,49.717,1.2360,Bellencombre,76680
76,Seine-Maritime,49.910,1.2278,Bellengreville,76630
76,Seine-Maritime,49.704,0.9889,Belleville-en-Caux,76890
76,Seine-Maritime,49.605,1.6026,La Bellière,76440
76,Seine-Maritime,49.768,1.0501,Belmesnil,76590
76,Seine-Maritime,49.672,0.4844,Bénarville,76110
76,Seine-Maritime,49.751,0.8281,Bénesville,76560
76,Seine-Maritime,49.678,0.5569,Bennetot,76640
76,Seine-Maritime,49.717,0.2461,Bénouville,76790
76,Seine-Maritime,49.641,0.6392,Bermonville,76640
76,Seine-Maritime,49.622,0.4774,Bernières,76210
76,Seine-Maritime,49.755,0.5916,Bertheauville,76450
76,Seine-Maritime,49.766,0.5800,Bertreville,76450
76,Seine-Maritime,49.812,1.0432,Bertreville-Saint-Ouen,76590
76,Seine-Maritime,49.670,0.9975,Bertrimont,76890
76,Seine-Maritime,49.712,0.8370,Berville-en-Caux,76560
76,Seine-Maritime,49.474,0.8948,Berville-sur-Seine,76480
76,Seine-Maritime,49.592,0.4213,Beuzeville-la-Grenier,76210
76,Seine-Maritime,49.709,0.6128,Beuzeville-la-Guérard,76450
76,Seine-Maritime,49.575,0.5477,Beuzevillette,76210
76,Seine-Maritime,49.435,1.6137,Bézancourt,76220
76,Seine-Maritime,49.536,1.2742,Bierville,76750
76,Seine-Maritime,,,Bihorel,76420
76,Seine-Maritime,49.721,1.0476,Biville-la-Baignarde,76890
76,Seine-Maritime,49.775,0.9204,Biville-la-Rivière,76730
76,Seine-Maritime,49.557,0.8485,Blacqueville,76190
76,Seine-Maritime,49.504,1.2918,Blainville-Crevon,76116
76,Seine-Maritime,49.916,1.6206,Blangy-sur-Bresle,76340
76,Seine-Maritime,49.426,1.1294,Bonsecours,76240
76,Seine-Maritime,49.851,0.8019,Blosseville,76460
76,Seine-Maritime,49.608,1.0698,Le Bocasse,76690
76,Seine-Maritime,49.427,1.2586,Bois-d'Ennebourg,76160
76,Seine-Maritime,49.540,1.4142,Bois-Guilbert,76750
76,Seine-Maritime,49.471,1.1202,Bois-Guillaume,76230
76,Seine-Maritime,49.564,1.4075,Bois-Héroult,76750
76,Seine-Maritime,49.580,0.6914,Bois-Himont,76190
76,Seine-Maritime,49.452,1.2556,Bois-l'Évêque,76160
76,Seine-Maritime,49.838,1.1491,Le Bois-Robert,76590
76,Seine-Maritime,49.518,1.3599,Boissay,76750
76,Seine-Maritime,49.575,0.4844,Bolbec,76210
76,Seine-Maritime,49.602,0.5639,Bolleville,76210
76,Seine-Maritime,49.380,1.2029,Boos,76520
76,Seine-Maritime,49.697,0.2422,Bordeaux-Saint-Clair,76790
76,Seine-Maritime,49.625,0.3532,Bornambusc,76110
76,Seine-Maritime,49.634,1.2535,Bosc-Bérenger,76680
76,Seine-Maritime,49.604,1.4092,Bosc-Bordel,76750
76,Seine-Maritime,49.574,1.4296,Bosc-Édeline,76750
76,Seine-Maritime,49.824,1.5220,Callengeville,76270
76,Seine-Maritime,49.824,1.5220,Callengeville,76270
76,Seine-Maritime,49.541,1.1252,Bosc-Guérard-Saint-Adrien,76710
76,Seine-Maritime,49.452,1.6498,Bosc-Hyons,76220
76,Seine-Maritime,49.621,1.1858,Bosc-le-Hard,76850
76,Seine-Maritime,49.668,1.3483,Bosc-Mesnil,76680
76,Seine-Maritime,49.587,1.3761,Bosc-Roger-sur-Buchy,76750
76,Seine-Maritime,49.762,0.6842,Bosville,76450
76,Seine-Maritime,49.720,0.8744,Boudeville,76560
76,Seine-Maritime,49.722,1.4921,Bouelles,76270
76,Seine-Maritime,49.350,0.9337,La Bouille,76530
76,Seine-Maritime,49.672,0.9400,Bourdainville,76760
76,Seine-Maritime,49.870,0.8926,Le Bourg-Dun,76740
76,Seine-Maritime,49.795,0.8237,Bourville,76740
76,Seine-Maritime,49.557,0.8947,Bouville,76360
76,Seine-Maritime,49.816,0.9489,Brachy,76730
76,Seine-Maritime,49.664,1.1697,Bracquetuit,76850
76,Seine-Maritime,49.660,1.3852,Bradiancourt,76680
76,Seine-Maritime,49.782,0.8698,Brametot,76740
76,Seine-Maritime,49.625,0.4037,Bréauté,76110
76,Seine-Maritime,49.514,1.6171,Brémontier-Merval,76220
76,Seine-Maritime,49.665,0.3859,Bretteville-du-Grand-Caux,76110
76,Seine-Maritime,49.766,0.8692,Bretteville-Saint-Laurent,76560
76,Seine-Maritime,49.589,1.3509,Buchy,76750
76,Seine-Maritime,49.720,1.3589,Bully,76270
76,Seine-Maritime,49.779,1.3352,Bures-en-Bray,76660
76,Seine-Maritime,49.613,1.0198,Butot,76890
76,Seine-Maritime,49.836,0.7360,Cailleville,76460
76,Seine-Maritime,49.586,1.2297,Cailly,76690
76,Seine-Maritime,49.703,1.0215,Calleville-les-Deux-Églises,76890
76,Seine-Maritime,49.862,1.6626,Campneuseville,76340
76,Seine-Maritime,49.979,1.3431,Canehan,76260
76,Seine-Maritime,49.806,0.5976,Canouville,76450
76,Seine-Maritime,49.433,1.0135,Canteleu,76380
76,Seine-Maritime,49.433,1.0135,Canteleu,76380
76,Seine-Maritime,49.433,1.0135,Canteleu,76380
76,Seine-Maritime,49.774,0.8363,Canville-les-Deux-Églises,76560
76,Seine-Maritime,49.775,0.6332,Cany-Barville,76450
76,Seine-Maritime,49.556,0.8167,Carville-la-Folletière,76190
76,Seine-Maritime,49.718,0.7231,Carville-Pot-de-Fer,76560
76,Seine-Maritime,49.757,1.1566,Le Catelier,76590
76,Seine-Maritime,49.510,1.3266,Catenay,76116
76,Seine-Maritime,49.530,0.7348,Rives-en-Seine,76490
76,Seine-Maritime,49.530,0.7348,Rives-en-Seine,76490
76,Seine-Maritime,49.530,0.7348,Rives-en-Seine,76490
76,Seine-Maritime,49.282,1.0254,Caudebec-lès-Elbeuf,76320
76,Seine-Maritime,49.775,1.5925,Le Caule-Sainte-Beuve,76390
76,Seine-Maritime,49.593,0.1449,Cauville-sur-Mer,76930
76,Seine-Maritime,49.771,1.1412,Les Cent-Acres,76590
76,Seine-Maritime,49.488,0.4157,La Cerlangue,76430
76,Seine-Maritime,49.822,1.1461,La Chapelle-du-Bourgay,76590
76,Seine-Maritime,49.521,1.4285,La Chapelle-Saint-Ouen,76780
76,Seine-Maritime,49.857,0.8458,La Chapelle-sur-Dun,76740
76,Seine-Maritime,49.818,1.1184,La Chaussée,76590
76,Seine-Maritime,49.611,0.8883,Cideville,76570
76,Seine-Maritime,49.813,1.4736,Clais,76660
76,Seine-Maritime,49.793,0.6209,Clasville,76450
76,Seine-Maritime,49.588,1.1857,Claville-Motteville,76690
76,Seine-Maritime,49.316,1.0397,Cléon,76410
76,Seine-Maritime,49.591,1.1031,Clères,76690
76,Seine-Maritime,49.703,0.6479,Cleuville,76450
76,Seine-Maritime,49.622,0.6159,Cléville,76640
76,Seine-Maritime,49.673,0.6581,Cliponville,76640
76,Seine-Maritime,49.752,0.4569,Colleville,76400
76,Seine-Maritime,49.847,1.0287,Colmesnil-Manneville,76550
76,Seine-Maritime,49.658,1.5597,Compainville,76440
76,Seine-Maritime,49.696,1.6379,Conteville,76390
76,Seine-Maritime,49.724,0.4377,Contremoulins,76400
76,Seine-Maritime,49.639,1.2243,Cottévrard,76850
76,Seine-Maritime,49.805,0.7165,Crasville-la-Mallet,76450
76,Seine-Maritime,49.804,0.8774,Crasville-la-Rocquefort,76740
76,Seine-Maritime,49.724,1.1611,Cressy,76720
76,Seine-Maritime,50.019,1.3236,Criel-sur-Mer,76910
76,Seine-Maritime,50.019,1.3236,Criel-sur-Mer,76910
76,Seine-Maritime,49.692,1.2035,La Crique,76850
76,Seine-Maritime,49.739,0.3330,Criquebeuf-en-Caux,76111
76,Seine-Maritime,49.790,0.5621,Criquetot-le-Mauconduit,76540
76,Seine-Maritime,49.636,0.2672,Criquetot-l'Esneval,76280
76,Seine-Maritime,49.781,1.0757,Criquetot-sur-Longueville,76590
76,Seine-Maritime,49.671,0.8497,Criquetot-sur-Ouville,76760
76,Seine-Maritime,49.676,1.7016,Criquiers,76390
76,Seine-Maritime,49.614,1.2444,Critot,76680
76,Seine-Maritime,49.459,1.4068,Croisy-sur-Andelle,76780
76,Seine-Maritime,49.802,1.3692,Croixdalle,76660
76,Seine-Maritime,49.597,0.8370,Croix-Mare,76190
76,Seine-Maritime,49.736,1.1469,Cropus,76720
76,Seine-Maritime,49.819,1.0818,Crosville-sur-Scie,76590
76,Seine-Maritime,49.665,0.2640,Cuverville,76280
76,Seine-Maritime,49.951,1.3887,Cuverville-sur-Yères,76260
76,Seine-Maritime,49.510,1.6915,Cuy-Saint-Fiacre,76220
76,Seine-Maritime,49.534,1.6631,Dampierre-en-Bray,76220
76,Seine-Maritime,49.857,1.2036,Dampierre-Saint-Nicolas,76510
76,Seine-Maritime,49.900,1.5387,Dancourt,76340
76,Seine-Maritime,49.444,1.1554,Darnétal,76160
76,Seine-Maritime,49.696,0.4816,Daubeuf-Serville,76110
76,Seine-Maritime,49.807,1.0908,Dénestanville,76590
76,Seine-Maritime,49.466,1.0514,Déville-lès-Rouen,76250
76,Seine-Maritime,49.922,1.0868,Dieppe,76200
76,Seine-Maritime,49.922,1.0868,Dieppe,76370
76,Seine-Maritime,49.922,1.0868,Dieppe,76370
76,Seine-Maritime,49.566,1.6989,Doudeauville,76220
76,Seine-Maritime,49.730,0.7867,Doudeville,76560
76,Seine-Maritime,49.873,1.3195,Douvrend,76630
76,Seine-Maritime,49.792,0.7373,Drosay,76460
76,Seine-Maritime,49.488,0.8666,Duclair,76480
76,Seine-Maritime,49.617,0.8097,Écalles-Alix,76190
76,Seine-Maritime,49.646,0.3131,Écrainville,76110
76,Seine-Maritime,49.629,0.6725,Écretteville-lès-Baons,76190
76,Seine-Maritime,49.790,0.4859,Écretteville-sur-Mer,76540
76,Seine-Maritime,49.654,0.9299,Ectot-l'Auber,76760
76,Seine-Maritime,49.643,0.8087,Ectot-lès-Baons,76970
76,Seine-Maritime,49.493,1.6515,Elbeuf-en-Bray,76220
76,Seine-Maritime,49.477,1.3807,Elbeuf-sur-Andelle,76780
76,Seine-Maritime,49.276,0.9971,Elbeuf,76500
76,Seine-Maritime,49.789,0.4579,Életot,76540
76,Seine-Maritime,49.801,1.7274,Ellecourt,76390
76,Seine-Maritime,49.622,0.9618,Émanville,76570
76,Seine-Maritime,49.898,1.2634,Envermeu,76630
76,Seine-Maritime,49.658,0.6703,Envronville,76640
76,Seine-Maritime,49.525,0.8358,Épinay-sur-Duclair,76480
76,Seine-Maritime,49.563,0.2300,Épouville,76133
76,Seine-Maritime,49.538,0.3135,Épretot,76430
76,Seine-Maritime,49.705,0.3678,Épreville,76400
76,Seine-Maritime,49.804,0.7838,Ermenouville,76740
76,Seine-Maritime,49.454,1.7116,Ernemont-la-Villette,76220
76,Seine-Maritime,49.541,1.3603,Ernemont-sur-Buchy,76750
76,Seine-Maritime,49.705,1.3856,Esclavelles,76270
76,Seine-Maritime,49.547,1.0464,Eslettes,76710
76,Seine-Maritime,49.609,1.2157,Esteville,76690
76,Seine-Maritime,49.586,1.3088,Estouteville-Écalles,76750
76,Seine-Maritime,49.639,1.1439,Étaimpuis,76850
76,Seine-Maritime,49.566,0.3092,Étainhus,76430
76,Seine-Maritime,49.732,0.8250,Étalleville,76560
76,Seine-Maritime,50.032,1.3896,Étalondes,76260
76,Seine-Maritime,49.672,0.7831,Étoutteville,76190
76,Seine-Maritime,49.704,0.2053,Étretat,76790
76,Seine-Maritime,50.041,1.4286,Eu,76260
76,Seine-Maritime,49.864,1.5670,Fallencourt,76340
76,Seine-Maritime,49.657,0.5848,Terres-de-Caux,76640
76,Seine-Maritime,49.752,0.3952,Fécamp,76400
76,Seine-Maritime,49.486,1.7581,Ferrières-en-Bray,76220
76,Seine-Maritime,49.577,1.5368,La Ferté-Saint-Samson,76440
76,Seine-Maritime,49.790,1.4884,Fesques,76270
76,Seine-Maritime,49.465,1.5212,La Feuillie,76220
76,Seine-Maritime,49.631,0.8320,Flamanville,76970
76,Seine-Maritime,49.725,1.5828,Flamets-Frétils,76270
76,Seine-Maritime,50.034,1.3648,Flocques,76260
76,Seine-Maritime,49.674,0.3093,Fongueusemare,76280
76,Seine-Maritime,49.678,1.4220,Fontaine-en-Bray,76440
76,Seine-Maritime,49.538,0.1405,Fontaine-la-Mallet,76290
76,Seine-Maritime,49.570,1.1572,Fontaine-le-Bourg,76690
76,Seine-Maritime,49.814,0.8456,Fontaine-le-Dun,76740
76,Seine-Maritime,49.485,1.1685,Fontaine-sous-Préaux,76160
76,Seine-Maritime,49.694,0.9437,La Fontelaye,76890
76,Seine-Maritime,49.569,0.1781,Fontenay,76290
76,Seine-Maritime,49.611,1.5327,Forges-les-Eaux,76440
76,Seine-Maritime,49.611,1.5327,Forges-les-Eaux,76440
76,Seine-Maritime,49.848,1.5638,Foucarmont,76340
76,Seine-Maritime,49.615,0.5917,Foucart,76640
76,Seine-Maritime,49.824,1.4169,Fréauville,76660
76,Seine-Maritime,49.520,0.5734,La Frénaye,76170
76,Seine-Maritime,49.308,1.0680,Freneuse,76410
76,Seine-Maritime,49.746,1.3435,Fresles,76270
76,Seine-Maritime,49.650,1.0930,Fresnay-le-Long,76850
76,Seine-Maritime,49.413,1.2966,Fresne-le-Plan,76520
76,Seine-Maritime,49.887,1.4349,Fresnoy-Folny,76660
76,Seine-Maritime,49.562,1.0117,Fresquiennes,76570
76,Seine-Maritime,49.818,1.2166,Freulleville,76510
76,Seine-Maritime,49.565,0.8330,Saint Martin de l'If,76190
76,Seine-Maritime,49.565,0.8330,Saint Martin de l'If,76190
76,Seine-Maritime,49.565,0.8330,Saint Martin de l'If,76190
76,Seine-Maritime,49.565,0.8330,Saint Martin de l'If,76190
76,Seine-Maritime,49.620,1.1325,Frichemesnil,76690
76,Seine-Maritime,49.715,0.3355,Froberville,76400
76,Seine-Maritime,49.526,1.5374,Fry,76780
76,Seine-Maritime,49.758,0.7817,Fultot,76560
76,Seine-Maritime,49.838,0.8642,La Gaillarde,76740
76,Seine-Maritime,49.656,1.6267,Gaillefontaine,76870
76,Seine-Maritime,49.517,0.2554,Gainneville,76700
76,Seine-Maritime,49.545,1.7101,Gancourt-Saint-Étienne,76220
76,Seine-Maritime,49.731,0.4036,Ganzeville,76400
76,Seine-Maritime,49.747,0.5638,Gerponville,76540
76,Seine-Maritime,49.697,0.3283,Gerville,76790
76,Seine-Maritime,49.644,0.3552,Goderville,76110
76,Seine-Maritime,49.552,0.3595,Gommerville,76430
76,Seine-Maritime,49.652,0.4402,Gonfreville-Caillot,76110
76,Seine-Maritime,49.486,0.2219,Gonfreville-l'Orcher,76700
76,Seine-Maritime,49.486,0.2219,Gonfreville-l'Orcher,76700
76,Seine-Maritime,49.486,0.2219,Gonfreville-l'Orcher,76700
76,Seine-Maritime,49.761,0.8966,Gonnetot,76730
76,Seine-Maritime,49.631,0.2135,Gonneville-la-Mallet,76280
76,Seine-Maritime,49.756,1.0867,Gonneville-sur-Scie,76590
76,Seine-Maritime,49.760,0.8077,Gonzeville,76560
76,Seine-Maritime,49.583,0.9832,Goupillières,76570
76,Seine-Maritime,49.479,1.7181,Gournay-en-Bray,76220
76,Seine-Maritime,49.357,1.1430,Gouy,76520
76,Seine-Maritime,49.581,0.3339,Graimbouville,76430
76,Seine-Maritime,49.745,0.6433,Grainville-la-Teinturière,76450
76,Seine-Maritime,49.474,1.3003,Grainville-sur-Ry,76116
76,Seine-Maritime,49.654,0.4130,Grainville-Ymauville,76110
76,Seine-Maritime,49.551,0.6005,Grand-Camp,76170
76,Seine-Maritime,49.348,1.0047,Grand-Couronne,76530
76,Seine-Maritime,49.348,1.0047,Grand-Couronne,76530
76,Seine-Maritime,49.916,1.4852,Grandcourt,76660
76,Seine-Maritime,49.771,1.2346,Les Grandes-Ventes,76950
76,Seine-Maritime,49.409,1.0399,Le Grand-Quevilly,76120
76,Seine-Maritime,49.728,1.5507,Graval,76270
76,Seine-Maritime,49.923,1.1487,Grèges,76370
76,Seine-Maritime,49.661,0.8288,Grémonville,76970
76,Seine-Maritime,49.806,0.9100,Greuville,76810
76,Seine-Maritime,49.654,1.1923,Grigneuseville,76850
76,Seine-Maritime,49.549,0.5139,Gruchet-le-Valasse,76210
76,Seine-Maritime,49.822,0.8911,Gruchet-Saint-Siméon,76810
76,Seine-Maritime,49.618,1.1061,Grugny,76690
76,Seine-Maritime,49.620,1.6932,Grumesnil,76440
76,Seine-Maritime,49.952,1.5256,Guerville,76340
76,Seine-Maritime,49.842,0.9520,Gueures,76730
76,Seine-Maritime,49.649,1.0047,Gueutteville,76890
76,Seine-Maritime,49.838,0.7648,Gueutteville-les-Grès,76460
76,Seine-Maritime,49.521,1.4759,La Hallotière,76780
76,Seine-Maritime,49.722,0.6549,Le Hanouard,76450
76,Seine-Maritime,49.708,0.7685,Harcanville,76560
76,Seine-Maritime,49.513,0.1970,Harfleur,76700
76,Seine-Maritime,49.654,0.5390,Hattenville,76640
76,Seine-Maritime,49.644,1.6725,Haucourt,76440
76,Seine-Maritime,49.732,1.6968,Haudricourt,76390
76,Seine-Maritime,49.587,1.6792,Haussez,76440
76,Seine-Maritime,49.765,0.7552,Hautot-l'Auvray,76450
76,Seine-Maritime,49.646,0.7027,Hautot-le-Vatois,76190
76,Seine-Maritime,49.679,0.7376,Hautot-Saint-Sulpice,76190
76,Seine-Maritime,49.902,1.0406,Hautot-sur-Mer,76550
76,Seine-Maritime,49.902,1.0406,Hautot-sur-Mer,76550
76,Seine-Maritime,49.362,0.9776,Hautot-sur-Seine,76113
76,Seine-Maritime,49.498,0.1401,Le Havre,76600
76,Seine-Maritime,49.498,0.1401,Le Havre,76610
76,Seine-Maritime,49.498,0.1401,Le Havre,76610
76,Seine-Maritime,49.498,0.1401,Le Havre,76620
76,Seine-Maritime,49.461,1.4469,La Haye,76780
76,Seine-Maritime,49.783,0.8026,Héberville,76740
76,Seine-Maritime,49.475,0.9513,Hénouville,76840
76,Seine-Maritime,49.694,0.7032,Héricourt-en-Caux,76560
76,Seine-Maritime,49.820,0.9873,Hermanville,76730
76,Seine-Maritime,49.597,0.2597,Hermeville,76280
76,Seine-Maritime,49.492,1.4046,Le Héron,76780
76,Seine-Maritime,49.538,1.3815,Héronchelles,76750
76,Seine-Maritime,49.734,1.0998,Heugleville-sur-Scie,76720
76,Seine-Maritime,49.617,0.1522,Heuqueville,76280
76,Seine-Maritime,49.453,0.8019,Heurteauville,76940
76,Seine-Maritime,49.871,1.6978,Hodeng-au-Bosc,76340
76,Seine-Maritime,49.536,1.5884,Hodeng-Hodenger,76780
76,Seine-Maritime,49.816,0.8062,Houdetot,76740
76,Seine-Maritime,49.510,1.0367,Le Houlme,76770
76,Seine-Maritime,49.504,1.0892,Houppeville,76770
76,Seine-Maritime,49.604,0.3877,Houquetot,76110
76,Seine-Maritime,49.629,1.0837,La Houssaye-Béranger,76690
76,Seine-Maritime,49.623,0.9901,Hugleville-en-Caux,76570
76,Seine-Maritime,49.888,1.3968,Les Ifs,76630
76,Seine-Maritime,49.745,1.6458,Illois,76390
76,Seine-Maritime,49.713,0.9431,Imbleville,76890
76,Seine-Maritime,50.005,1.4998,Incheville,76117
76,Seine-Maritime,49.844,0.6815,Ingouville,76460
76,Seine-Maritime,49.502,1.1453,Isneauville,76230
76,Seine-Maritime,49.427,0.8316,Jumièges,76480
76,Seine-Maritime,49.773,1.0088,Lamberville,76730
76,Seine-Maritime,49.794,0.9708,Lammerville,76730
76,Seine-Maritime,49.786,1.6323,Landes-Vieilles-et-Neuves,76390
76,Seine-Maritime,49.583,0.5303,Lanquetot,76210
76,Seine-Maritime,49.748,0.9596,Lestanville,76730
76,Seine-Maritime,49.508,0.5340,Lillebonne,76170
76,Seine-Maritime,49.608,0.9238,Limésy,76570
76,Seine-Maritime,49.687,0.5023,Limpiville,76540
76,Seine-Maritime,49.709,0.9071,Lindebeuf,76760
76,Seine-Maritime,49.559,0.5670,Lintot,76210
76,Seine-Maritime,49.801,1.0700,Lintot-les-Bois,76590
76,Seine-Maritime,49.697,0.2847,Les Loges,76790
76,Seine-Maritime,49.323,0.9203,La Londe,76500
76,Seine-Maritime,49.841,1.3963,Londinières,76660
76,Seine-Maritime,49.622,1.6127,Longmesnil,76440
76,Seine-Maritime,49.981,1.5346,Longroy,76260
76,Seine-Maritime,49.883,0.9477,Longueil,76860
76,Seine-Maritime,49.547,1.2894,Longuerue,76750
76,Seine-Maritime,49.795,1.1071,Longueville-sur-Scie,76590
76,Seine-Maritime,49.572,0.7233,Louvetot,76490
76,Seine-Maritime,49.772,1.4476,Lucy,76270
76,Seine-Maritime,49.822,0.9179,Luneray,76810
76,Seine-Maritime,49.446,0.7534,Arelaune-en-Seine,76940
76,Seine-Maritime,49.446,0.7534,Arelaune-en-Seine,76940
76,Seine-Maritime,49.525,1.0487,Malaunay,76770
76,Seine-Maritime,49.830,0.6060,Malleville-les-Grès,76450
76,Seine-Maritime,49.566,0.2567,Manéglise,76133
76,Seine-Maritime,49.832,1.0674,Manéhouville,76590
76,Seine-Maritime,49.694,0.3465,Maniquerville,76400
76,Seine-Maritime,49.858,0.7516,Manneville-ès-Plains,76460
76,Seine-Maritime,49.611,0.3475,Manneville-la-Goupil,76110
76,Seine-Maritime,49.595,0.1753,Mannevillette,76290
76,Seine-Maritime,49.476,1.0323,Maromme,76150
76,Seine-Maritime,49.476,1.0323,Maromme,76150
76,Seine-Maritime,49.779,1.6829,Marques,76390
76,Seine-Maritime,49.451,1.2946,Martainville-Épreville,76116
76,Seine-Maritime,49.860,1.1444,Martigny,76880
76,Seine-Maritime,49.909,1.1320,Martin-Église,76370
76,Seine-Maritime,49.687,1.3954,Massy,76270
76,Seine-Maritime,49.623,1.3823,Mathonville,76680
76,Seine-Maritime,49.687,1.3335,Maucomble,76680
76,Seine-Maritime,49.554,0.7080,Maulévrier-Sainte-Gertrude,76490
76,Seine-Maritime,49.396,0.9025,Mauny,76530
76,Seine-Maritime,49.599,1.4608,Mauquenchy,76440
76,Seine-Maritime,49.539,0.4360,Mélamare,76170
76,Seine-Maritime,49.960,1.4759,Melleville,76260
76,Seine-Maritime,49.559,1.6474,Ménerval,76220
76,Seine-Maritime,49.760,1.4809,Ménonval,76270
76,Seine-Maritime,49.691,0.4095,Mentheville,76110
76,Seine-Maritime,49.557,1.5695,Mésangueville,76780
76,Seine-Maritime,49.765,1.3868,Mesnières-en-Bray,76270
76,Seine-Maritime,49.817,0.7711,Le Mesnil-Durdent,76460
76,Seine-Maritime,49.413,1.1451,Le Mesnil-Esnard,76240
76,Seine-Maritime,49.763,1.3010,Mesnil-Follemprise,76660
76,Seine-Maritime,49.515,1.5075,Le Mesnil-Lieubray,76780
76,Seine-Maritime,49.669,1.5215,Mesnil-Mauger,76440
76,Seine-Maritime,49.588,0.8826,Mesnil-Panneville,76570
76,Seine-Maritime,49.397,1.2751,Mesnil-Raoul,76520
76,Seine-Maritime,49.971,1.4408,Le Mesnil-Réaume,76260
76,Seine-Maritime,49.414,0.8550,Le Mesnil-sous-Jumièges,76480
76,Seine-Maritime,49.841,1.2218,Meulers,76510
76,Seine-Maritime,49.981,1.4976,Millebosc,76260
76,Seine-Maritime,49.605,0.4405,Mirville,76210
76,Seine-Maritime,49.522,1.7245,Molagnies,76220
76,Seine-Maritime,49.946,1.5730,Monchaux-Soreng,76340
76,Seine-Maritime,49.992,1.4592,Monchy-sur-Eu,76260
76,Seine-Maritime,49.571,1.1139,Mont-Cauvaire,76690
76,Seine-Maritime,49.622,1.3461,Montérolier,76680
76,Seine-Maritime,49.458,0.9976,Montigny,76380
76,Seine-Maritime,49.544,0.1903,Montivilliers,76290
76,Seine-Maritime,49.409,1.2461,Montmain,76520
76,Seine-Maritime,49.686,1.1555,Montreuil-en-Caux,76850
76,Seine-Maritime,49.431,1.6616,Montroty,76220
76,Seine-Maritime,49.467,1.0816,Mont-Saint-Aignan,76130
76,Seine-Maritime,49.546,1.0819,Montville,76710
76,Seine-Maritime,49.519,1.2508,Morgny-la-Pommeraye,76750
76,Seine-Maritime,49.744,1.5464,Mortemer,76270
76,Seine-Maritime,49.481,1.4320,Morville-sur-Andelle,76780
76,Seine-Maritime,49.630,0.8543,Motteville,76970
76,Seine-Maritime,49.343,0.9579,Moulineaux,76530
76,Seine-Maritime,49.766,1.1874,Muchedent,76590
76,Seine-Maritime,49.703,1.5218,Nesle-Hodeng,76270
76,Seine-Maritime,49.901,1.6686,Nesle-Normandeuse,76340
76,Seine-Maritime,49.646,1.3613,Neufbosc,76680
76,Seine-Maritime,49.740,1.4465,Neufchâtel-en-Bray,76270
76,Seine-Maritime,49.422,1.6928,Neuf-Marché,76220
76,Seine-Maritime,49.369,1.2498,La Neuville-Chant-d'Oisel,76520
76,Seine-Maritime,49.711,1.4536,Neuville-Ferrières,76270
76,Seine-Maritime,49.823,0.7105,Néville,76460
76,Seine-Maritime,49.597,0.4727,Nointot,76210
76,Seine-Maritime,49.493,1.4816,Nolléval,76780
76,Seine-Maritime,49.691,0.5870,Normanville,76640
76,Seine-Maritime,49.481,0.6435,Norville,76330
76,Seine-Maritime,49.845,1.2979,Notre-Dame-d'Aliermont,76510
76,Seine-Maritime,49.495,0.7530,Notre-Dame-de-Bliquetuit,76940
76,Seine-Maritime,49.487,1.0540,Notre-Dame-de-Bondeville,76960
76,Seine-Maritime,49.403,1.1826,Franqueville-Saint-Pierre,76520
76,Seine-Maritime,49.489,0.5728,Port-Jérôme-sur-Seine,76170
76,Seine-Maritime,49.489,0.5728,Port-Jérôme-sur-Seine,76170
76,Seine-Maritime,49.489,0.5728,Port-Jérôme-sur-Seine,76170
76,Seine-Maritime,49.489,0.5728,Port-Jérôme-sur-Seine,76330
76,Seine-Maritime,49.594,0.2206,Notre-Dame-du-Bec,76133
76,Seine-Maritime,49.749,1.1288,Notre-Dame-du-Parc,76590
76,Seine-Maritime,49.770,1.6469,Nullemont,76390
76,Seine-Maritime,49.797,0.6857,Ocqueville,76450
76,Seine-Maritime,49.558,0.1179,Octeville-sur-Mer,76930
76,Seine-Maritime,49.871,1.0353,Offranville,76550
76,Seine-Maritime,49.727,0.6898,Oherville,76560
76,Seine-Maritime,49.347,1.0740,Oissel,76350
76,Seine-Maritime,49.790,1.0488,Omonville,76730
76,Seine-Maritime,49.318,0.9964,Orival,76500
76,Seine-Maritime,49.797,1.3035,Osmoy-Saint-Valery,76660
76,Seine-Maritime,49.785,0.5884,Ouainville,76450
76,Seine-Maritime,49.485,0.2811,Oudalle,76430
76,Seine-Maritime,49.732,0.5989,Ourville-en-Caux,76450
76,Seine-Maritime,49.694,0.8665,Ouville-l'Abbaye,76760
76,Seine-Maritime,49.873,0.9825,Ouville-la-Rivière,76860
76,Seine-Maritime,49.844,0.6307,Paluel,76450
76,Seine-Maritime,49.585,0.3882,Parc-d'Anxtot,76210
76,Seine-Maritime,49.575,0.9472,Pavilly,76570
76,Seine-Maritime,49.380,1.0342,Petit-Couronne,76650
76,Seine-Maritime,49.423,1.0603,Le Petit-Quevilly,76140
76,Seine-Maritime,49.454,0.5839,Petiville,76330
76,Seine-Maritime,49.888,1.6385,Pierrecourt,76340
76,Seine-Maritime,49.674,0.2302,Pierrefiques,76280
76,Seine-Maritime,49.540,1.2537,Pierreval,76750
76,Seine-Maritime,49.533,1.0017,Pissy-Pôville,76360
76,Seine-Maritime,49.819,0.7525,Pleine-Sève,76460
76,Seine-Maritime,49.609,1.6308,Pommereux,76440
76,Seine-Maritime,49.734,1.3050,Pommeréval,76680
76,Seine-Maritime,50.038,1.4563,Ponts-et-Marais,76260
76,Seine-Maritime,49.678,0.1784,La Poterie-Cap-d'Antifer,76280
76,Seine-Maritime,49.487,1.2158,Préaux,76160
76,Seine-Maritime,49.733,0.8472,Prétot-Vicquemare,76560
76,Seine-Maritime,49.880,1.5053,Preuseville,76660
76,Seine-Maritime,49.878,1.4619,Puisenval,76660
76,Seine-Maritime,49.415,0.9605,Quevillon,76840
76,Seine-Maritime,49.354,1.1896,Quévreville-la-Poterie,76520
76,Seine-Maritime,49.897,0.9198,Quiberville,76860
76,Seine-Maritime,49.725,1.4185,Quièvrecourt,76270
76,Seine-Maritime,49.520,1.1777,Quincampoix,76230
76,Seine-Maritime,49.601,0.5225,Raffetot,76210
76,Seine-Maritime,49.793,0.9238,Rainfreville,76730
76,Seine-Maritime,49.860,1.6206,Réalcamp,76340
76,Seine-Maritime,49.513,1.3932,Rebets,76750
76,Seine-Maritime,49.525,0.4099,La Remuée,76430
76,Seine-Maritime,49.812,1.5942,Rétonval,76340
76,Seine-Maritime,49.747,0.8627,Reuville,76560
76,Seine-Maritime,49.641,0.6072,Ricarville,76640
76,Seine-Maritime,49.797,1.2688,Ricarville-du-Val,76510
76,Seine-Maritime,49.810,1.6441,Richemont,76390
76,Seine-Maritime,49.923,1.5820,Rieux,76340
76,Seine-Maritime,49.722,0.5636,Riville,76540
76,Seine-Maritime,49.714,0.6959,Robertot,76560
76,Seine-Maritime,49.667,0.7031,Rocquefort,76640
76,Seine-Maritime,49.607,1.2975,Rocquemont,76680
76,Seine-Maritime,49.485,0.2594,Rogerville,76700
76,Seine-Maritime,49.578,0.2111,Rolleville,76133
76,Seine-Maritime,49.614,1.4881,Roncherolles-en-Bray,76440
76,Seine-Maritime,49.464,1.1820,Roncherolles-sur-le-Vivier,76160
76,Seine-Maritime,49.724,1.6231,Ronchois,76390
76,Seine-Maritime,49.696,1.2556,Rosay,76680
76,Seine-Maritime,49.441,1.0925,Rouen,76000
76,Seine-Maritime,49.441,1.0925,Rouen,76100
76,Seine-Maritime,49.507,0.9685,Roumare,76480
76,Seine-Maritime,49.730,0.7478,Routes,76560
76,Seine-Maritime,49.626,0.4983,Rouville,76210
76,Seine-Maritime,49.576,1.4775,Rouvray-Catillon,76440
76,Seine-Maritime,49.899,1.0996,Rouxmesnil-Bouteilles,76370
76,Seine-Maritime,49.779,0.9530,Royville,76730
76,Seine-Maritime,49.566,1.2540,La Rue-Saint-Pierre,76690
76,Seine-Maritime,49.473,1.3360,Ry,76116
76,Seine-Maritime,49.756,0.9235,Saâne-Saint-Just,76730
76,Seine-Maritime,49.366,0.9487,Sahurs,76113
76,Seine-Maritime,49.552,0.2929,Sainneville,76430
76,Seine-Maritime,49.510,0.0779,Sainte-Adresse,76310
76,Seine-Maritime,49.825,1.3384,Sainte-Agathe-d'Aliermont,76660
76,Seine-Maritime,49.496,1.3475,Saint-Aignan-sur-Ry,76116
76,Seine-Maritime,49.548,1.2216,Saint-André-sur-Cailly,76690
76,Seine-Maritime,49.538,0.4809,Saint-Antoine-la-Forêt,76170
76,Seine-Maritime,49.536,0.6770,Saint-Arnoult,76490
76,Seine-Maritime,49.375,1.1604,Saint-Aubin-Celloville,76520
76,Seine-Maritime,49.572,0.6305,Saint-Aubin-de-Crétot,76190
76,Seine-Maritime,49.418,1.2045,Saint-Aubin-Épinay,76160
76,Seine-Maritime,49.303,1.0182,Saint-Aubin-lès-Elbeuf,76410
76,Seine-Maritime,49.867,1.1764,Saint-Aubin-le-Cauf,76510
76,Seine-Maritime,49.522,0.3188,Saint-Aubin-Routot,76430
76,Seine-Maritime,49.888,0.8759,Saint-Aubin-sur-Mer,76740
76,Seine-Maritime,49.882,1.0780,Saint-Aubin-sur-Scie,76550
76,Seine-Maritime,49.601,0.9723,Sainte-Austreberthe,76570
76,Seine-Maritime,49.758,1.5275,Sainte-Beuve-en-Rivière,76270
76,Seine-Maritime,49.602,0.7845,Saint-Clair-sur-les-Monts,76190
76,Seine-Maritime,49.796,0.7618,Sainte-Colombe,76460
76,Seine-Maritime,49.774,1.1112,Saint-Crespin,76590
76,Seine-Maritime,49.562,1.3409,Sainte-Croix-sur-Buchy,76750
76,Seine-Maritime,49.863,0.9431,Saint-Denis-d'Aclon,76860
76,Seine-Maritime,49.459,1.3529,Saint-Denis-le-Thiboult,76116
76,Seine-Maritime,49.703,1.0856,Saint-Denis-sur-Scie,76890
76,Seine-Maritime,49.381,1.0897,Saint-Étienne-du-Rouvray,76800
76,Seine-Maritime,49.554,0.4513,Saint-Eustache-la-Forêt,76210
76,Seine-Maritime,49.798,1.1394,Sainte-Foy,76590
76,Seine-Maritime,49.658,1.4229,Sainte-Geneviève,76440
76,Seine-Maritime,49.547,1.1753,Saint-Georges-sur-Fontaine,76690
76,Seine-Maritime,49.533,1.3157,Saint-Germain-des-Essourts,76750
76,Seine-Maritime,49.837,1.1813,Saint-Germain-d'Étables,76590
76,Seine-Maritime,49.578,1.2093,Saint-Germain-sous-Cailly,76690
76,Seine-Maritime,49.765,1.5105,Saint-Germain-sur-Eaulne,76270
76,Seine-Maritime,49.558,0.6526,Saint-Gilles-de-Crétot,76490
76,Seine-Maritime,49.572,0.3705,Saint-Gilles-de-la-Neuville,76430
76,Seine-Maritime,49.771,0.4607,Sainte-Hélène-Bondeville,76400
76,Seine-Maritime,49.739,1.1975,Saint-Hellier,76680
76,Seine-Maritime,49.783,1.1564,Saint-Honoré,76590
76,Seine-Maritime,49.847,1.2519,Saint-Jacques-d'Aliermont,76510
76,Seine-Maritime,49.445,1.2082,Saint-Jacques-sur-Darnétal,76160
76,Seine-Maritime,49.505,0.4994,Saint-Jean-de-Folleville,76170
76,Seine-Maritime,49.574,0.4282,Saint-Jean-de-la-Neuville,76210
76,Seine-Maritime,49.499,1.0106,Saint-Jean-du-Cardonnay,76150
76,Seine-Maritime,49.638,0.1780,Saint-Jouin-Bruneval,76280
76,Seine-Maritime,49.532,0.2692,Saint-Laurent-de-Brèvedent,76700
76,Seine-Maritime,49.743,0.8870,Saint-Laurent-en-Caux,76560
76,Seine-Maritime,49.829,1.6119,Saint-Léger-aux-Bois,76340
76,Seine-Maritime,49.429,1.1634,Saint-Léger-du-Bourg-Denis,76160
76,Seine-Maritime,49.732,0.3419,Saint-Léonard,76400
76,Seine-Maritime,49.675,1.0916,Saint-Maclou-de-Folleville,76890
76,Seine-Maritime,49.648,0.4699,Saint-Maclou-la-Brière,76110
76,Seine-Maritime,49.760,1.0147,Saint-Mards,76730
76,Seine-Maritime,49.906,0.9552,Sainte-Marguerite-sur-Mer,76119
76,Seine-Maritime,49.781,1.7215,Morienne,76390
76,Seine-Maritime,49.672,0.5957,Sainte-Marguerite-sur-Fauville,76640
76,Seine-Maritime,49.512,0.8217,Sainte-Marguerite-sur-Duclair,76480
76,Seine-Maritime,49.665,0.2047,Sainte-Marie-au-Bosc,76280
76,Seine-Maritime,49.625,0.7818,Sainte-Marie-des-Champs,76190
76,Seine-Maritime,49.650,0.8901,Saint-Martin-aux-Arbres,76760
76,Seine-Maritime,49.831,1.6686,Saint-Martin-au-Bosc,76340
76,Seine-Maritime,49.827,0.5505,Saint-Martin-aux-Buneaux,76450
76,Seine-Maritime,49.827,0.5505,Saint-Martin-aux-Buneaux,76540
76,Seine-Maritime,49.444,0.9627,Saint-Martin-de-Boscherville,76840
76,Seine-Maritime,49.600,0.2022,Saint-Martin-du-Bec,76133
76,Seine-Maritime,49.537,0.2348,Saint-Martin-du-Manoir,76290
76,Seine-Maritime,49.470,1.1553,Saint-Martin-du-Vivier,76160
76,Seine-Maritime,49.961,1.2191,Petit-Caux,76370
76,Seine-Maritime,49.961,1.2191,Petit-Caux,76370
76,Seine-Maritime,49.961,1.2191,Petit-Caux,76370
76,Seine-Maritime,49.961,1.2191,Petit-Caux,76370
76,Seine-Maritime,49.961,1.2191,Petit-Caux,76370
76,Seine-Maritime,49.961,1.2191,Petit-Caux,76630
76,Seine-Maritime,49.961,1.2191,Petit-Caux,76630
76,Seine-Maritime,49.961,1.2191,Petit-Caux,76630
76,Seine-Maritime,49.961,1.2191,Petit-Caux,76630
76,Seine-Maritime,49.961,1.2191,Petit-Caux,76630
76,Seine-Maritime,49.961,1.2191,Petit-Caux,76630
76,Seine-Maritime,49.961,1.2191,Petit-Caux,76630
76,Seine-Maritime,49.961,1.2191,Petit-Caux,76630
76,Seine-Maritime,49.961,1.2191,Petit-Caux,76630
76,Seine-Maritime,49.961,1.2191,Petit-Caux,76630
76,Seine-Maritime,49.961,1.2191,Petit-Caux,76630
76,Seine-Maritime,49.961,1.2191,Petit-Caux,76630
76,Seine-Maritime,49.961,1.2191,Petit-Caux,76910
76,Seine-Maritime,49.974,1.3674,Saint-Martin-le-Gaillard,76260
76,Seine-Maritime,49.745,1.4034,Saint-Martin-l'Hortier,76270
76,Seine-Maritime,49.641,1.3011,Saint-Martin-Osmonville,76680
76,Seine-Maritime,49.458,0.6250,Saint-Maurice-d'Ételan,76330
76,Seine-Maritime,49.609,1.6566,Saint-Michel-d'Halescourt,76440
76,Seine-Maritime,49.874,1.2375,Saint-Nicolas-d'Aliermont,76510
76,Seine-Maritime,49.560,0.6179,Saint-Nicolas-de-la-Haie,76490
76,Seine-Maritime,49.514,0.4697,Saint-Nicolas-de-la-Taille,76170
76,Seine-Maritime,49.632,1.0239,Saint-Ouen-du-Breuil,76890
76,Seine-Maritime,49.760,0.9590,Saint-Ouen-le-Mauger,76730
76,Seine-Maritime,49.902,1.3009,Saint-Ouen-sous-Bailly,76630
76,Seine-Maritime,49.523,0.8828,Saint-Paër,76480
76,Seine-Maritime,49.738,0.9740,Saint-Pierre-Bénouville,76890
76,Seine-Maritime,49.392,0.9413,Saint-Pierre-de-Manneville,76113
76,Seine-Maritime,49.848,1.4510,Saint-Pierre-des-Jonquières,76660
76,Seine-Maritime,49.501,0.9236,Saint-Pierre-de-Varengeville,76480
76,Seine-Maritime,49.807,0.5003,Saint-Pierre-en-Port,76540
76,Seine-Maritime,50.010,1.4397,Saint-Pierre-en-Val,76260
76,Seine-Maritime,49.664,0.6231,Saint-Pierre-Lavis,76640
76,Seine-Maritime,49.277,1.0479,Saint-Pierre-lès-Elbeuf,76320
76,Seine-Maritime,49.848,0.8851,Saint-Pierre-le-Vieux,76740
76,Seine-Maritime,49.826,0.8497,Saint-Pierre-le-Viger,76740
76,Seine-Maritime,50.009,1.3918,Saint-Rémy-Boscrocourt,76260
76,Seine-Maritime,49.884,1.5725,Saint-Riquier-en-Rivière,76340
76,Seine-Maritime,49.820,0.6663,Saint-Riquier-ès-Plains,76460
76,Seine-Maritime,49.528,0.3638,Saint-Romain-de-Colbosc,76430
76,Seine-Maritime,49.674,1.2772,Saint-Saëns,76680
76,Seine-Maritime,49.681,1.4809,Saint-Saire,76270
76,Seine-Maritime,49.611,0.3061,Saint-Sauveur-d'Émalleville,76110
76,Seine-Maritime,49.848,0.6596,Saint-Sylvain,76460
76,Seine-Maritime,49.815,1.2609,Saint-Vaast-d'Équiqueville,76510
76,Seine-Maritime,49.757,0.7223,Saint-Vaast-Dieppedalle,76450
76,Seine-Maritime,49.686,1.0094,Saint-Vaast-du-Val,76890
76,Seine-Maritime,49.859,0.7070,Saint-Valery-en-Caux,76460
76,Seine-Maritime,49.664,1.1242,Saint-Victor-l'Abbaye,76890
76,Seine-Maritime,49.468,0.3476,Saint-Vigor-d'Ymonville,76430
76,Seine-Maritime,49.508,0.3598,Saint-Vincent-Cramesnil,76430
76,Seine-Maritime,49.477,0.3010,Sandouville,76430
76,Seine-Maritime,49.772,0.8958,Sassetot-le-Malgardé,76730
76,Seine-Maritime,49.799,0.5287,Sassetot-le-Mauconduit,76540
76,Seine-Maritime,49.799,0.5287,Sassetot-le-Mauconduit,76540
76,Seine-Maritime,49.799,0.5287,Sassetot-le-Mauconduit,76540
76,Seine-Maritime,49.782,0.6907,Sasseville,76450
76,Seine-Maritime,49.919,1.2051,Sauchay,76630
76,Seine-Maritime,49.577,1.6149,Saumont-la-Poterie,76440
76,Seine-Maritime,49.848,1.0595,Sauqueville,76550
76,Seine-Maritime,49.636,0.9251,Saussay,76760
76,Seine-Maritime,49.671,0.3500,Sausseuzemare-en-Caux,76110
76,Seine-Maritime,49.772,0.4152,Senneville-sur-Fécamp,76400
76,Seine-Maritime,49.946,1.4198,Sept-Meules,76260
76,Seine-Maritime,49.627,1.5452,Serqueux,76440
76,Seine-Maritime,49.477,1.2709,Servaville-Salmonville,76116
76,Seine-Maritime,49.711,1.1783,Sévis,76850
76,Seine-Maritime,49.591,1.0374,Sierville,76690
76,Seine-Maritime,49.533,1.4669,Sigy-en-Bray,76780
76,Seine-Maritime,49.533,1.4669,Sigy-en-Bray,76780
76,Seine-Maritime,49.854,1.4869,Smermesnil,76660
76,Seine-Maritime,49.638,1.4466,Sommery,76440
76,Seine-Maritime,49.710,0.6711,Sommesnil,76560
76,Seine-Maritime,49.703,0.5552,Sorquainville,76540
76,Seine-Maritime,49.410,1.0950,Sotteville-lès-Rouen,76300
76,Seine-Maritime,49.317,1.1163,Sotteville-sous-le-Val,76410
76,Seine-Maritime,49.873,0.8276,Sotteville-sur-Mer,76740
76,Seine-Maritime,49.481,0.4518,Tancarville,76430
76,Seine-Maritime,49.756,0.5232,Thérouldeville,76540
76,Seine-Maritime,49.761,0.5460,Theuville-aux-Maillots,76540
76,Seine-Maritime,49.728,0.4881,Thiergeville,76540
76,Seine-Maritime,49.719,0.5181,Thiétreville,76540
76,Seine-Maritime,49.839,0.9959,Thil-Manneville,76730
76,Seine-Maritime,49.637,1.5799,Le Thil-Riberpré,76440
76,Seine-Maritime,49.687,0.6276,Thiouville,76450
76,Seine-Maritime,49.685,0.2044,Le Tilleul,76790
76,Seine-Maritime,49.783,0.9096,Tocqueville-en-Caux,76730
76,Seine-Maritime,49.663,0.5007,Tocqueville-les-Murs,76110
76,Seine-Maritime,49.794,1.1771,Torcy-le-Grand,76590
76,Seine-Maritime,49.815,1.1804,Torcy-le-Petit,76590
76,Seine-Maritime,49.725,0.9050,Le Torp-Mesnil,76560
76,Seine-Maritime,49.683,1.0426,Tôtes,76890
76,Seine-Maritime,49.584,0.7640,Touffreville-la-Corbeline,76190
76,Seine-Maritime,49.991,1.3207,Touffreville-sur-Eu,76910
76,Seine-Maritime,49.327,1.0918,Tourville-la-Rivière,76410
76,Seine-Maritime,49.712,0.3999,Tourville-les-Ifs,76400
76,Seine-Maritime,49.859,1.0931,Tourville-sur-Arques,76550
76,Seine-Maritime,49.736,0.4397,Toussaint,76400
76,Seine-Maritime,49.484,0.8192,Le Trait,76580
76,Seine-Maritime,49.664,0.5214,Trémauville,76640
76,Seine-Maritime,50.053,1.3726,Le Tréport,76470
76,Seine-Maritime,49.545,0.5578,La Trinité-du-Mont,76170
76,Seine-Maritime,49.550,0.4025,Les Trois-Pierres,76430
76,Seine-Maritime,49.584,0.6004,Trouville,76210
76,Seine-Maritime,49.610,0.2405,Turretot,76280
76,Seine-Maritime,49.386,0.9900,Val-de-la-Haye,76380
76,Seine-Maritime,49.616,0.7107,Valliquerville,76190
76,Seine-Maritime,49.739,0.5126,Valmont,76540
76,Seine-Maritime,49.903,0.9960,Varengeville-sur-Mer,76119
76,Seine-Maritime,49.654,1.0429,Varneville-Bretteville,76890
76,Seine-Maritime,49.688,1.0764,Vassonville,76890
76,Seine-Maritime,49.787,1.5184,Vatierville,76270
76,Seine-Maritime,49.628,0.4491,Vattetot-sous-Beaumont,76110
76,Seine-Maritime,49.722,0.2863,Vattetot-sur-Mer,76111
76,Seine-Maritime,49.453,0.6841,Vatteville-la-Rue,76940
76,Seine-Maritime,49.481,0.9942,La Vaupalière,76150
76,Seine-Maritime,49.654,0.7592,Veauville-lès-Baons,76190
76,Seine-Maritime,49.737,0.7112,Veauville-lès-Quelles,76560
76,Seine-Maritime,49.793,0.8986,Vénestanville,76730
76,Seine-Maritime,49.815,0.5859,Butot-Vénesville,76450
76,Seine-Maritime,49.815,0.5859,Butot-Vénesville,76450
76,Seine-Maritime,49.711,1.3002,Ventes-Saint-Rémy,76680
76,Seine-Maritime,49.611,0.2818,Vergetot,76280
76,Seine-Maritime,49.866,0.7860,Veules-les-Roses,76980
76,Seine-Maritime,49.844,0.5874,Veulettes-sur-Mer,76450
76,Seine-Maritime,49.689,0.9129,Vibeuf,76760
76,Seine-Maritime,49.565,1.2948,Vieux-Manoir,76750
76,Seine-Maritime,49.832,1.7073,Vieux-Rouen-sur-Bresle,76390
76,Seine-Maritime,49.496,1.2460,La Vieux-Rue,76160
76,Seine-Maritime,49.659,0.2395,Villainville,76280
76,Seine-Maritime,49.535,0.9268,Villers-Écalles,76360
76,Seine-Maritime,49.825,1.5583,Villers-sous-Foucarmont,76340
76,Seine-Maritime,49.941,1.4572,Villy-sur-Yères,76260
76,Seine-Maritime,49.807,0.5559,Vinnemerville,76540
76,Seine-Maritime,49.592,0.3562,Virville,76110
76,Seine-Maritime,49.813,0.6373,Vittefleur,76450
76,Seine-Maritime,49.864,1.3709,Wanchy-Capval,76660
76,Seine-Maritime,49.456,0.8274,Yainville,76480
76,Seine-Maritime,49.630,0.5338,Yébleron,76640
76,Seine-Maritime,49.671,0.8870,Yerville,76760
76,Seine-Maritime,49.347,1.1670,Ymare,76520
76,Seine-Maritime,49.734,0.3143,Yport,76111
76,Seine-Maritime,49.694,0.5309,Ypreville-Biville,76540
76,Seine-Maritime,49.694,0.5309,Ypreville-Biville,76540
76,Seine-Maritime,49.593,1.2590,Yquebeuf,76690
76,Seine-Maritime,49.689,0.8071,Yvecrique,76560
76,Seine-Maritime,49.617,0.7616,Yvetot,76190
76,Seine-Maritime,49.412,0.8828,Yville-sur-Seine,76530
