department_id,department_name,latitude,longitude,locality,postal_code
82,Tarn-et-Garonne,44.048,1.2739,Albefeuille-Lagarde,82290
82,Tarn-et-Garonne,44.081,1.4485,Albias,82350
82,Tarn-et-Garonne,43.993,1.0311,Angeville,82210
82,Tarn-et-Garonne,44.009,0.9550,Asques,82120
82,Tarn-et-Garonne,43.796,1.2253,Aucamville,82600
82,Tarn-et-Garonne,43.855,0.9705,Auterive,82500
82,Tarn-et-Garonne,44.188,1.4694,Auty,82220
82,Tarn-et-Garonne,44.058,0.8874,Auvillar,82340
82,Tarn-et-Garonne,43.955,0.8748,Balignac,82120
82,Tarn-et-Garonne,44.029,0.8915,Bardigues,82340
82,Tarn-et-Garonne,44.072,1.2530,Barry-d'Islemade,82290
82,Tarn-et-Garonne,44.091,1.1717,Les Barthes,82100
82,Tarn-et-Garonne,43.876,1.0105,Beaumont-de-Lomagne,82500
82,Tarn-et-Garonne,43.818,1.1160,Beaupuy,82600
82,Tarn-et-Garonne,43.905,1.0701,Belbèze-en-Lomagne,82500
82,Tarn-et-Garonne,44.327,1.0903,Belvèze,82150
82,Tarn-et-Garonne,43.887,1.2705,Bessens,82170
82,Tarn-et-Garonne,44.099,1.5433,Bioule,82800
82,Tarn-et-Garonne,44.103,1.0157,Boudou,82200
82,Tarn-et-Garonne,43.847,1.1154,Bouillac,82600
82,Tarn-et-Garonne,44.300,1.1246,Bouloc-en-Quercy,82110
82,Tarn-et-Garonne,44.250,0.9497,Bourg-de-Visa,82190
82,Tarn-et-Garonne,43.943,1.1560,Bourret,82700
82,Tarn-et-Garonne,44.222,0.9772,Brassac,82190
82,Tarn-et-Garonne,43.954,1.3161,Bressols,82710
82,Tarn-et-Garonne,44.052,1.6600,Bruniquel,82800
82,Tarn-et-Garonne,43.887,1.3288,Campsas,82370
82,Tarn-et-Garonne,43.861,1.2993,Canals,82170
82,Tarn-et-Garonne,44.260,1.9295,Castanet,82160
82,Tarn-et-Garonne,44.005,1.0911,Castelferrus,82100
82,Tarn-et-Garonne,44.022,1.0470,Castelmayran,82210
82,Tarn-et-Garonne,44.176,0.9602,Castelsagrat,82400
82,Tarn-et-Garonne,44.049,1.1234,Castelsarrasin,82100
82,Tarn-et-Garonne,44.002,0.9178,Castéra-Bouzet,82120
82,Tarn-et-Garonne,44.021,0.9973,Caumont,82210
82,Tarn-et-Garonne,43.802,0.9722,Le Causé,82500
82,Tarn-et-Garonne,44.156,1.5435,Caussade,82300
82,Tarn-et-Garonne,44.242,1.7536,Caylus,82160
82,Tarn-et-Garonne,44.103,1.4785,Cayrac,82440
82,Tarn-et-Garonne,44.215,1.6054,Cayriech,82240
82,Tarn-et-Garonne,44.124,1.6848,Cazals,82140
82,Tarn-et-Garonne,44.212,1.2151,Cazes-Mondenard,82110
82,Tarn-et-Garonne,43.871,1.0928,Comberouger,82600
82,Tarn-et-Garonne,43.941,1.3812,Corbarieu,82370
82,Tarn-et-Garonne,43.975,1.1358,Cordes-Tolosannes,82700
82,Tarn-et-Garonne,43.960,0.9878,Coutures,82210
82,Tarn-et-Garonne,43.870,0.9033,Cumont,82500
82,Tarn-et-Garonne,43.868,1.2791,Dieupentale,82170
82,Tarn-et-Garonne,44.102,0.8140,Donzac,82340
82,Tarn-et-Garonne,44.086,0.7735,Dunes,82340
82,Tarn-et-Garonne,44.183,1.1414,Durfort-Lacapelette,82390
82,Tarn-et-Garonne,43.981,1.1936,Escatalens,82700
82,Tarn-et-Garonne,43.836,1.0295,Escazeaux,82500
82,Tarn-et-Garonne,44.076,0.9141,Espalais,82400
82,Tarn-et-Garonne,43.911,0.9473,Esparsac,82500
82,Tarn-et-Garonne,44.196,1.7923,Espinas,82160
82,Tarn-et-Garonne,43.861,1.3391,Fabas,82170
82,Tarn-et-Garonne,43.966,1.0124,Fajolles,82210
82,Tarn-et-Garonne,43.833,0.9673,Faudoas,82500
82,Tarn-et-Garonne,44.252,1.0058,Fauroux,82190
82,Tarn-et-Garonne,44.141,1.8252,Féneyrols,82140
82,Tarn-et-Garonne,43.912,1.2192,Finhan,82700
82,Tarn-et-Garonne,43.975,1.0642,Garganvillar,82100
82,Tarn-et-Garonne,43.810,1.0336,Gariès,82500
82,Tarn-et-Garonne,44.148,0.9105,Gasques,82400
82,Tarn-et-Garonne,44.001,1.4904,Génébrières,82230
82,Tarn-et-Garonne,43.948,0.9593,Gensac,82120
82,Tarn-et-Garonne,43.865,0.9401,Gimat,82500
82,Tarn-et-Garonne,44.219,1.8783,Ginals,82330
82,Tarn-et-Garonne,43.894,0.9198,Glatens,82500
82,Tarn-et-Garonne,43.815,0.9608,Goas,82500
82,Tarn-et-Garonne,44.110,0.8569,Golfech,82400
82,Tarn-et-Garonne,44.113,0.9254,Goudourville,82400
82,Tarn-et-Garonne,43.942,0.7879,Gramont,82120
82,Tarn-et-Garonne,43.822,1.2867,Grisolles,82170
82,Tarn-et-Garonne,44.116,1.3569,L'Honor-de-Cos,82130
82,Tarn-et-Garonne,44.209,1.3168,Labarthe,82220
82,Tarn-et-Garonne,44.281,1.5919,Labastide-de-Penne,82240
82,Tarn-et-Garonne,43.919,1.3464,Labastide-Saint-Pierre,82370
82,Tarn-et-Garonne,44.081,1.2023,Labastide-du-Temple,82100
82,Tarn-et-Garonne,43.956,1.0923,Labourgade,82100
82,Tarn-et-Garonne,44.271,1.7901,Lacapelle-Livron,82160
82,Tarn-et-Garonne,43.985,0.8415,Lachapelle,82120
82,Tarn-et-Garonne,44.284,0.9650,Lacour,82190
82,Tarn-et-Garonne,43.988,1.2716,Lacourt-Saint-Pierre,82290
82,Tarn-et-Garonne,43.973,1.1066,Lafitte,82100
82,Tarn-et-Garonne,44.135,1.2402,Lafrançaise,82130
82,Tarn-et-Garonne,44.163,1.9584,Laguépie,82250
82,Tarn-et-Garonne,44.132,0.8218,Lamagistère,82360
82,Tarn-et-Garonne,44.093,1.3897,Lamothe-Capdeville,82130
82,Tarn-et-Garonne,43.882,0.9139,Lamothe-Cumont,82500
82,Tarn-et-Garonne,44.223,1.5730,Lapenche,82240
82,Tarn-et-Garonne,43.932,1.0828,Larrazet,82500
82,Tarn-et-Garonne,44.264,1.1271,Lauzerte,82110
82,Tarn-et-Garonne,44.207,1.6699,Lavaurette,82240
82,Tarn-et-Garonne,44.042,1.2209,La Ville-Dieu-du-Temple,82290
82,Tarn-et-Garonne,43.956,0.9250,Lavit,82120
82,Tarn-et-Garonne,44.002,1.4511,Léojac,82230
82,Tarn-et-Garonne,44.112,1.1868,Lizac,82200
82,Tarn-et-Garonne,44.292,1.7634,Loze,82160
82,Tarn-et-Garonne,44.089,0.9719,Malause,82200
82,Tarn-et-Garonne,44.015,0.8511,Mansonville,82120
82,Tarn-et-Garonne,43.841,0.9162,Marignac,82500
82,Tarn-et-Garonne,43.941,0.8294,Marsac,82120
82,Tarn-et-Garonne,43.895,1.1813,Mas-Grenier,82600
82,Tarn-et-Garonne,43.803,0.9241,Maubec,82500
82,Tarn-et-Garonne,43.912,0.9061,Maumusson,82120
82,Tarn-et-Garonne,44.095,1.2304,Meauzac,82290
82,Tarn-et-Garonne,44.064,0.9666,Merles,82210
82,Tarn-et-Garonne,44.142,1.4113,Mirabel,82440
82,Tarn-et-Garonne,44.228,1.0510,Miramont-de-Quercy,82190
82,Tarn-et-Garonne,44.126,1.0983,Moissac,82200
82,Tarn-et-Garonne,44.193,1.3931,Molières,82220
82,Tarn-et-Garonne,43.891,1.2322,Monbéqui,82170
82,Tarn-et-Garonne,43.988,1.5823,Monclar-de-Quercy,82230
82,Tarn-et-Garonne,44.247,1.0870,Montagudet,82110
82,Tarn-et-Garonne,44.340,1.0325,Montaigu-de-Quercy,82150
82,Tarn-et-Garonne,43.941,1.1139,Montaïn,82100
82,Tarn-et-Garonne,44.208,1.5172,Montalzat,82270
82,Tarn-et-Garonne,44.103,1.2943,Montastruc,82130
82,Tarn-et-Garonne,44.022,1.3640,Montauban,82000
82,Tarn-et-Garonne,44.213,1.0819,Montbarla,82110
82,Tarn-et-Garonne,43.914,1.2866,Montbartier,82700
82,Tarn-et-Garonne,44.013,1.2703,Montbeton,82290
82,Tarn-et-Garonne,43.952,1.2376,Montech,82700
82,Tarn-et-Garonne,44.171,1.5653,Monteils,82300
82,Tarn-et-Garonne,44.179,1.0619,Montesquieu,82200
82,Tarn-et-Garonne,44.227,1.4156,Montfermier,82270
82,Tarn-et-Garonne,43.930,0.8783,Montgaillard,82120
82,Tarn-et-Garonne,44.204,0.9301,Montjoi,82400
82,Tarn-et-Garonne,44.239,1.4736,Montpezat-de-Quercy,82270
82,Tarn-et-Garonne,44.103,1.6241,Montricoux,82800
82,Tarn-et-Garonne,44.275,1.6730,Mouillac,82160
82,Tarn-et-Garonne,44.063,1.5281,Nègrepelisse,82800
82,Tarn-et-Garonne,43.888,1.4376,Nohic,82370
82,Tarn-et-Garonne,43.899,1.3970,Orgueil,82370
82,Tarn-et-Garonne,44.261,1.8657,Parisot,82160
82,Tarn-et-Garonne,44.180,0.8806,Perville,82400
82,Tarn-et-Garonne,44.037,0.9752,Le Pin,82340
82,Tarn-et-Garonne,44.104,1.3163,Piquecos,82130
82,Tarn-et-Garonne,44.094,0.9345,Pommevic,82400
82,Tarn-et-Garonne,43.819,1.3292,Pompignan,82170
82,Tarn-et-Garonne,43.962,0.8359,Poupas,82120
82,Tarn-et-Garonne,44.154,1.3219,Puycornet,82220
82,Tarn-et-Garonne,44.024,1.6316,Puygaillard-de-Quercy,82800
82,Tarn-et-Garonne,43.968,0.8934,Puygaillard-de-Lomagne,82120
82,Tarn-et-Garonne,44.306,1.8463,Puylagarde,82160
82,Tarn-et-Garonne,44.251,1.6352,Puylaroque,82240
82,Tarn-et-Garonne,44.128,1.4808,Réalville,82440
82,Tarn-et-Garonne,43.926,1.4145,Reyniès,82370
82,Tarn-et-Garonne,44.316,0.9465,Roquecor,82150
82,Tarn-et-Garonne,44.023,1.0733,Saint-Aignan,82100
82,Tarn-et-Garonne,44.311,0.8933,Saint-Amans-du-Pech,82150
82,Tarn-et-Garonne,44.221,1.1281,Saint-Amans-de-Pellagal,82110
82,Tarn-et-Garonne,44.156,1.7364,Saint-Antonin-Noble-Val,82140
82,Tarn-et-Garonne,43.991,0.9892,Saint-Arroumex,82210
82,Tarn-et-Garonne,44.333,0.9086,Saint-Beauzeil,82150
82,Tarn-et-Garonne,44.061,0.8388,Saint-Cirice,82340
82,Tarn-et-Garonne,44.134,1.6050,Saint-Cirq,82300
82,Tarn-et-Garonne,44.152,0.9423,Saint-Clair,82400
82,Tarn-et-Garonne,44.044,1.4570,Saint-Étienne-de-Tulmont,82410
82,Tarn-et-Garonne,44.218,1.6398,Saint-Georges,82240
82,Tarn-et-Garonne,43.986,0.8757,Saint-Jean-du-Bouzet,82120
82,Tarn-et-Garonne,44.292,1.1652,Sainte-Juliette,82110
82,Tarn-et-Garonne,44.083,0.8522,Saint-Loup,82340
82,Tarn-et-Garonne,44.045,0.9375,Saint-Michel,82340
82,Tarn-et-Garonne,43.958,1.4486,Saint-Nauphary,82370
82,Tarn-et-Garonne,44.205,1.0172,Saint-Nazaire-de-Valentane,82190
82,Tarn-et-Garonne,44.065,1.0202,Saint-Nicolas-de-la-Grave,82210
82,Tarn-et-Garonne,44.140,1.0020,Saint-Paul-d'Espis,82400
82,Tarn-et-Garonne,44.007,1.1822,Saint-Porquier,82700
82,Tarn-et-Garonne,44.310,1.7708,Saint-Projet,82160
82,Tarn-et-Garonne,43.901,1.1241,Saint-Sardos,82600
82,Tarn-et-Garonne,44.164,1.4663,Saint-Vincent-d'Autéjac,82300
82,Tarn-et-Garonne,44.120,0.9636,Saint-Vincent-Lespinasse,82400
82,Tarn-et-Garonne,43.966,1.5127,La Salvetat-Belmontet,82230
82,Tarn-et-Garonne,44.267,1.2726,Sauveterre,82110
82,Tarn-et-Garonne,43.830,1.1850,Savenès,82600
82,Tarn-et-Garonne,44.176,1.6173,Septfonds,82240
82,Tarn-et-Garonne,43.924,1.0248,Sérignac,82500
82,Tarn-et-Garonne,44.052,0.7833,Sistels,82340
82,Tarn-et-Garonne,44.275,1.0380,Touffailles,82190
82,Tarn-et-Garonne,44.266,1.2022,Tréjouls,82110
82,Tarn-et-Garonne,44.031,1.5706,Vaïssac,82800
82,Tarn-et-Garonne,44.362,0.9150,Valeilles,82150
82,Tarn-et-Garonne,44.106,0.8979,Valence,82400
82,Tarn-et-Garonne,44.158,1.8863,Varen,82330
82,Tarn-et-Garonne,43.916,1.4901,Varennes,82370
82,Tarn-et-Garonne,44.195,1.2765,Vazerac,82220
82,Tarn-et-Garonne,43.849,1.2284,Verdun-sur-Garonne,82600
82,Tarn-et-Garonne,44.184,1.8746,Verfeil,82330
82,Tarn-et-Garonne,43.933,1.5327,Verlhac-Tescou,82230
82,Tarn-et-Garonne,43.893,1.0562,Vigueron,82500
82,Tarn-et-Garonne,43.920,1.4512,Villebrumier,82370
82,Tarn-et-Garonne,44.080,1.2899,Villemade,82130
